{"type":"FeatureCollection","features":[{"type":"Feature","id":0,"properties":{"gisid":"S1","bez":"Steinstraße / Bahnhofstraße","we_kat":"200 - 499 Wohneinheiten","leg_fertig":"Im Bau","leg_gemeinw":"Potenziale für gemeinwohlorientierten Wohnungsbau"},"geometry":{"type":"MultiPoint","coordinates":[[13.397472,52.38777]]}},{"type":"Feature","id":1,"properties":{"gisid":"S10","bez":"Lützowstraße","we_kat":"200 - 499 Wohneinheiten","leg_fertig":"Im Bau","leg_gemeinw":"Sonstige Wohnungsbaupotenziale"},"geometry":{"type":"MultiPoint","coordinates":[[13.369862,52.501423]]}},{"type":"Feature","id":2,"properties":{"gisid":"S100","bez":"Falkenberger Chaussee","we_kat":"200 - 499 Wohneinheiten","leg_fertig":"Langfristiges Potenzial","leg_gemeinw":"Potenziale für gemeinwohlorientierten Wohnungsbau"},"geometry":{"type":"MultiPoint","coordinates":[[13.521716,52.568258]]}},{"type":"Feature","id":3,"properties":{"gisid":"S101","bez":"Genslerstraße / Freienwalder Straße","we_kat":"200 - 499 Wohneinheiten","leg_fertig":"Langfristiges Potenzial","leg_gemeinw":"Sonstige Wohnungsbaupotenziale"},"geometry":{"type":"MultiPoint","coordinates":[[13.49899,52.541529]]}},{"type":"Feature","id":4,"properties":{"gisid":"S102","bez":"Friedhof Frieden-Himmelfahrt","we_kat":"200 - 499 Wohneinheiten","leg_fertig":"Langfristiges Potenzial","leg_gemeinw":"Sonstige Wohnungsbaupotenziale"},"geometry":{"type":"MultiPoint","coordinates":[[13.403769,52.594946]]}},{"type":"Feature","id":5,"properties":{"gisid":"S103","bez":"Frühlingstraße","we_kat":"200 - 499 Wohneinheiten","leg_fertig":"Langfristiges Potenzial","leg_gemeinw":"Sonstige Wohnungsbaupotenziale"},"geometry":{"type":"MultiPoint","coordinates":[[13.378962,52.574423]]}},{"type":"Feature","id":6,"properties":{"gisid":"S104","bez":"HMH-Siedlung","we_kat":"200 - 499 Wohneinheiten","leg_fertig":"Langfristiges Potenzial","leg_gemeinw":"Potenziale für gemeinwohlorientierten Wohnungsbau"},"geometry":{"type":"MultiPoint","coordinates":[[13.4366,52.417924]]}},{"type":"Feature","id":7,"properties":{"gisid":"S105","bez":"Westfalenring","we_kat":"200 - 499 Wohneinheiten","leg_fertig":"Langfristiges Potenzial","leg_gemeinw":"Potenziale für gemeinwohlorientierten Wohnungsbau"},"geometry":{"type":"MultiPoint","coordinates":[[13.306377,52.406869]]}},{"type":"Feature","id":8,"properties":{"gisid":"S106","bez":"Pankower Allee / Residenzstraße / Simmelstraße","we_kat":"200 - 499 Wohneinheiten","leg_fertig":"Langfristiges Potenzial","leg_gemeinw":"Sonstige Wohnungsbaupotenziale"},"geometry":{"type":"MultiPoint","coordinates":[[13.365932,52.56465]]}},{"type":"Feature","id":9,"properties":{"gisid":"S107","bez":"Ehem. BEHALA-Areal","we_kat":"200 - 499 Wohneinheiten","leg_fertig":"Langfristiges Potenzial","leg_gemeinw":"Potenziale für gemeinwohlorientierten Wohnungsbau"},"geometry":{"type":"MultiPoint","coordinates":[[13.430559,52.507249]]}},{"type":"Feature","id":10,"properties":{"gisid":"S108","bez":"Wiener Straße / Reichenberger Straße","we_kat":"200 - 499 Wohneinheiten","leg_fertig":"Langfristiges Potenzial","leg_gemeinw":"Potenziale für gemeinwohlorientierten Wohnungsbau"},"geometry":{"type":"MultiPoint","coordinates":[[13.441655,52.493356]]}},{"type":"Feature","id":11,"properties":{"gisid":"S109","bez":"Buch III","we_kat":"200 - 499 Wohneinheiten","leg_fertig":"Langfristiges Potenzial","leg_gemeinw":"Potenziale für gemeinwohlorientierten Wohnungsbau"},"geometry":{"type":"MultiPoint","coordinates":[[13.495598,52.631889]]}},{"type":"Feature","id":12,"properties":{"gisid":"S11","bez":"Oderstraße","we_kat":"200 - 499 Wohneinheiten","leg_fertig":"Im Bau","leg_gemeinw":"Sonstige Wohnungsbaupotenziale"},"geometry":{"type":"MultiPoint","coordinates":[[13.420539,52.466441]]}},{"type":"Feature","id":13,"properties":{"gisid":"S110","bez":"Erholungsanlage Schildow-Waldeck","we_kat":"200 - 499 Wohneinheiten","leg_fertig":"Langfristiges Potenzial","leg_gemeinw":"Sonstige Wohnungsbaupotenziale"},"geometry":{"type":"MultiPoint","coordinates":[[13.380313,52.629796]]}},{"type":"Feature","id":14,"properties":{"gisid":"S111","bez":"Marienfelder Allee","we_kat":"200 - 499 Wohneinheiten","leg_fertig":"Langfristiges Potenzial","leg_gemeinw":"Potenziale für gemeinwohlorientierten Wohnungsbau"},"geometry":{"type":"MultiPoint","coordinates":[[13.361809,52.410289]]}},{"type":"Feature","id":15,"properties":{"gisid":"S112","bez":"Hoeppnerstraße / Tempelhofer Damm","we_kat":"200 - 499 Wohneinheiten","leg_fertig":"Langfristiges Potenzial","leg_gemeinw":"Sonstige Wohnungsbaupotenziale"},"geometry":{"type":"MultiPoint","coordinates":[[13.384781,52.471219]]}},{"type":"Feature","id":16,"properties":{"gisid":"S113","bez":"Areal Berliner Stadtmission","we_kat":"200 - 499 Wohneinheiten","leg_fertig":"Langfristiges Potenzial","leg_gemeinw":"Potenziale für gemeinwohlorientierten Wohnungsbau"},"geometry":{"type":"MultiPoint","coordinates":[[13.36319,52.526429]]}},{"type":"Feature","id":17,"properties":{"gisid":"S114","bez":"Kirchhof V Jerusalems- und Neue Kirche","we_kat":"200 - 499 Wohneinheiten","leg_fertig":"Langfristiges Potenzial","leg_gemeinw":"Potenziale für gemeinwohlorientierten Wohnungsbau"},"geometry":{"type":"MultiPoint","coordinates":[[13.424362,52.470799]]}},{"type":"Feature","id":18,"properties":{"gisid":"S115","bez":"Wildmeisterdamm","we_kat":"200 - 499 Wohneinheiten","leg_fertig":"Langfristiges Potenzial","leg_gemeinw":"Potenziale für gemeinwohlorientierten Wohnungsbau"},"geometry":{"type":"MultiPoint","coordinates":[[13.449432,52.424195]]}},{"type":"Feature","id":19,"properties":{"gisid":"S116","bez":"Ostburger Weg","we_kat":"200 - 499 Wohneinheiten","leg_fertig":"Langfristiges Potenzial","leg_gemeinw":"Potenziale für gemeinwohlorientierten Wohnungsbau"},"geometry":{"type":"MultiPoint","coordinates":[[13.509583,52.411846]]}},{"type":"Feature","id":20,"properties":{"gisid":"S117","bez":"Vulkanstraße / Elli-Vogt-Straße","we_kat":"200 - 499 Wohneinheiten","leg_fertig":"Langfristiges Potenzial","leg_gemeinw":"Potenziale für gemeinwohlorientierten Wohnungsbau"},"geometry":{"type":"MultiPoint","coordinates":[[13.484678,52.529634]]}},{"type":"Feature","id":21,"properties":{"gisid":"S118","bez":"Schöneberger Linse - Baufeld 8 westlich","we_kat":"200 - 499 Wohneinheiten","leg_fertig":"Langfristiges Potenzial","leg_gemeinw":"Sonstige Wohnungsbaupotenziale"},"geometry":{"type":"MultiPoint","coordinates":[[13.357567,52.477364]]}},{"type":"Feature","id":22,"properties":{"gisid":"S119","bez":"Lindenberger Weg / Klagenfurter Straße","we_kat":"200 - 499 Wohneinheiten","leg_fertig":"Langfristiges Potenzial","leg_gemeinw":"Potenziale für gemeinwohlorientierten Wohnungsbau"},"geometry":{"type":"MultiPoint","coordinates":[[13.472221,52.595713]]}},{"type":"Feature","id":23,"properties":{"gisid":"S12","bez":"Marchwitzastraße","we_kat":"200 - 499 Wohneinheiten","leg_fertig":"Im Bau","leg_gemeinw":"Sonstige Wohnungsbaupotenziale"},"geometry":{"type":"MultiPoint","coordinates":[[13.54425,52.523539]]}},{"type":"Feature","id":24,"properties":{"gisid":"S120","bez":"Gropiusstadt - südwestlicher Bereich","we_kat":"200 - 499 Wohneinheiten","leg_fertig":"Langfristiges Potenzial","leg_gemeinw":"Sonstige Wohnungsbaupotenziale"},"geometry":{"type":"MultiPoint","coordinates":[[13.454681,52.425307]]}},{"type":"Feature","id":25,"properties":{"gisid":"S121","bez":"Saatwinkler Damm / Küsterstraße","we_kat":"200 - 499 Wohneinheiten","leg_fertig":"Langfristiges Potenzial","leg_gemeinw":"Potenziale für gemeinwohlorientierten Wohnungsbau"},"geometry":{"type":"MultiPoint","coordinates":[[13.245474,52.546619]]}},{"type":"Feature","id":26,"properties":{"gisid":"S122","bez":"Gropiusstadt - nordwestlicher Bereich","we_kat":"200 - 499 Wohneinheiten","leg_fertig":"Langfristiges Potenzial","leg_gemeinw":"Sonstige Wohnungsbaupotenziale"},"geometry":{"type":"MultiPoint","coordinates":[[13.464199,52.428535]]}},{"type":"Feature","id":27,"properties":{"gisid":"S123","bez":"Molkenmarkt","we_kat":"200 - 499 Wohneinheiten","leg_fertig":"Langfristiges Potenzial","leg_gemeinw":"Potenziale für gemeinwohlorientierten Wohnungsbau"},"geometry":{"type":"MultiPoint","coordinates":[[13.409715,52.517101]]}},{"type":"Feature","id":28,"properties":{"gisid":"S124","bez":"Fürstenwalder Allee","we_kat":"200 - 499 Wohneinheiten","leg_fertig":"Langfristiges Potenzial","leg_gemeinw":"Potenziale für gemeinwohlorientierten Wohnungsbau"},"geometry":{"type":"MultiPoint","coordinates":[[13.721703,52.429505]]}},{"type":"Feature","id":29,"properties":{"gisid":"S125","bez":"Mohriner Allee Ost / Koppelweg","we_kat":"200 - 499 Wohneinheiten","leg_fertig":"Langfristiges Potenzial","leg_gemeinw":"Potenziale für gemeinwohlorientierten Wohnungsbau"},"geometry":{"type":"MultiPoint","coordinates":[[13.42851,52.443646]]}},{"type":"Feature","id":30,"properties":{"gisid":"S126","bez":"Urbanes Zentrum Neu-Hohenschönhausen","we_kat":"200 - 499 Wohneinheiten","leg_fertig":"Langfristiges Potenzial","leg_gemeinw":"Potenziale für gemeinwohlorientierten Wohnungsbau"},"geometry":{"type":"MultiPoint","coordinates":[[13.510128,52.565663]]}},{"type":"Feature","id":31,"properties":{"gisid":"S127","bez":"Invalidenstraße","we_kat":"200 - 499 Wohneinheiten","leg_fertig":"Langfristiges Potenzial","leg_gemeinw":"Potenziale für gemeinwohlorientierten Wohnungsbau"},"geometry":{"type":"MultiPoint","coordinates":[[13.363612,52.524185]]}},{"type":"Feature","id":32,"properties":{"gisid":"S128","bez":"Karower Damm / Lindenberger Weg","we_kat":"500 - 999 Wohneinheiten","leg_fertig":"Langfristiges Potenzial","leg_gemeinw":"Sonstige Wohnungsbaupotenziale"},"geometry":{"type":"MultiPoint","coordinates":[[13.46512,52.593549]]}},{"type":"Feature","id":33,"properties":{"gisid":"S129","bez":"Neue Mitte Tempelhof","we_kat":"500 - 999 Wohneinheiten","leg_fertig":"Langfristiges Potenzial","leg_gemeinw":"Potenziale für gemeinwohlorientierten Wohnungsbau"},"geometry":{"type":"MultiPoint","coordinates":[[13.388617,52.463879]]}},{"type":"Feature","id":34,"properties":{"gisid":"S13","bez":"Golgatha-Friedhof - West","we_kat":"200 - 499 Wohneinheiten","leg_fertig":"Im Bau","leg_gemeinw":"Potenziale für gemeinwohlorientierten Wohnungsbau"},"geometry":{"type":"MultiPoint","coordinates":[[13.34686,52.564218]]}},{"type":"Feature","id":35,"properties":{"gisid":"S130","bez":"An der Trabrennbahn","we_kat":"500 - 999 Wohneinheiten","leg_fertig":"Langfristiges Potenzial","leg_gemeinw":"Potenziale für gemeinwohlorientierten Wohnungsbau"},"geometry":{"type":"MultiPoint","coordinates":[[13.525544,52.473174]]}},{"type":"Feature","id":36,"properties":{"gisid":"S131","bez":"Projektverbund Karow-Süd - An der Laake","we_kat":"500 - 999 Wohneinheiten","leg_fertig":"Langfristiges Potenzial","leg_gemeinw":"Sonstige Wohnungsbaupotenziale"},"geometry":{"type":"MultiPoint","coordinates":[[13.486562,52.601882]]}},{"type":"Feature","id":37,"properties":{"gisid":"S132","bez":"Oberweißbacher Straße","we_kat":"500 - 999 Wohneinheiten","leg_fertig":"Langfristiges Potenzial","leg_gemeinw":"Potenziale für gemeinwohlorientierten Wohnungsbau"},"geometry":{"type":"MultiPoint","coordinates":[[13.570908,52.556945]]}},{"type":"Feature","id":38,"properties":{"gisid":"S133","bez":"Merler Weg / Allee der Kosmonauten - West","we_kat":"500 - 999 Wohneinheiten","leg_fertig":"Langfristiges Potenzial","leg_gemeinw":"Sonstige Wohnungsbaupotenziale"},"geometry":{"type":"MultiPoint","coordinates":[[13.530331,52.524402]]}},{"type":"Feature","id":39,"properties":{"gisid":"S134","bez":"Buch IV","we_kat":"500 - 999 Wohneinheiten","leg_fertig":"Langfristiges Potenzial","leg_gemeinw":"Potenziale für gemeinwohlorientierten Wohnungsbau"},"geometry":{"type":"MultiPoint","coordinates":[[13.489759,52.627752]]}},{"type":"Feature","id":40,"properties":{"gisid":"S135","bez":"Storkower Straße / Max-Brunnow-Straße","we_kat":"500 - 999 Wohneinheiten","leg_fertig":"Langfristiges Potenzial","leg_gemeinw":"Potenziale für gemeinwohlorientierten Wohnungsbau"},"geometry":{"type":"MultiPoint","coordinates":[[13.460911,52.525814]]}},{"type":"Feature","id":41,"properties":{"gisid":"S136","bez":"nördlich Treskowstraße","we_kat":"1000 - 1999 Wohneinheiten","leg_fertig":"Langfristiges Potenzial","leg_gemeinw":"Potenziale für gemeinwohlorientierten Wohnungsbau"},"geometry":{"type":"MultiPoint","coordinates":[[13.430795,52.563492]]}},{"type":"Feature","id":42,"properties":{"gisid":"S137","bez":"TXL Nord","we_kat":"1000 - 1999 Wohneinheiten","leg_fertig":"Langfristiges Potenzial","leg_gemeinw":"Potenziale für gemeinwohlorientierten Wohnungsbau"},"geometry":{"type":"MultiPoint","coordinates":[[13.301377,52.565074]]}},{"type":"Feature","id":43,"properties":{"gisid":"S138","bez":"Michelangelostraße","we_kat":"1000 - 1999 Wohneinheiten","leg_fertig":"Langfristiges Potenzial","leg_gemeinw":"Potenziale für gemeinwohlorientierten Wohnungsbau"},"geometry":{"type":"MultiPoint","coordinates":[[13.449112,52.543319]]}},{"type":"Feature","id":44,"properties":{"gisid":"S139","bez":"Projektverbund Karow-Süd - Karower Kreuz","we_kat":"1000 - 1999 Wohneinheiten","leg_fertig":"Langfristiges Potenzial","leg_gemeinw":"Potenziale für gemeinwohlorientierten Wohnungsbau"},"geometry":{"type":"MultiPoint","coordinates":[[13.469117,52.604715]]}},{"type":"Feature","id":45,"properties":{"gisid":"S14","bez":"Quartier Mollnerweg","we_kat":"200 - 499 Wohneinheiten","leg_fertig":"Im Bau","leg_gemeinw":"Potenziale für gemeinwohlorientierten Wohnungsbau"},"geometry":{"type":"MultiPoint","coordinates":[[13.446323,52.418607]]}},{"type":"Feature","id":46,"properties":{"gisid":"S140","bez":"Cité Pasteur","we_kat":"1000 - 1999 Wohneinheiten","leg_fertig":"Langfristiges Potenzial","leg_gemeinw":"Potenziale für gemeinwohlorientierten Wohnungsbau"},"geometry":{"type":"MultiPoint","coordinates":[[13.303226,52.554867]]}},{"type":"Feature","id":47,"properties":{"gisid":"S141","bez":"Ehemaliger Güterbahnhof Köpenick","we_kat":"1000 - 1999 Wohneinheiten","leg_fertig":"Langfristiges Potenzial","leg_gemeinw":"Potenziale für gemeinwohlorientierten Wohnungsbau"},"geometry":{"type":"MultiPoint","coordinates":[[13.591671,52.457816]]}},{"type":"Feature","id":48,"properties":{"gisid":"S142","bez":"Alte Schäferei - Bucher Straße / Baltrumstraße","we_kat":"1000 - 1999 Wohneinheiten","leg_fertig":"Langfristiges Potenzial","leg_gemeinw":"Sonstige Wohnungsbaupotenziale"},"geometry":{"type":"MultiPoint","coordinates":[[13.434851,52.615166]]}},{"type":"Feature","id":49,"properties":{"gisid":"S143","bez":"Alte Schäferei - Schönerlinder Straße","we_kat":"2000 und mehr Wohneinheiten","leg_fertig":"Langfristiges Potenzial","leg_gemeinw":"Potenziale für gemeinwohlorientierten Wohnungsbau"},"geometry":{"type":"MultiPoint","coordinates":[[13.426386,52.620203]]}},{"type":"Feature","id":50,"properties":{"gisid":"S144","bez":"Stadteingang West","we_kat":"2000 und mehr Wohneinheiten","leg_fertig":"Langfristiges Potenzial","leg_gemeinw":"Potenziale für gemeinwohlorientierten Wohnungsbau"},"geometry":{"type":"MultiPoint","coordinates":[[13.271709,52.495302]]}},{"type":"Feature","id":51,"properties":{"gisid":"S145","bez":"Dreieck Späthsfelde","we_kat":"2000 und mehr Wohneinheiten","leg_fertig":"Langfristiges Potenzial","leg_gemeinw":"Potenziale für gemeinwohlorientierten Wohnungsbau"},"geometry":{"type":"MultiPoint","coordinates":[[13.467531,52.454375]]}},{"type":"Feature","id":52,"properties":{"gisid":"S146","bez":"Ehemaliger Rangierbahnhof Pankow","we_kat":"2000 und mehr Wohneinheiten","leg_fertig":"Langfristiges Potenzial","leg_gemeinw":"Potenziale für gemeinwohlorientierten Wohnungsbau"},"geometry":{"type":"MultiPoint","coordinates":[[13.421366,52.570984]]}},{"type":"Feature","id":53,"properties":{"gisid":"S147","bez":"Projektverbund Karow-Süd - Am Teichberg","we_kat":"2000 und mehr Wohneinheiten","leg_fertig":"Langfristiges Potenzial","leg_gemeinw":"Potenziale für gemeinwohlorientierten Wohnungsbau"},"geometry":{"type":"MultiPoint","coordinates":[[13.490639,52.60759]]}},{"type":"Feature","id":54,"properties":{"gisid":"S148","bez":"Lichterfelde Süd","we_kat":"2000 und mehr Wohneinheiten","leg_fertig":"Langfristiges Potenzial","leg_gemeinw":"Potenziale für gemeinwohlorientierten Wohnungsbau"},"geometry":{"type":"MultiPoint","coordinates":[[13.315202,52.408988]]}},{"type":"Feature","id":55,"properties":{"gisid":"S149","bez":"Siemensstadt Square","we_kat":"2000 und mehr Wohneinheiten","leg_fertig":"Langfristiges Potenzial","leg_gemeinw":"Potenziale für gemeinwohlorientierten Wohnungsbau"},"geometry":{"type":"MultiPoint","coordinates":[[13.253531,52.542059]]}},{"type":"Feature","id":56,"properties":{"gisid":"S15","bez":"Heisenbergstraße / Schlesingerstraße","we_kat":"200 - 499 Wohneinheiten","leg_fertig":"Im Bau","leg_gemeinw":"Potenziale für gemeinwohlorientierten Wohnungsbau"},"geometry":{"type":"MultiPoint","coordinates":[[13.325146,52.523663]]}},{"type":"Feature","id":57,"properties":{"gisid":"S150","bez":"Buch - Am Sandhaus","we_kat":"2000 und mehr Wohneinheiten","leg_fertig":"Langfristiges Potenzial","leg_gemeinw":"Potenziale für gemeinwohlorientierten Wohnungsbau"},"geometry":{"type":"MultiPoint","coordinates":[[13.483523,52.637396]]}},{"type":"Feature","id":58,"properties":{"gisid":"S151","bez":"Elisabeth-Aue","we_kat":"2000 und mehr Wohneinheiten","leg_fertig":"Langfristiges Potenzial","leg_gemeinw":"Potenziale für gemeinwohlorientierten Wohnungsbau"},"geometry":{"type":"MultiPoint","coordinates":[[13.407887,52.608392]]}},{"type":"Feature","id":59,"properties":{"gisid":"S152","bez":"Blankenburger Süden","we_kat":"2000 und mehr Wohneinheiten","leg_fertig":"Langfristiges Potenzial","leg_gemeinw":"Potenziale für gemeinwohlorientierten Wohnungsbau"},"geometry":{"type":"MultiPoint","coordinates":[[13.454251,52.579536]]}},{"type":"Feature","id":60,"properties":{"gisid":"S153","bez":"Schumacher Quartier","we_kat":"2000 und mehr Wohneinheiten","leg_fertig":"Langfristiges Potenzial","leg_gemeinw":"Potenziale für gemeinwohlorientierten Wohnungsbau"},"geometry":{"type":"MultiPoint","coordinates":[[13.317669,52.560936]]}},{"type":"Feature","id":61,"properties":{"gisid":"S154","bez":"Kiehlufer","we_kat":"200 - 499 Wohneinheiten","leg_fertig":"Mittelfristiges Potenzial","leg_gemeinw":"Potenziale für gemeinwohlorientierten Wohnungsbau"},"geometry":{"type":"MultiPoint","coordinates":[[13.452494,52.482186]]}},{"type":"Feature","id":62,"properties":{"gisid":"S155","bez":"Etkar-André-Straße","we_kat":"200 - 499 Wohneinheiten","leg_fertig":"Mittelfristiges Potenzial","leg_gemeinw":"Sonstige Wohnungsbaupotenziale"},"geometry":{"type":"MultiPoint","coordinates":[[13.593523,52.530014]]}},{"type":"Feature","id":63,"properties":{"gisid":"S156","bez":"Möllendorfstraße / Storkower Straße","we_kat":"200 - 499 Wohneinheiten","leg_fertig":"Mittelfristiges Potenzial","leg_gemeinw":"Sonstige Wohnungsbaupotenziale"},"geometry":{"type":"MultiPoint","coordinates":[[13.47837,52.52258]]}},{"type":"Feature","id":64,"properties":{"gisid":"S157","bez":"Bürgerstraße / Provinzstraße","we_kat":"200 - 499 Wohneinheiten","leg_fertig":"Mittelfristiges Potenzial","leg_gemeinw":"Sonstige Wohnungsbaupotenziale"},"geometry":{"type":"MultiPoint","coordinates":[[13.380754,52.570872]]}},{"type":"Feature","id":65,"properties":{"gisid":"S158","bez":"Wiesbadener Straße / Helgolandstraße","we_kat":"200 - 499 Wohneinheiten","leg_fertig":"Mittelfristiges Potenzial","leg_gemeinw":"Potenziale für gemeinwohlorientierten Wohnungsbau"},"geometry":{"type":"MultiPoint","coordinates":[[13.301786,52.472492]]}},{"type":"Feature","id":66,"properties":{"gisid":"S159","bez":"Blankenburger Straße / Grumbkowstraße","we_kat":"200 - 499 Wohneinheiten","leg_fertig":"Mittelfristiges Potenzial","leg_gemeinw":"Potenziale für gemeinwohlorientierten Wohnungsbau"},"geometry":{"type":"MultiPoint","coordinates":[[13.426138,52.584894]]}},{"type":"Feature","id":67,"properties":{"gisid":"S16","bez":"Wasserstadt B-Oberhavel - Am Maselakepark","we_kat":"200 - 499 Wohneinheiten","leg_fertig":"Im Bau","leg_gemeinw":"Sonstige Wohnungsbaupotenziale"},"geometry":{"type":"MultiPoint","coordinates":[[13.21435,52.556159]]}},{"type":"Feature","id":68,"properties":{"gisid":"S160","bez":"Wasserstadt B-Oberhavel - Carossaquartier Nord","we_kat":"200 - 499 Wohneinheiten","leg_fertig":"Mittelfristiges Potenzial","leg_gemeinw":"Sonstige Wohnungsbaupotenziale"},"geometry":{"type":"MultiPoint","coordinates":[[13.212209,52.559464]]}},{"type":"Feature","id":69,"properties":{"gisid":"S161","bez":"Schöneberger Linse - Baufeld 6","we_kat":"200 - 499 Wohneinheiten","leg_fertig":"Mittelfristiges Potenzial","leg_gemeinw":"Sonstige Wohnungsbaupotenziale"},"geometry":{"type":"MultiPoint","coordinates":[[13.359264,52.478396]]}},{"type":"Feature","id":70,"properties":{"gisid":"S162","bez":"Firlstraße / Kottmeierstraße","we_kat":"200 - 499 Wohneinheiten","leg_fertig":"Mittelfristiges Potenzial","leg_gemeinw":"Potenziale für gemeinwohlorientierten Wohnungsbau"},"geometry":{"type":"MultiPoint","coordinates":[[13.5285,52.462587]]}},{"type":"Feature","id":71,"properties":{"gisid":"S163","bez":"Ehem. Bock-Brauerei","we_kat":"200 - 499 Wohneinheiten","leg_fertig":"Mittelfristiges Potenzial","leg_gemeinw":"Potenziale für gemeinwohlorientierten Wohnungsbau"},"geometry":{"type":"MultiPoint","coordinates":[[13.389654,52.486332]]}},{"type":"Feature","id":72,"properties":{"gisid":"S164","bez":"Wilhelmstraße / Friedrich-Stampfer-Straße","we_kat":"200 - 499 Wohneinheiten","leg_fertig":"Mittelfristiges Potenzial","leg_gemeinw":"Potenziale für gemeinwohlorientierten Wohnungsbau"},"geometry":{"type":"MultiPoint","coordinates":[[13.389754,52.499639]]}},{"type":"Feature","id":73,"properties":{"gisid":"S165","bez":"Ehem. Zapf-Areal","we_kat":"200 - 499 Wohneinheiten","leg_fertig":"Mittelfristiges Potenzial","leg_gemeinw":"Potenziale für gemeinwohlorientierten Wohnungsbau"},"geometry":{"type":"MultiPoint","coordinates":[[13.436254,52.504501]]}},{"type":"Feature","id":74,"properties":{"gisid":"S166","bez":"Sachtlebenstraße","we_kat":"200 - 499 Wohneinheiten","leg_fertig":"Mittelfristiges Potenzial","leg_gemeinw":"Sonstige Wohnungsbaupotenziale"},"geometry":{"type":"MultiPoint","coordinates":[[13.250645,52.406477]]}},{"type":"Feature","id":75,"properties":{"gisid":"S167","bez":"Hildburghauser Straße / Luckeweg","we_kat":"200 - 499 Wohneinheiten","leg_fertig":"Mittelfristiges Potenzial","leg_gemeinw":"Potenziale für gemeinwohlorientierten Wohnungsbau"},"geometry":{"type":"MultiPoint","coordinates":[[13.356297,52.412549]]}},{"type":"Feature","id":76,"properties":{"gisid":"S168","bez":"Heinrich-Heine-Straße","we_kat":"200 - 499 Wohneinheiten","leg_fertig":"Mittelfristiges Potenzial","leg_gemeinw":"Potenziale für gemeinwohlorientierten Wohnungsbau"},"geometry":{"type":"MultiPoint","coordinates":[[13.415446,52.509129]]}},{"type":"Feature","id":77,"properties":{"gisid":"S169","bez":"Wolfgang-Heinz-Straße","we_kat":"200 - 499 Wohneinheiten","leg_fertig":"Mittelfristiges Potenzial","leg_gemeinw":"Potenziale für gemeinwohlorientierten Wohnungsbau"},"geometry":{"type":"MultiPoint","coordinates":[[13.495278,52.629635]]}},{"type":"Feature","id":78,"properties":{"gisid":"S17","bez":"Ehem. Tacheles","we_kat":"200 - 499 Wohneinheiten","leg_fertig":"Im Bau","leg_gemeinw":"Sonstige Wohnungsbaupotenziale"},"geometry":{"type":"MultiPoint","coordinates":[[13.390215,52.52478]]}},{"type":"Feature","id":79,"properties":{"gisid":"S170","bez":"Blankenburger Straße","we_kat":"200 - 499 Wohneinheiten","leg_fertig":"Mittelfristiges Potenzial","leg_gemeinw":"Sonstige Wohnungsbaupotenziale"},"geometry":{"type":"MultiPoint","coordinates":[[13.419258,52.58378]]}},{"type":"Feature","id":80,"properties":{"gisid":"S171","bez":"Werneuchener Straße","we_kat":"200 - 499 Wohneinheiten","leg_fertig":"Mittelfristiges Potenzial","leg_gemeinw":"Sonstige Wohnungsbaupotenziale"},"geometry":{"type":"MultiPoint","coordinates":[[13.49716,52.540503]]}},{"type":"Feature","id":81,"properties":{"gisid":"S172","bez":"Schwarzmeerstraße","we_kat":"200 - 499 Wohneinheiten","leg_fertig":"Mittelfristiges Potenzial","leg_gemeinw":"Potenziale für gemeinwohlorientierten Wohnungsbau"},"geometry":{"type":"MultiPoint","coordinates":[[13.513206,52.501864]]}},{"type":"Feature","id":82,"properties":{"gisid":"S173","bez":"Rienzistraße / Tannhäuserstraße","we_kat":"200 - 499 Wohneinheiten","leg_fertig":"Mittelfristiges Potenzial","leg_gemeinw":"Potenziale für gemeinwohlorientierten Wohnungsbau"},"geometry":{"type":"MultiPoint","coordinates":[[13.515984,52.490782]]}},{"type":"Feature","id":83,"properties":{"gisid":"S174","bez":"Walderseer Straße / Markstraße / Holländerstraße","we_kat":"200 - 499 Wohneinheiten","leg_fertig":"Mittelfristiges Potenzial","leg_gemeinw":"Sonstige Wohnungsbaupotenziale"},"geometry":{"type":"MultiPoint","coordinates":[[13.362604,52.561618]]}},{"type":"Feature","id":84,"properties":{"gisid":"S175","bez":"Cité Foch - Hallenbad","we_kat":"200 - 499 Wohneinheiten","leg_fertig":"Mittelfristiges Potenzial","leg_gemeinw":"Potenziale für gemeinwohlorientierten Wohnungsbau"},"geometry":{"type":"MultiPoint","coordinates":[[13.321078,52.599873]]}},{"type":"Feature","id":85,"properties":{"gisid":"S176","bez":"Otto-Suhr-Allee / Warburgzeile","we_kat":"200 - 499 Wohneinheiten","leg_fertig":"Mittelfristiges Potenzial","leg_gemeinw":"Sonstige Wohnungsbaupotenziale"},"geometry":{"type":"MultiPoint","coordinates":[[13.310447,52.516979]]}},{"type":"Feature","id":86,"properties":{"gisid":"S177","bez":"Florian-Geyer-Straße","we_kat":"200 - 499 Wohneinheiten","leg_fertig":"Mittelfristiges Potenzial","leg_gemeinw":"Potenziale für gemeinwohlorientierten Wohnungsbau"},"geometry":{"type":"MultiPoint","coordinates":[[13.545755,52.4379]]}},{"type":"Feature","id":87,"properties":{"gisid":"S178","bez":"Europacity - Bestand westl. Heidestraße","we_kat":"200 - 499 Wohneinheiten","leg_fertig":"Mittelfristiges Potenzial","leg_gemeinw":"Sonstige Wohnungsbaupotenziale"},"geometry":{"type":"MultiPoint","coordinates":[[13.367035,52.530673]]}},{"type":"Feature","id":88,"properties":{"gisid":"S179","bez":"Idunastraße / Neukirchstraße - West","we_kat":"200 - 499 Wohneinheiten","leg_fertig":"Mittelfristiges Potenzial","leg_gemeinw":"Sonstige Wohnungsbaupotenziale"},"geometry":{"type":"MultiPoint","coordinates":[[13.431311,52.574879]]}},{"type":"Feature","id":89,"properties":{"gisid":"S18","bez":"Eichbuschallee","we_kat":"200 - 499 Wohneinheiten","leg_fertig":"Im Bau","leg_gemeinw":"Potenziale für gemeinwohlorientierten Wohnungsbau"},"geometry":{"type":"MultiPoint","coordinates":[[13.481215,52.472067]]}},{"type":"Feature","id":90,"properties":{"gisid":"S180","bez":"Chemnitzer Straße","we_kat":"200 - 499 Wohneinheiten","leg_fertig":"Mittelfristiges Potenzial","leg_gemeinw":"Potenziale für gemeinwohlorientierten Wohnungsbau"},"geometry":{"type":"MultiPoint","coordinates":[[13.579733,52.503636]]}},{"type":"Feature","id":91,"properties":{"gisid":"S181","bez":"Neuendorfer Straße / Askanierring","we_kat":"200 - 499 Wohneinheiten","leg_fertig":"Mittelfristiges Potenzial","leg_gemeinw":"Potenziale für gemeinwohlorientierten Wohnungsbau"},"geometry":{"type":"MultiPoint","coordinates":[[13.205568,52.553285]]}},{"type":"Feature","id":92,"properties":{"gisid":"S182","bez":"Weder-Kiez Süd","we_kat":"200 - 499 Wohneinheiten","leg_fertig":"Mittelfristiges Potenzial","leg_gemeinw":"Sonstige Wohnungsbaupotenziale"},"geometry":{"type":"MultiPoint","coordinates":[[13.43708,52.461375]]}},{"type":"Feature","id":93,"properties":{"gisid":"S183","bez":"Weißenseer Weg","we_kat":"200 - 499 Wohneinheiten","leg_fertig":"Mittelfristiges Potenzial","leg_gemeinw":"Potenziale für gemeinwohlorientierten Wohnungsbau"},"geometry":{"type":"MultiPoint","coordinates":[[13.47416,52.537293]]}},{"type":"Feature","id":94,"properties":{"gisid":"S184","bez":"Treffurter Straße","we_kat":"200 - 499 Wohneinheiten","leg_fertig":"Mittelfristiges Potenzial","leg_gemeinw":"Sonstige Wohnungsbaupotenziale"},"geometry":{"type":"MultiPoint","coordinates":[[13.517997,52.53625]]}},{"type":"Feature","id":95,"properties":{"gisid":"S185","bez":"Alfred-Kowalke-Straße","we_kat":"200 - 499 Wohneinheiten","leg_fertig":"Mittelfristiges Potenzial","leg_gemeinw":"Sonstige Wohnungsbaupotenziale"},"geometry":{"type":"MultiPoint","coordinates":[[13.515645,52.504667]]}},{"type":"Feature","id":96,"properties":{"gisid":"S186","bez":"Zwieseler Straße","we_kat":"200 - 499 Wohneinheiten","leg_fertig":"Mittelfristiges Potenzial","leg_gemeinw":"Potenziale für gemeinwohlorientierten Wohnungsbau"},"geometry":{"type":"MultiPoint","coordinates":[[13.541404,52.497175]]}},{"type":"Feature","id":97,"properties":{"gisid":"S187","bez":"Markstraße / Residenzstraße","we_kat":"200 - 499 Wohneinheiten","leg_fertig":"Mittelfristiges Potenzial","leg_gemeinw":"Sonstige Wohnungsbaupotenziale"},"geometry":{"type":"MultiPoint","coordinates":[[13.366176,52.5614]]}},{"type":"Feature","id":98,"properties":{"gisid":"S188","bez":"Treuenbrietzener Straße","we_kat":"200 - 499 Wohneinheiten","leg_fertig":"Mittelfristiges Potenzial","leg_gemeinw":"Potenziale für gemeinwohlorientierten Wohnungsbau"},"geometry":{"type":"MultiPoint","coordinates":[[13.361442,52.599357]]}},{"type":"Feature","id":99,"properties":{"gisid":"S189","bez":"Freienwalder Straße","we_kat":"200 - 499 Wohneinheiten","leg_fertig":"Mittelfristiges Potenzial","leg_gemeinw":"Sonstige Wohnungsbaupotenziale"},"geometry":{"type":"MultiPoint","coordinates":[[13.497746,52.541774]]}},{"type":"Feature","id":100,"properties":{"gisid":"S19","bez":"Wasserstadt B-Oberhavel - Ufer Daumstr. Süd","we_kat":"200 - 499 Wohneinheiten","leg_fertig":"Im Bau","leg_gemeinw":"Sonstige Wohnungsbaupotenziale"},"geometry":{"type":"MultiPoint","coordinates":[[13.224115,52.550736]]}},{"type":"Feature","id":101,"properties":{"gisid":"S190","bez":"Lichterfelder Ring","we_kat":"200 - 499 Wohneinheiten","leg_fertig":"Mittelfristiges Potenzial","leg_gemeinw":"Potenziale für gemeinwohlorientierten Wohnungsbau"},"geometry":{"type":"MultiPoint","coordinates":[[13.343917,52.410548]]}},{"type":"Feature","id":102,"properties":{"gisid":"S191","bez":"Nördliche Bernauer Straße","we_kat":"200 - 499 Wohneinheiten","leg_fertig":"Mittelfristiges Potenzial","leg_gemeinw":"Sonstige Wohnungsbaupotenziale"},"geometry":{"type":"MultiPoint","coordinates":[[13.278779,52.577068]]}},{"type":"Feature","id":103,"properties":{"gisid":"S192","bez":"Wattstraße","we_kat":"200 - 499 Wohneinheiten","leg_fertig":"Mittelfristiges Potenzial","leg_gemeinw":"Sonstige Wohnungsbaupotenziale"},"geometry":{"type":"MultiPoint","coordinates":[[13.507967,52.468326]]}},{"type":"Feature","id":104,"properties":{"gisid":"S193","bez":"Ehem. Haus der Statistik","we_kat":"200 - 499 Wohneinheiten","leg_fertig":"Mittelfristiges Potenzial","leg_gemeinw":"Potenziale für gemeinwohlorientierten Wohnungsbau"},"geometry":{"type":"MultiPoint","coordinates":[[13.419178,52.523207]]}},{"type":"Feature","id":105,"properties":{"gisid":"S194","bez":"Mühlenstraße","we_kat":"200 - 499 Wohneinheiten","leg_fertig":"Mittelfristiges Potenzial","leg_gemeinw":"Potenziale für gemeinwohlorientierten Wohnungsbau"},"geometry":{"type":"MultiPoint","coordinates":[[13.445939,52.504249]]}},{"type":"Feature","id":106,"properties":{"gisid":"S195","bez":"Buckower Damm / Zimmererweg","we_kat":"200 - 499 Wohneinheiten","leg_fertig":"Mittelfristiges Potenzial","leg_gemeinw":"Potenziale für gemeinwohlorientierten Wohnungsbau"},"geometry":{"type":"MultiPoint","coordinates":[[13.435801,52.433969]]}},{"type":"Feature","id":107,"properties":{"gisid":"S196","bez":"Alexanderplatz - Baufeld D4","we_kat":"200 - 499 Wohneinheiten","leg_fertig":"Mittelfristiges Potenzial","leg_gemeinw":"Sonstige Wohnungsbaupotenziale"},"geometry":{"type":"MultiPoint","coordinates":[[13.415518,52.521944]]}},{"type":"Feature","id":108,"properties":{"gisid":"S197","bez":"Müggellandstraße","we_kat":"200 - 499 Wohneinheiten","leg_fertig":"Mittelfristiges Potenzial","leg_gemeinw":"Potenziale für gemeinwohlorientierten Wohnungsbau"},"geometry":{"type":"MultiPoint","coordinates":[[13.658603,52.417399]]}},{"type":"Feature","id":109,"properties":{"gisid":"S198","bez":"Waldowallee","we_kat":"200 - 499 Wohneinheiten","leg_fertig":"Mittelfristiges Potenzial","leg_gemeinw":"Potenziale für gemeinwohlorientierten Wohnungsbau"},"geometry":{"type":"MultiPoint","coordinates":[[13.535802,52.484034]]}},{"type":"Feature","id":110,"properties":{"gisid":"S199","bez":"Hohensaatener Straße","we_kat":"200 - 499 Wohneinheiten","leg_fertig":"Mittelfristiges Potenzial","leg_gemeinw":"Potenziale für gemeinwohlorientierten Wohnungsbau"},"geometry":{"type":"MultiPoint","coordinates":[[13.577971,52.549873]]}},{"type":"Feature","id":111,"properties":{"gisid":"S2","bez":"Wasserstadt B-Oberhavel - Kl. Eiswerderstraße","we_kat":"200 - 499 Wohneinheiten","leg_fertig":"Im Bau","leg_gemeinw":"Sonstige Wohnungsbaupotenziale"},"geometry":{"type":"MultiPoint","coordinates":[[13.224757,52.549284]]}},{"type":"Feature","id":112,"properties":{"gisid":"S20","bez":"Alexanderplatz - Baufeld D3","we_kat":"200 - 499 Wohneinheiten","leg_fertig":"Im Bau","leg_gemeinw":"Sonstige Wohnungsbaupotenziale"},"geometry":{"type":"MultiPoint","coordinates":[[13.414093,52.522385]]}},{"type":"Feature","id":113,"properties":{"gisid":"S200","bez":"Jan-Petersen-Straße","we_kat":"200 - 499 Wohneinheiten","leg_fertig":"Mittelfristiges Potenzial","leg_gemeinw":"Sonstige Wohnungsbaupotenziale"},"geometry":{"type":"MultiPoint","coordinates":[[13.564913,52.549027]]}},{"type":"Feature","id":114,"properties":{"gisid":"S201","bez":"Holzmarktstraße","we_kat":"200 - 499 Wohneinheiten","leg_fertig":"Mittelfristiges Potenzial","leg_gemeinw":"Potenziale für gemeinwohlorientierten Wohnungsbau"},"geometry":{"type":"MultiPoint","coordinates":[[13.426083,52.512807]]}},{"type":"Feature","id":115,"properties":{"gisid":"S202","bez":"Staakener Feldstraße / Nennhauser Damm","we_kat":"200 - 499 Wohneinheiten","leg_fertig":"Mittelfristiges Potenzial","leg_gemeinw":"Potenziale für gemeinwohlorientierten Wohnungsbau"},"geometry":{"type":"MultiPoint","coordinates":[[13.138786,52.535759]]}},{"type":"Feature","id":116,"properties":{"gisid":"S203","bez":"St.-Johannes-Evangelist-Kirchhof","we_kat":"200 - 499 Wohneinheiten","leg_fertig":"Mittelfristiges Potenzial","leg_gemeinw":"Sonstige Wohnungsbaupotenziale"},"geometry":{"type":"MultiPoint","coordinates":[[13.352749,52.560697]]}},{"type":"Feature","id":117,"properties":{"gisid":"S204","bez":"Detlevstraße","we_kat":"200 - 499 Wohneinheiten","leg_fertig":"Mittelfristiges Potenzial","leg_gemeinw":"Potenziale für gemeinwohlorientierten Wohnungsbau"},"geometry":{"type":"MultiPoint","coordinates":[[13.524325,52.552943]]}},{"type":"Feature","id":118,"properties":{"gisid":"S205","bez":"Alte Jakobstraße / Franz-Künstler-Straße","we_kat":"200 - 499 Wohneinheiten","leg_fertig":"Mittelfristiges Potenzial","leg_gemeinw":"Potenziale für gemeinwohlorientierten Wohnungsbau"},"geometry":{"type":"MultiPoint","coordinates":[[13.399647,52.502263]]}},{"type":"Feature","id":119,"properties":{"gisid":"S206","bez":"Dickensweg / Scottsweg / Swiftweg","we_kat":"200 - 499 Wohneinheiten","leg_fertig":"Mittelfristiges Potenzial","leg_gemeinw":"Potenziale für gemeinwohlorientierten Wohnungsbau"},"geometry":{"type":"MultiPoint","coordinates":[[13.234817,52.509173]]}},{"type":"Feature","id":120,"properties":{"gisid":"S207","bez":"Ehem. Schulgelände Wollenberger Straße","we_kat":"200 - 499 Wohneinheiten","leg_fertig":"Mittelfristiges Potenzial","leg_gemeinw":"Potenziale für gemeinwohlorientierten Wohnungsbau"},"geometry":{"type":"MultiPoint","coordinates":[[13.511082,52.547557]]}},{"type":"Feature","id":121,"properties":{"gisid":"S208","bez":"Wasserstadt B-Oberhavel - Daumstraße","we_kat":"200 - 499 Wohneinheiten","leg_fertig":"Mittelfristiges Potenzial","leg_gemeinw":"Potenziale für gemeinwohlorientierten Wohnungsbau"},"geometry":{"type":"MultiPoint","coordinates":[[13.228713,52.550585]]}},{"type":"Feature","id":122,"properties":{"gisid":"S209","bez":"Dragoner-Areal","we_kat":"200 - 499 Wohneinheiten","leg_fertig":"Mittelfristiges Potenzial","leg_gemeinw":"Potenziale für gemeinwohlorientierten Wohnungsbau"},"geometry":{"type":"MultiPoint","coordinates":[[13.386908,52.495118]]}},{"type":"Feature","id":123,"properties":{"gisid":"S21","bez":"Mittenwalder Straße","we_kat":"200 - 499 Wohneinheiten","leg_fertig":"Im Bau","leg_gemeinw":"Potenziale für gemeinwohlorientierten Wohnungsbau"},"geometry":{"type":"MultiPoint","coordinates":[[13.597728,52.545854]]}},{"type":"Feature","id":124,"properties":{"gisid":"S210","bez":"Georgen-Parochial III Friedhof - Nord","we_kat":"200 - 499 Wohneinheiten","leg_fertig":"Mittelfristiges Potenzial","leg_gemeinw":"Potenziale für gemeinwohlorientierten Wohnungsbau"},"geometry":{"type":"MultiPoint","coordinates":[[13.445827,52.55643]]}},{"type":"Feature","id":125,"properties":{"gisid":"S211","bez":"Ehem. Sport- und Erholungszentrum (SEZ)","we_kat":"500 - 999 Wohneinheiten","leg_fertig":"Mittelfristiges Potenzial","leg_gemeinw":"Sonstige Wohnungsbaupotenziale"},"geometry":{"type":"MultiPoint","coordinates":[[13.445357,52.526761]]}},{"type":"Feature","id":126,"properties":{"gisid":"S212","bez":"Am Gartenstadtweg - Falkenberg","we_kat":"500 - 999 Wohneinheiten","leg_fertig":"Mittelfristiges Potenzial","leg_gemeinw":"Potenziale für gemeinwohlorientierten Wohnungsbau"},"geometry":{"type":"MultiPoint","coordinates":[[13.563076,52.408368]]}},{"type":"Feature","id":127,"properties":{"gisid":"S213","bez":"Hellersdorfer Straße","we_kat":"500 - 999 Wohneinheiten","leg_fertig":"Mittelfristiges Potenzial","leg_gemeinw":"Sonstige Wohnungsbaupotenziale"},"geometry":{"type":"MultiPoint","coordinates":[[13.58689,52.52441]]}},{"type":"Feature","id":128,"properties":{"gisid":"S214","bez":"Bohnsdorfer Weg","we_kat":"500 - 999 Wohneinheiten","leg_fertig":"Mittelfristiges Potenzial","leg_gemeinw":"Potenziale für gemeinwohlorientierten Wohnungsbau"},"geometry":{"type":"MultiPoint","coordinates":[[13.552183,52.408063]]}},{"type":"Feature","id":129,"properties":{"gisid":"S215","bez":"Ziekowstraße Süd","we_kat":"500 - 999 Wohneinheiten","leg_fertig":"Mittelfristiges Potenzial","leg_gemeinw":"Sonstige Wohnungsbaupotenziale"},"geometry":{"type":"MultiPoint","coordinates":[[13.29304,52.58892]]}},{"type":"Feature","id":130,"properties":{"gisid":"S216","bez":"Köpenicker Allee","we_kat":"500 - 999 Wohneinheiten","leg_fertig":"Mittelfristiges Potenzial","leg_gemeinw":"Potenziale für gemeinwohlorientierten Wohnungsbau"},"geometry":{"type":"MultiPoint","coordinates":[[13.538897,52.481477]]}},{"type":"Feature","id":131,"properties":{"gisid":"S217","bez":"Theaterplatz / Schkeuditzer Straße","we_kat":"500 - 999 Wohneinheiten","leg_fertig":"Mittelfristiges Potenzial","leg_gemeinw":"Potenziale für gemeinwohlorientierten Wohnungsbau"},"geometry":{"type":"MultiPoint","coordinates":[[13.620733,52.54089]]}},{"type":"Feature","id":132,"properties":{"gisid":"S218","bez":"Karl-Bonhoeffer-Nervenklinik","we_kat":"500 - 999 Wohneinheiten","leg_fertig":"Mittelfristiges Potenzial","leg_gemeinw":"Potenziale für gemeinwohlorientierten Wohnungsbau"},"geometry":{"type":"MultiPoint","coordinates":[[13.324718,52.582131]]}},{"type":"Feature","id":133,"properties":{"gisid":"S219","bez":"Alte Gärtnerei Heinersdorf","we_kat":"500 - 999 Wohneinheiten","leg_fertig":"Mittelfristiges Potenzial","leg_gemeinw":"Potenziale für gemeinwohlorientierten Wohnungsbau"},"geometry":{"type":"MultiPoint","coordinates":[[13.440108,52.570061]]}},{"type":"Feature","id":134,"properties":{"gisid":"S22","bez":"Stresowplatz","we_kat":"200 - 499 Wohneinheiten","leg_fertig":"Im Bau","leg_gemeinw":"Sonstige Wohnungsbaupotenziale"},"geometry":{"type":"MultiPoint","coordinates":[[13.204144,52.533474]]}},{"type":"Feature","id":135,"properties":{"gisid":"S220","bez":"Am Spreebord","we_kat":"500 - 999 Wohneinheiten","leg_fertig":"Mittelfristiges Potenzial","leg_gemeinw":"Potenziale für gemeinwohlorientierten Wohnungsbau"},"geometry":{"type":"MultiPoint","coordinates":[[13.312948,52.522055]]}},{"type":"Feature","id":136,"properties":{"gisid":"S221","bez":"Schulze-Boysen-Straße / Coppistraße","we_kat":"500 - 999 Wohneinheiten","leg_fertig":"Mittelfristiges Potenzial","leg_gemeinw":"Potenziale für gemeinwohlorientierten Wohnungsbau"},"geometry":{"type":"MultiPoint","coordinates":[[13.4824,52.509071]]}},{"type":"Feature","id":137,"properties":{"gisid":"S222","bez":"Hennigsdorfer Straße","we_kat":"500 - 999 Wohneinheiten","leg_fertig":"Mittelfristiges Potenzial","leg_gemeinw":"Potenziale für gemeinwohlorientierten Wohnungsbau"},"geometry":{"type":"MultiPoint","coordinates":[[13.22394,52.626728]]}},{"type":"Feature","id":138,"properties":{"gisid":"S223","bez":"Ludwig-Quidde-Straße (Südost)","we_kat":"500 - 999 Wohneinheiten","leg_fertig":"Mittelfristiges Potenzial","leg_gemeinw":"Potenziale für gemeinwohlorientierten Wohnungsbau"},"geometry":{"type":"MultiPoint","coordinates":[[13.442806,52.599229]]}},{"type":"Feature","id":139,"properties":{"gisid":"S224","bez":"Ehem. Güterbahnhof Neukölln","we_kat":"500 - 999 Wohneinheiten","leg_fertig":"Mittelfristiges Potenzial","leg_gemeinw":"Potenziale für gemeinwohlorientierten Wohnungsbau"},"geometry":{"type":"MultiPoint","coordinates":[[13.438986,52.468184]]}},{"type":"Feature","id":140,"properties":{"gisid":"S225","bez":"Emmausfriedhof West","we_kat":"500 - 999 Wohneinheiten","leg_fertig":"Mittelfristiges Potenzial","leg_gemeinw":"Potenziale für gemeinwohlorientierten Wohnungsbau"},"geometry":{"type":"MultiPoint","coordinates":[[13.425178,52.462537]]}},{"type":"Feature","id":141,"properties":{"gisid":"S226","bez":"Griesingerstraße","we_kat":"500 - 999 Wohneinheiten","leg_fertig":"Mittelfristiges Potenzial","leg_gemeinw":"Potenziale für gemeinwohlorientierten Wohnungsbau"},"geometry":{"type":"MultiPoint","coordinates":[[13.151195,52.563731]]}},{"type":"Feature","id":142,"properties":{"gisid":"S227","bez":"Marienhöfe (Röblingstraße)","we_kat":"500 - 999 Wohneinheiten","leg_fertig":"Mittelfristiges Potenzial","leg_gemeinw":"Potenziale für gemeinwohlorientierten Wohnungsbau"},"geometry":{"type":"MultiPoint","coordinates":[[13.360603,52.4517]]}},{"type":"Feature","id":143,"properties":{"gisid":"S228","bez":"Weißenseer Weg (Ehem. BVG-Parkplatz)","we_kat":"500 - 999 Wohneinheiten","leg_fertig":"Mittelfristiges Potenzial","leg_gemeinw":"Potenziale für gemeinwohlorientierten Wohnungsbau"},"geometry":{"type":"MultiPoint","coordinates":[[13.4712,52.536698]]}},{"type":"Feature","id":144,"properties":{"gisid":"S229","bez":"Wollenberger Straße / Wartenberger Straße","we_kat":"500 - 999 Wohneinheiten","leg_fertig":"Mittelfristiges Potenzial","leg_gemeinw":"Potenziale für gemeinwohlorientierten Wohnungsbau"},"geometry":{"type":"MultiPoint","coordinates":[[13.510342,52.548789]]}},{"type":"Feature","id":145,"properties":{"gisid":"S23","bez":"Schöneberger Linse - Baufeld 2/3","we_kat":"200 - 499 Wohneinheiten","leg_fertig":"Im Bau","leg_gemeinw":"Potenziale für gemeinwohlorientierten Wohnungsbau"},"geometry":{"type":"MultiPoint","coordinates":[[13.361212,52.475835]]}},{"type":"Feature","id":146,"properties":{"gisid":"S230","bez":"Hertzallee Nord","we_kat":"500 - 999 Wohneinheiten","leg_fertig":"Mittelfristiges Potenzial","leg_gemeinw":"Potenziale für gemeinwohlorientierten Wohnungsbau"},"geometry":{"type":"MultiPoint","coordinates":[[13.33224,52.509902]]}},{"type":"Feature","id":147,"properties":{"gisid":"S231","bez":"Friedrichshagener Straße","we_kat":"500 - 999 Wohneinheiten","leg_fertig":"Mittelfristiges Potenzial","leg_gemeinw":"Potenziale für gemeinwohlorientierten Wohnungsbau"},"geometry":{"type":"MultiPoint","coordinates":[[13.589352,52.450637]]}},{"type":"Feature","id":148,"properties":{"gisid":"S232","bez":"Ehem. RIAS-Gelände","we_kat":"500 - 999 Wohneinheiten","leg_fertig":"Mittelfristiges Potenzial","leg_gemeinw":"Potenziale für gemeinwohlorientierten Wohnungsbau"},"geometry":{"type":"MultiPoint","coordinates":[[13.431873,52.448575]]}},{"type":"Feature","id":149,"properties":{"gisid":"S233","bez":"Iranische Straße","we_kat":"500 - 999 Wohneinheiten","leg_fertig":"Mittelfristiges Potenzial","leg_gemeinw":"Sonstige Wohnungsbaupotenziale"},"geometry":{"type":"MultiPoint","coordinates":[[13.367989,52.555442]]}},{"type":"Feature","id":150,"properties":{"gisid":"S234","bez":"Landsberger Allee (Erweiterung Weiße Taube - Süd)","we_kat":"1000 - 1999 Wohneinheiten","leg_fertig":"Mittelfristiges Potenzial","leg_gemeinw":"Potenziale für gemeinwohlorientierten Wohnungsbau"},"geometry":{"type":"MultiPoint","coordinates":[[13.508285,52.535973]]}},{"type":"Feature","id":151,"properties":{"gisid":"S235","bez":"Ahrensfelder Chaussee (Mein Falkenberg)","we_kat":"1000 - 1999 Wohneinheiten","leg_fertig":"Mittelfristiges Potenzial","leg_gemeinw":"Potenziale für gemeinwohlorientierten Wohnungsbau"},"geometry":{"type":"MultiPoint","coordinates":[[13.560212,52.573398]]}},{"type":"Feature","id":152,"properties":{"gisid":"S236","bez":"Georg-Knorr-Park","we_kat":"1000 - 1999 Wohneinheiten","leg_fertig":"Mittelfristiges Potenzial","leg_gemeinw":"Potenziale für gemeinwohlorientierten Wohnungsbau"},"geometry":{"type":"MultiPoint","coordinates":[[13.538066,52.542755]]}},{"type":"Feature","id":153,"properties":{"gisid":"S237","bez":"Johannisthal / Adlershof - Segelfliegerdamm","we_kat":"1000 - 1999 Wohneinheiten","leg_fertig":"Mittelfristiges Potenzial","leg_gemeinw":"Potenziale für gemeinwohlorientierten Wohnungsbau"},"geometry":{"type":"MultiPoint","coordinates":[[13.512362,52.443108]]}},{"type":"Feature","id":154,"properties":{"gisid":"S238","bez":"Das Neue Gartenfeld","we_kat":"2000 und mehr Wohneinheiten","leg_fertig":"Mittelfristiges Potenzial","leg_gemeinw":"Potenziale für gemeinwohlorientierten Wohnungsbau"},"geometry":{"type":"MultiPoint","coordinates":[[13.241867,52.552915]]}},{"type":"Feature","id":155,"properties":{"gisid":"S24","bez":"Anne-Frank-Straße / Hassoweg","we_kat":"200 - 499 Wohneinheiten","leg_fertig":"Im Bau","leg_gemeinw":"Potenziale für gemeinwohlorientierten Wohnungsbau"},"geometry":{"type":"MultiPoint","coordinates":[[13.538391,52.40956]]}},{"type":"Feature","id":156,"properties":{"gisid":"S25","bez":"Schloßstraße (Steglitzer Kreisel)","we_kat":"200 - 499 Wohneinheiten","leg_fertig":"Im Bau","leg_gemeinw":"Sonstige Wohnungsbaupotenziale"},"geometry":{"type":"MultiPoint","coordinates":[[13.320302,52.455852]]}},{"type":"Feature","id":157,"properties":{"gisid":"S26","bez":"Wasserstadt B-Oberhavel - Rauchstraße","we_kat":"200 - 499 Wohneinheiten","leg_fertig":"Im Bau","leg_gemeinw":"Potenziale für gemeinwohlorientierten Wohnungsbau"},"geometry":{"type":"MultiPoint","coordinates":[[13.220645,52.560459]]}},{"type":"Feature","id":158,"properties":{"gisid":"S27","bez":"Markgrafendamm","we_kat":"200 - 499 Wohneinheiten","leg_fertig":"Im Bau","leg_gemeinw":"Sonstige Wohnungsbaupotenziale"},"geometry":{"type":"MultiPoint","coordinates":[[13.466237,52.498787]]}},{"type":"Feature","id":159,"properties":{"gisid":"S28","bez":"Wilhelmine-Duncker-Straße - Falkenberg","we_kat":"200 - 499 Wohneinheiten","leg_fertig":"Im Bau","leg_gemeinw":"Potenziale für gemeinwohlorientierten Wohnungsbau"},"geometry":{"type":"MultiPoint","coordinates":[[13.560817,52.406027]]}},{"type":"Feature","id":160,"properties":{"gisid":"S29","bez":"Märkisches Zentrum","we_kat":"200 - 499 Wohneinheiten","leg_fertig":"Im Bau","leg_gemeinw":"Sonstige Wohnungsbaupotenziale"},"geometry":{"type":"MultiPoint","coordinates":[[13.353942,52.598071]]}},{"type":"Feature","id":161,"properties":{"gisid":"S3","bez":"Fanny-Zobel-Straße","we_kat":"200 - 499 Wohneinheiten","leg_fertig":"Im Bau","leg_gemeinw":"Sonstige Wohnungsbaupotenziale"},"geometry":{"type":"MultiPoint","coordinates":[[13.457082,52.496636]]}},{"type":"Feature","id":162,"properties":{"gisid":"S30","bez":"Alexanderplatz - Baufeld E1","we_kat":"200 - 499 Wohneinheiten","leg_fertig":"Im Bau","leg_gemeinw":"Sonstige Wohnungsbaupotenziale"},"geometry":{"type":"MultiPoint","coordinates":[[13.415427,52.520128]]}},{"type":"Feature","id":163,"properties":{"gisid":"S31","bez":"Erweiterung Weiße Taube","we_kat":"200 - 499 Wohneinheiten","leg_fertig":"Im Bau","leg_gemeinw":"Potenziale für gemeinwohlorientierten Wohnungsbau"},"geometry":{"type":"MultiPoint","coordinates":[[13.510906,52.538466]]}},{"type":"Feature","id":164,"properties":{"gisid":"S32","bez":"Rummelsburger Bucht / Ostkreuz","we_kat":"200 - 499 Wohneinheiten","leg_fertig":"Im Bau","leg_gemeinw":"Sonstige Wohnungsbaupotenziale"},"geometry":{"type":"MultiPoint","coordinates":[[13.470631,52.501675]]}},{"type":"Feature","id":165,"properties":{"gisid":"S33","bez":"Ehem. Postbank-Areal","we_kat":"200 - 499 Wohneinheiten","leg_fertig":"Im Bau","leg_gemeinw":"Potenziale für gemeinwohlorientierten Wohnungsbau"},"geometry":{"type":"MultiPoint","coordinates":[[13.384042,52.500359]]}},{"type":"Feature","id":166,"properties":{"gisid":"S34","bez":"Idunastraße / Neukirchstraße - Ost","we_kat":"200 - 499 Wohneinheiten","leg_fertig":"Im Bau","leg_gemeinw":"Potenziale für gemeinwohlorientierten Wohnungsbau"},"geometry":{"type":"MultiPoint","coordinates":[[13.435106,52.574028]]}},{"type":"Feature","id":167,"properties":{"gisid":"S35","bez":"Krautstraße","we_kat":"200 - 499 Wohneinheiten","leg_fertig":"Im Bau","leg_gemeinw":"Sonstige Wohnungsbaupotenziale"},"geometry":{"type":"MultiPoint","coordinates":[[13.426965,52.51279]]}},{"type":"Feature","id":168,"properties":{"gisid":"S36","bez":"Pufendorfstraße / Landsberger Allee","we_kat":"200 - 499 Wohneinheiten","leg_fertig":"Im Bau","leg_gemeinw":"Potenziale für gemeinwohlorientierten Wohnungsbau"},"geometry":{"type":"MultiPoint","coordinates":[[13.438215,52.522641]]}},{"type":"Feature","id":169,"properties":{"gisid":"S37","bez":"Ostendstraße","we_kat":"200 - 499 Wohneinheiten","leg_fertig":"Im Bau","leg_gemeinw":"Potenziale für gemeinwohlorientierten Wohnungsbau"},"geometry":{"type":"MultiPoint","coordinates":[[13.53686,52.457813]]}},{"type":"Feature","id":170,"properties":{"gisid":"S38","bez":"Britzer Straße","we_kat":"200 - 499 Wohneinheiten","leg_fertig":"Im Bau","leg_gemeinw":"Potenziale für gemeinwohlorientierten Wohnungsbau"},"geometry":{"type":"MultiPoint","coordinates":[[13.410036,52.440308]]}},{"type":"Feature","id":171,"properties":{"gisid":"S39","bez":"Mariane-von-Rantzau-Straße / Mühlenstraße","we_kat":"200 - 499 Wohneinheiten","leg_fertig":"Im Bau","leg_gemeinw":"Sonstige Wohnungsbaupotenziale"},"geometry":{"type":"MultiPoint","coordinates":[[13.439022,52.507256]]}},{"type":"Feature","id":172,"properties":{"gisid":"S4","bez":"Fischerinsel","we_kat":"200 - 499 Wohneinheiten","leg_fertig":"Im Bau","leg_gemeinw":"Potenziale für gemeinwohlorientierten Wohnungsbau"},"geometry":{"type":"MultiPoint","coordinates":[[13.406709,52.513969]]}},{"type":"Feature","id":173,"properties":{"gisid":"S40","bez":"Wasserstadt B-Oberhavel - Ufer Daumstr. Nord","we_kat":"200 - 499 Wohneinheiten","leg_fertig":"Im Bau","leg_gemeinw":"Potenziale für gemeinwohlorientierten Wohnungsbau"},"geometry":{"type":"MultiPoint","coordinates":[[13.22633,52.558683]]}},{"type":"Feature","id":174,"properties":{"gisid":"S41","bez":"Stadtgut Hellersdorf - Baufeld 5","we_kat":"200 - 499 Wohneinheiten","leg_fertig":"Im Bau","leg_gemeinw":"Potenziale für gemeinwohlorientierten Wohnungsbau"},"geometry":{"type":"MultiPoint","coordinates":[[13.597756,52.539892]]}},{"type":"Feature","id":175,"properties":{"gisid":"S42","bez":"Rhinstraße","we_kat":"500 - 999 Wohneinheiten","leg_fertig":"Im Bau","leg_gemeinw":"Potenziale für gemeinwohlorientierten Wohnungsbau"},"geometry":{"type":"MultiPoint","coordinates":[[13.51669,52.52438]]}},{"type":"Feature","id":176,"properties":{"gisid":"S43","bez":"Maximilians-Quartier","we_kat":"500 - 999 Wohneinheiten","leg_fertig":"Im Bau","leg_gemeinw":"Potenziale für gemeinwohlorientierten Wohnungsbau"},"geometry":{"type":"MultiPoint","coordinates":[[13.298181,52.480291]]}},{"type":"Feature","id":177,"properties":{"gisid":"S44","bez":"Sophie-Charlotten-Straße / Pulsstraße","we_kat":"500 - 999 Wohneinheiten","leg_fertig":"Im Bau","leg_gemeinw":"Sonstige Wohnungsbaupotenziale"},"geometry":{"type":"MultiPoint","coordinates":[[13.286903,52.523771]]}},{"type":"Feature","id":178,"properties":{"gisid":"S45","bez":"Merler Weg / Allee der Kosmonauten - Ost","we_kat":"500 - 999 Wohneinheiten","leg_fertig":"Im Bau","leg_gemeinw":"Potenziale für gemeinwohlorientierten Wohnungsbau"},"geometry":{"type":"MultiPoint","coordinates":[[13.532613,52.524337]]}},{"type":"Feature","id":179,"properties":{"gisid":"S46","bez":"Märkische Allee / Trusetaler Straße","we_kat":"500 - 999 Wohneinheiten","leg_fertig":"Im Bau","leg_gemeinw":"Sonstige Wohnungsbaupotenziale"},"geometry":{"type":"MultiPoint","coordinates":[[13.559053,52.561066]]}},{"type":"Feature","id":180,"properties":{"gisid":"S47","bez":"Johannisthal / Adlershof - Eisenhutweg","we_kat":"500 - 999 Wohneinheiten","leg_fertig":"Im Bau","leg_gemeinw":"Potenziale für gemeinwohlorientierten Wohnungsbau"},"geometry":{"type":"MultiPoint","coordinates":[[13.506994,52.430395]]}},{"type":"Feature","id":181,"properties":{"gisid":"S48","bez":"Buschkrugallee","we_kat":"500 - 999 Wohneinheiten","leg_fertig":"Im Bau","leg_gemeinw":"Potenziale für gemeinwohlorientierten Wohnungsbau"},"geometry":{"type":"MultiPoint","coordinates":[[13.444899,52.457945]]}},{"type":"Feature","id":182,"properties":{"gisid":"S49","bez":"Wendenschlossstraße (Ehem. Funkwerk)","we_kat":"500 - 999 Wohneinheiten","leg_fertig":"Im Bau","leg_gemeinw":"Potenziale für gemeinwohlorientierten Wohnungsbau"},"geometry":{"type":"MultiPoint","coordinates":[[13.579351,52.436742]]}},{"type":"Feature","id":183,"properties":{"gisid":"S5","bez":"Gersdorfstraße / Ringstraße / Prühßstraße","we_kat":"200 - 499 Wohneinheiten","leg_fertig":"Im Bau","leg_gemeinw":"Potenziale für gemeinwohlorientierten Wohnungsbau"},"geometry":{"type":"MultiPoint","coordinates":[[13.377895,52.443751]]}},{"type":"Feature","id":184,"properties":{"gisid":"S50","bez":"Wasserstadt B-Oberhavel - Parkstraße","we_kat":"500 - 999 Wohneinheiten","leg_fertig":"Im Bau","leg_gemeinw":"Sonstige Wohnungsbaupotenziale"},"geometry":{"type":"MultiPoint","coordinates":[[13.213938,52.550415]]}},{"type":"Feature","id":185,"properties":{"gisid":"S51","bez":"Regattaquartier","we_kat":"500 - 999 Wohneinheiten","leg_fertig":"Im Bau","leg_gemeinw":"Sonstige Wohnungsbaupotenziale"},"geometry":{"type":"MultiPoint","coordinates":[[13.576365,52.425822]]}},{"type":"Feature","id":186,"properties":{"gisid":"S52","bez":"Europacity - Quartier Heidestraße","we_kat":"500 - 999 Wohneinheiten","leg_fertig":"Im Bau","leg_gemeinw":"Potenziale für gemeinwohlorientierten Wohnungsbau"},"geometry":{"type":"MultiPoint","coordinates":[[13.365517,52.532344]]}},{"type":"Feature","id":187,"properties":{"gisid":"S53","bez":"Wasserstadt B-Oberhavel - Rhenaniastraße","we_kat":"500 - 999 Wohneinheiten","leg_fertig":"Im Bau","leg_gemeinw":"Potenziale für gemeinwohlorientierten Wohnungsbau"},"geometry":{"type":"MultiPoint","coordinates":[[13.228589,52.552527]]}},{"type":"Feature","id":188,"properties":{"gisid":"S54","bez":"Ehem. BMHW","we_kat":"500 - 999 Wohneinheiten","leg_fertig":"Im Bau","leg_gemeinw":"Sonstige Wohnungsbaupotenziale"},"geometry":{"type":"MultiPoint","coordinates":[[13.515492,52.457901]]}},{"type":"Feature","id":189,"properties":{"gisid":"S55","bez":"Wochenendsiedlung Gartenfreunde Siemensstadt","we_kat":"500 - 999 Wohneinheiten","leg_fertig":"Im Bau","leg_gemeinw":"Potenziale für gemeinwohlorientierten Wohnungsbau"},"geometry":{"type":"MultiPoint","coordinates":[[13.252522,52.545895]]}},{"type":"Feature","id":190,"properties":{"gisid":"S56","bez":"Wasserstadt Spindlersfeld","we_kat":"1000 - 1999 Wohneinheiten","leg_fertig":"Im Bau","leg_gemeinw":"Sonstige Wohnungsbaupotenziale"},"geometry":{"type":"MultiPoint","coordinates":[[13.56502,52.450769]]}},{"type":"Feature","id":191,"properties":{"gisid":"S57","bez":"Parkstadt Karlshorst","we_kat":"1000 - 1999 Wohneinheiten","leg_fertig":"Im Bau","leg_gemeinw":"Potenziale für gemeinwohlorientierten Wohnungsbau"},"geometry":{"type":"MultiPoint","coordinates":[[13.508449,52.482533]]}},{"type":"Feature","id":192,"properties":{"gisid":"S58","bez":"Wendenschlossstraße (Marienhain)","we_kat":"1000 - 1999 Wohneinheiten","leg_fertig":"Im Bau","leg_gemeinw":"Sonstige Wohnungsbaupotenziale"},"geometry":{"type":"MultiPoint","coordinates":[[13.579781,52.43124]]}},{"type":"Feature","id":193,"properties":{"gisid":"S59","bez":"Wasserstadt B-Oberhavel - Carossaquartier Süd","we_kat":"1000 - 1999 Wohneinheiten","leg_fertig":"Im Bau","leg_gemeinw":"Potenziale für gemeinwohlorientierten Wohnungsbau"},"geometry":{"type":"MultiPoint","coordinates":[[13.211705,52.557527]]}},{"type":"Feature","id":194,"properties":{"gisid":"S6","bez":"Seehausener Straße","we_kat":"200 - 499 Wohneinheiten","leg_fertig":"Im Bau","leg_gemeinw":"Potenziale für gemeinwohlorientierten Wohnungsbau"},"geometry":{"type":"MultiPoint","coordinates":[[13.522551,52.561495]]}},{"type":"Feature","id":195,"properties":{"gisid":"S60","bez":"Ferdinand-Schultze-Straße / Landsberger Allee","we_kat":"1000 - 1999 Wohneinheiten","leg_fertig":"Im Bau","leg_gemeinw":"Potenziale für gemeinwohlorientierten Wohnungsbau"},"geometry":{"type":"MultiPoint","coordinates":[[13.51212,52.536564]]}},{"type":"Feature","id":196,"properties":{"gisid":"S61","bez":"Lissabonallee","we_kat":"200 - 499 Wohneinheiten","leg_fertig":"Kurzfristiges Potenzial","leg_gemeinw":"Potenziale für gemeinwohlorientierten Wohnungsbau"},"geometry":{"type":"MultiPoint","coordinates":[[13.226595,52.427852]]}},{"type":"Feature","id":197,"properties":{"gisid":"S62","bez":"Moissistraße","we_kat":"200 - 499 Wohneinheiten","leg_fertig":"Kurzfristiges Potenzial","leg_gemeinw":"Sonstige Wohnungsbaupotenziale"},"geometry":{"type":"MultiPoint","coordinates":[[13.549219,52.433095]]}},{"type":"Feature","id":198,"properties":{"gisid":"S63","bez":"Hinter den Arcaden","we_kat":"200 - 499 Wohneinheiten","leg_fertig":"Kurzfristiges Potenzial","leg_gemeinw":"Sonstige Wohnungsbaupotenziale"},"geometry":{"type":"MultiPoint","coordinates":[[13.187801,52.534879]]}},{"type":"Feature","id":199,"properties":{"gisid":"S64","bez":"Reichsstraße","we_kat":"200 - 499 Wohneinheiten","leg_fertig":"Kurzfristiges Potenzial","leg_gemeinw":"Potenziale für gemeinwohlorientierten Wohnungsbau"},"geometry":{"type":"MultiPoint","coordinates":[[13.251283,52.522678]]}},{"type":"Feature","id":200,"properties":{"gisid":"S65","bez":"Harzer Straße","we_kat":"200 - 499 Wohneinheiten","leg_fertig":"Kurzfristiges Potenzial","leg_gemeinw":"Potenziale für gemeinwohlorientierten Wohnungsbau"},"geometry":{"type":"MultiPoint","coordinates":[[13.449978,52.483959]]}},{"type":"Feature","id":201,"properties":{"gisid":"S66","bez":"Ilsestraße","we_kat":"200 - 499 Wohneinheiten","leg_fertig":"Kurzfristiges Potenzial","leg_gemeinw":"Potenziale für gemeinwohlorientierten Wohnungsbau"},"geometry":{"type":"MultiPoint","coordinates":[[13.517699,52.489271]]}},{"type":"Feature","id":202,"properties":{"gisid":"S67","bez":"Parkviertel Süd","we_kat":"200 - 499 Wohneinheiten","leg_fertig":"Kurzfristiges Potenzial","leg_gemeinw":"Sonstige Wohnungsbaupotenziale"},"geometry":{"type":"MultiPoint","coordinates":[[13.154956,52.462821]]}},{"type":"Feature","id":203,"properties":{"gisid":"S68","bez":"Prinzregentenstraße / Waghäuseler Straße","we_kat":"200 - 499 Wohneinheiten","leg_fertig":"Kurzfristiges Potenzial","leg_gemeinw":"Potenziale für gemeinwohlorientierten Wohnungsbau"},"geometry":{"type":"MultiPoint","coordinates":[[13.333781,52.484226]]}},{"type":"Feature","id":204,"properties":{"gisid":"S69","bez":"Fischerhüttenstraße / Sven-Hedin-Straße","we_kat":"200 - 499 Wohneinheiten","leg_fertig":"Kurzfristiges Potenzial","leg_gemeinw":"Potenziale für gemeinwohlorientierten Wohnungsbau"},"geometry":{"type":"MultiPoint","coordinates":[[13.250923,52.440706]]}},{"type":"Feature","id":205,"properties":{"gisid":"S7","bez":"Boxhagener Straße","we_kat":"200 - 499 Wohneinheiten","leg_fertig":"Im Bau","leg_gemeinw":"Sonstige Wohnungsbaupotenziale"},"geometry":{"type":"MultiPoint","coordinates":[[13.468361,52.507554]]}},{"type":"Feature","id":206,"properties":{"gisid":"S70","bez":"Damerowstraße","we_kat":"200 - 499 Wohneinheiten","leg_fertig":"Kurzfristiges Potenzial","leg_gemeinw":"Sonstige Wohnungsbaupotenziale"},"geometry":{"type":"MultiPoint","coordinates":[[13.417973,52.571424]]}},{"type":"Feature","id":207,"properties":{"gisid":"S71","bez":"Quartier Stralauer Allee","we_kat":"200 - 499 Wohneinheiten","leg_fertig":"Kurzfristiges Potenzial","leg_gemeinw":"Potenziale für gemeinwohlorientierten Wohnungsbau"},"geometry":{"type":"MultiPoint","coordinates":[[13.457369,52.50095]]}},{"type":"Feature","id":208,"properties":{"gisid":"S72","bez":"Otto-Franke-Straße / Glienicker Weg","we_kat":"200 - 499 Wohneinheiten","leg_fertig":"Kurzfristiges Potenzial","leg_gemeinw":"Potenziale für gemeinwohlorientierten Wohnungsbau"},"geometry":{"type":"MultiPoint","coordinates":[[13.554807,52.433828]]}},{"type":"Feature","id":209,"properties":{"gisid":"S73","bez":"Cité Foch - nördliche Rue Montesquieu","we_kat":"200 - 499 Wohneinheiten","leg_fertig":"Kurzfristiges Potenzial","leg_gemeinw":"Potenziale für gemeinwohlorientierten Wohnungsbau"},"geometry":{"type":"MultiPoint","coordinates":[[13.318072,52.602654]]}},{"type":"Feature","id":210,"properties":{"gisid":"S74","bez":"Landsberger Straße","we_kat":"200 - 499 Wohneinheiten","leg_fertig":"Kurzfristiges Potenzial","leg_gemeinw":"Potenziale für gemeinwohlorientierten Wohnungsbau"},"geometry":{"type":"MultiPoint","coordinates":[[13.640455,52.518838]]}},{"type":"Feature","id":211,"properties":{"gisid":"S75","bez":"Spreestadt (westl. Hannah-Karminski-Straße)","we_kat":"200 - 499 Wohneinheiten","leg_fertig":"Kurzfristiges Potenzial","leg_gemeinw":"Potenziale für gemeinwohlorientierten Wohnungsbau"},"geometry":{"type":"MultiPoint","coordinates":[[13.329288,52.517497]]}},{"type":"Feature","id":212,"properties":{"gisid":"S76","bez":"Prenzlauer Allee / Erich-Weinert-Straße","we_kat":"200 - 499 Wohneinheiten","leg_fertig":"Kurzfristiges Potenzial","leg_gemeinw":"Sonstige Wohnungsbaupotenziale"},"geometry":{"type":"MultiPoint","coordinates":[[13.429176,52.545657]]}},{"type":"Feature","id":213,"properties":{"gisid":"S77","bez":"Parkviertel Nord","we_kat":"200 - 499 Wohneinheiten","leg_fertig":"Kurzfristiges Potenzial","leg_gemeinw":"Sonstige Wohnungsbaupotenziale"},"geometry":{"type":"MultiPoint","coordinates":[[13.156202,52.468266]]}},{"type":"Feature","id":214,"properties":{"gisid":"S78","bez":"Glasower Straße Ost","we_kat":"200 - 499 Wohneinheiten","leg_fertig":"Kurzfristiges Potenzial","leg_gemeinw":"Potenziale für gemeinwohlorientierten Wohnungsbau"},"geometry":{"type":"MultiPoint","coordinates":[[13.440898,52.465115]]}},{"type":"Feature","id":215,"properties":{"gisid":"S79","bez":"Kietzer Feld","we_kat":"200 - 499 Wohneinheiten","leg_fertig":"Kurzfristiges Potenzial","leg_gemeinw":"Potenziale für gemeinwohlorientierten Wohnungsbau"},"geometry":{"type":"MultiPoint","coordinates":[[13.590273,52.424762]]}},{"type":"Feature","id":216,"properties":{"gisid":"S8","bez":"Pallasstraße","we_kat":"200 - 499 Wohneinheiten","leg_fertig":"Im Bau","leg_gemeinw":"Sonstige Wohnungsbaupotenziale"},"geometry":{"type":"MultiPoint","coordinates":[[13.355951,52.494139]]}},{"type":"Feature","id":217,"properties":{"gisid":"S80","bez":"Waldhaus Alt-Buch / Zepernicker Straße","we_kat":"200 - 499 Wohneinheiten","leg_fertig":"Kurzfristiges Potenzial","leg_gemeinw":"Potenziale für gemeinwohlorientierten Wohnungsbau"},"geometry":{"type":"MultiPoint","coordinates":[[13.50546,52.63831]]}},{"type":"Feature","id":218,"properties":{"gisid":"S81","bez":"Cecilienstraße / Teterower Ring","we_kat":"200 - 499 Wohneinheiten","leg_fertig":"Kurzfristiges Potenzial","leg_gemeinw":"Potenziale für gemeinwohlorientierten Wohnungsbau"},"geometry":{"type":"MultiPoint","coordinates":[[13.584572,52.523726]]}},{"type":"Feature","id":219,"properties":{"gisid":"S82","bez":"Quedlinburger Straße / Wernigeroder Straße / Klaustaler Straße","we_kat":"200 - 499 Wohneinheiten","leg_fertig":"Kurzfristiges Potenzial","leg_gemeinw":"Potenziale für gemeinwohlorientierten Wohnungsbau"},"geometry":{"type":"MultiPoint","coordinates":[[13.312521,52.523748]]}},{"type":"Feature","id":220,"properties":{"gisid":"S83","bez":"Bruno-Taut-Straße","we_kat":"200 - 499 Wohneinheiten","leg_fertig":"Kurzfristiges Potenzial","leg_gemeinw":"Potenziale für gemeinwohlorientierten Wohnungsbau"},"geometry":{"type":"MultiPoint","coordinates":[[13.568513,52.413225]]}},{"type":"Feature","id":221,"properties":{"gisid":"S84","bez":"Wolfgang-Steinitz-Straße / Fahlenbergstraße","we_kat":"200 - 499 Wohneinheiten","leg_fertig":"Kurzfristiges Potenzial","leg_gemeinw":"Potenziale für gemeinwohlorientierten Wohnungsbau"},"geometry":{"type":"MultiPoint","coordinates":[[13.717321,52.430225]]}},{"type":"Feature","id":222,"properties":{"gisid":"S85","bez":"Wohnpark am Sportforum","we_kat":"200 - 499 Wohneinheiten","leg_fertig":"Kurzfristiges Potenzial","leg_gemeinw":"Potenziale für gemeinwohlorientierten Wohnungsbau"},"geometry":{"type":"MultiPoint","coordinates":[[13.479237,52.538478]]}},{"type":"Feature","id":223,"properties":{"gisid":"S86","bez":"Ehem. Krankenhaus Staaken","we_kat":"500 - 999 Wohneinheiten","leg_fertig":"Kurzfristiges Potenzial","leg_gemeinw":"Sonstige Wohnungsbaupotenziale"},"geometry":{"type":"MultiPoint","coordinates":[[13.135766,52.532042]]}},{"type":"Feature","id":224,"properties":{"gisid":"S87","bez":"Anne-Frank-Straße","we_kat":"500 - 999 Wohneinheiten","leg_fertig":"Kurzfristiges Potenzial","leg_gemeinw":"Potenziale für gemeinwohlorientierten Wohnungsbau"},"geometry":{"type":"MultiPoint","coordinates":[[13.536746,52.408472]]}},{"type":"Feature","id":225,"properties":{"gisid":"S88","bez":"Erweiterung Ludwig-Hoffmann-Quartier","we_kat":"500 - 999 Wohneinheiten","leg_fertig":"Kurzfristiges Potenzial","leg_gemeinw":"Sonstige Wohnungsbaupotenziale"},"geometry":{"type":"MultiPoint","coordinates":[[13.488284,52.64288]]}},{"type":"Feature","id":226,"properties":{"gisid":"S89","bez":"Buckower Felder","we_kat":"500 - 999 Wohneinheiten","leg_fertig":"Kurzfristiges Potenzial","leg_gemeinw":"Potenziale für gemeinwohlorientierten Wohnungsbau"},"geometry":{"type":"MultiPoint","coordinates":[[13.435677,52.416127]]}},{"type":"Feature","id":227,"properties":{"gisid":"S9","bez":"Pöhlbergstraße / Blumberger Damm","we_kat":"200 - 499 Wohneinheiten","leg_fertig":"Im Bau","leg_gemeinw":"Potenziale für gemeinwohlorientierten Wohnungsbau"},"geometry":{"type":"MultiPoint","coordinates":[[13.570198,52.545172]]}},{"type":"Feature","id":228,"properties":{"gisid":"S90","bez":"Gartenstadt Karlshorst Süd","we_kat":"500 - 999 Wohneinheiten","leg_fertig":"Kurzfristiges Potenzial","leg_gemeinw":"Potenziale für gemeinwohlorientierten Wohnungsbau"},"geometry":{"type":"MultiPoint","coordinates":[[13.541963,52.483363]]}},{"type":"Feature","id":229,"properties":{"gisid":"S91","bez":"Ehem. Güterbahnhof Wilmersdorf","we_kat":"1000 - 1999 Wohneinheiten","leg_fertig":"Kurzfristiges Potenzial","leg_gemeinw":"Potenziale für gemeinwohlorientierten Wohnungsbau"},"geometry":{"type":"MultiPoint","coordinates":[[13.337406,52.477683]]}},{"type":"Feature","id":230,"properties":{"gisid":"S92","bez":"Halemweg","we_kat":"200 - 499 Wohneinheiten","leg_fertig":"Langfristiges Potenzial","leg_gemeinw":"Potenziale für gemeinwohlorientierten Wohnungsbau"},"geometry":{"type":"MultiPoint","coordinates":[[13.287957,52.53744]]}},{"type":"Feature","id":231,"properties":{"gisid":"S93","bez":"Nordhauser Straße / Quedlinburger Straße / Goslarer Ufer","we_kat":"200 - 499 Wohneinheiten","leg_fertig":"Langfristiges Potenzial","leg_gemeinw":"Sonstige Wohnungsbaupotenziale"},"geometry":{"type":"MultiPoint","coordinates":[[13.314687,52.523866]]}},{"type":"Feature","id":232,"properties":{"gisid":"S94","bez":"Hohenstaufenstraße","we_kat":"200 - 499 Wohneinheiten","leg_fertig":"Langfristiges Potenzial","leg_gemeinw":"Potenziale für gemeinwohlorientierten Wohnungsbau"},"geometry":{"type":"MultiPoint","coordinates":[[13.347977,52.494665]]}},{"type":"Feature","id":233,"properties":{"gisid":"S95","bez":"Erfurter Straße","we_kat":"200 - 499 Wohneinheiten","leg_fertig":"Langfristiges Potenzial","leg_gemeinw":"Sonstige Wohnungsbaupotenziale"},"geometry":{"type":"MultiPoint","coordinates":[[13.339924,52.479481]]}},{"type":"Feature","id":234,"properties":{"gisid":"S96","bez":"Kirchhof St. Jacobi II","we_kat":"200 - 499 Wohneinheiten","leg_fertig":"Langfristiges Potenzial","leg_gemeinw":"Potenziale für gemeinwohlorientierten Wohnungsbau"},"geometry":{"type":"MultiPoint","coordinates":[[13.423501,52.468231]]}},{"type":"Feature","id":235,"properties":{"gisid":"S97","bez":"Jahnstraße","we_kat":"200 - 499 Wohneinheiten","leg_fertig":"Langfristiges Potenzial","leg_gemeinw":"Sonstige Wohnungsbaupotenziale"},"geometry":{"type":"MultiPoint","coordinates":[[13.438654,52.459815]]}},{"type":"Feature","id":236,"properties":{"gisid":"S98","bez":"Hellersdorfer Straße / Riesaer Straße","we_kat":"200 - 499 Wohneinheiten","leg_fertig":"Langfristiges Potenzial","leg_gemeinw":"Sonstige Wohnungsbaupotenziale"},"geometry":{"type":"MultiPoint","coordinates":[[13.602975,52.535955]]}},{"type":"Feature","id":237,"properties":{"gisid":"S99","bez":"Parlerstraße / Großmannstraße","we_kat":"200 - 499 Wohneinheiten","leg_fertig":"Langfristiges Potenzial","leg_gemeinw":"Potenziale für gemeinwohlorientierten Wohnungsbau"},"geometry":{"type":"MultiPoint","coordinates":[[13.608083,52.496404]]}}]}