{"type":"FeatureCollection","features":[{"type":"Feature","id":0,"properties":{"gisid":"E0101","name":"Parlaments- und Regierungsviertel","bezirk":"Mitte","f_in_kraft":"04.07.1993","f_gvbl":"1993, Nr. 35, Seite 268","status":"Entwicklungsbereich"},"geometry":{"type":"MultiPolygon","coordinates":[[[[13.388646,52.514627],[13.389032,52.514651],[13.388889,52.515532],[13.381704,52.515067],[13.381092,52.516221],[13.385965,52.516549],[13.385884,52.51709],[13.384018,52.516968],[13.383877,52.517816],[13.385744,52.517937],[13.385657,52.518447],[13.385603,52.518608],[13.385414,52.519727],[13.385468,52.51973],[13.385454,52.519797],[13.385403,52.519794],[13.385354,52.520095],[13.385296,52.52022],[13.385252,52.520195],[13.385219,52.520217],[13.385283,52.520254],[13.385067,52.52073],[13.38505,52.520905],[13.384356,52.521123],[13.383544,52.521312],[13.382857,52.521419],[13.38248,52.521449],[13.381995,52.521466],[13.380544,52.521441],[13.380256,52.521457],[13.379627,52.521534],[13.379041,52.521671],[13.378666,52.521794],[13.378208,52.521977],[13.377801,52.5222],[13.377529,52.522387],[13.37719,52.522687],[13.377178,52.522676],[13.377058,52.522772],[13.377138,52.522839],[13.376454,52.523516],[13.376452,52.523552],[13.37636,52.523644],[13.376319,52.52365],[13.375645,52.524318],[13.375399,52.524525],[13.374855,52.524877],[13.374402,52.525092],[13.373927,52.525261],[13.373923,52.525994],[13.374194,52.526188],[13.374456,52.526441],[13.374612,52.526662],[13.374686,52.526861],[13.374713,52.52707],[13.374692,52.52731],[13.374746,52.527316],[13.374631,52.527708],[13.374614,52.527706],[13.374603,52.527744],[13.374574,52.527741],[13.37454,52.52786],[13.374594,52.527866],[13.374576,52.527923],[13.37401,52.527757],[13.374029,52.527741],[13.373681,52.527632],[13.373693,52.527618],[13.371236,52.526863],[13.370812,52.526701],[13.370813,52.526633],[13.365808,52.525104],[13.365931,52.524952],[13.365446,52.524675],[13.363548,52.523189],[13.363582,52.523149],[13.363561,52.523132],[13.36306,52.522787],[13.359762,52.521098],[13.359912,52.520992],[13.367374,52.520995],[13.367144,52.520856],[13.366782,52.52069],[13.365738,52.520324],[13.362397,52.519457],[13.362091,52.519361],[13.361853,52.519268],[13.361598,52.519145],[13.361587,52.519154],[13.360884,52.518768],[13.359549,52.51813],[13.35899,52.517901],[13.358517,52.517777],[13.35791,52.517643],[13.357236,52.517538],[13.356868,52.517513],[13.35663,52.517522],[13.356333,52.517544],[13.355783,52.517613],[13.355398,52.517704],[13.354719,52.517926],[13.354535,52.517382],[13.354309,52.517082],[13.355086,52.516955],[13.355956,52.516859],[13.35669,52.51683],[13.357293,52.516852],[13.357875,52.516908],[13.358588,52.51702],[13.360746,52.517496],[13.36132,52.517575],[13.361906,52.517611],[13.362495,52.517606],[13.369426,52.517253],[13.369454,52.517378],[13.369894,52.517639],[13.369996,52.517674],[13.370099,52.517688],[13.371347,52.517681],[13.371348,52.517722],[13.373553,52.517713],[13.373606,52.517696],[13.373621,52.517666],[13.373755,52.517665],[13.373826,52.517685],[13.374443,52.517682],[13.375422,52.517669],[13.375646,52.517632],[13.376963,52.517626],[13.376882,52.517791],[13.376844,52.517981],[13.37686,52.519469],[13.376671,52.519561],[13.376454,52.519697],[13.373682,52.519698],[13.373684,52.520615],[13.3738,52.520615],[13.373803,52.520769],[13.37518,52.521502],[13.37556,52.521674],[13.375564,52.521647],[13.375914,52.521234],[13.376144,52.520285],[13.376269,52.52008],[13.376454,52.519901],[13.37669,52.519728],[13.376896,52.519608],[13.37738,52.519388],[13.377378,52.519259],[13.377615,52.519148],[13.378295,52.518976],[13.379,52.518872],[13.379554,52.518831],[13.380136,52.518832],[13.381026,52.518905],[13.381527,52.518982],[13.382023,52.519092],[13.382152,52.518384],[13.380562,52.518277],[13.380844,52.516753],[13.379657,52.516676],[13.379751,52.516134],[13.380759,52.516202],[13.381376,52.515011],[13.379151,52.514582],[13.377719,52.51449],[13.377434,52.51315],[13.379958,52.513645],[13.379965,52.513439],[13.380096,52.513465],[13.380603,52.512507],[13.380639,52.512328],[13.377284,52.51212],[13.377123,52.511384],[13.378172,52.511587],[13.378422,52.511139],[13.378453,52.510963],[13.379849,52.511052],[13.381131,52.511154],[13.380974,52.5121],[13.38173,52.512157],[13.381728,52.512168],[13.381816,52.512179],[13.381821,52.512168],[13.382777,52.512341],[13.38397,52.510078],[13.387102,52.51026],[13.387123,52.510291],[13.387334,52.510082],[13.384409,52.5099],[13.385762,52.507329],[13.388729,52.507501],[13.388599,52.508327],[13.388845,52.508187],[13.389457,52.508591],[13.389141,52.508825],[13.389061,52.509288],[13.388745,52.509287],[13.388618,52.509217],[13.388573,52.509168],[13.386911,52.510948],[13.38693,52.51095],[13.386877,52.511315],[13.386508,52.513594],[13.385216,52.513512],[13.385172,52.513705],[13.386474,52.513793],[13.386366,52.514482],[13.388646,52.514627]],[[13.363573,52.519164],[13.363611,52.519109],[13.363615,52.518467],[13.363796,52.518447],[13.363842,52.518421],[13.363729,52.51833],[13.363412,52.517704],[13.362204,52.517758],[13.361587,52.517742],[13.36113,52.5177],[13.360388,52.517577],[13.358517,52.517157],[13.357968,52.517067],[13.357267,52.516995],[13.356689,52.516974],[13.356127,52.516991],[13.355421,52.517061],[13.354858,52.517164],[13.354902,52.517294],[13.354987,52.517263],[13.35528,52.517203],[13.356159,52.517083],[13.356709,52.517062],[13.357172,52.517079],[13.357736,52.517137],[13.358348,52.517231],[13.359212,52.517406],[13.359828,52.517551],[13.360326,52.517743],[13.360556,52.517855],[13.360772,52.517978],[13.361257,52.5183],[13.361285,52.518348],[13.361604,52.518552],[13.362032,52.518788],[13.362409,52.518951],[13.36294,52.519114],[13.36404,52.5194],[13.364493,52.519422],[13.365137,52.519585],[13.365462,52.51976],[13.366425,52.520041],[13.367353,52.520384],[13.367523,52.520462],[13.367872,52.52066],[13.368247,52.520938],[13.368559,52.521206],[13.368955,52.52161],[13.370586,52.520715],[13.370557,52.520712],[13.370557,52.520685],[13.370606,52.520685],[13.370606,52.520657],[13.37067,52.520657],[13.370677,52.5197],[13.370669,52.51966],[13.370628,52.51966],[13.370628,52.519631],[13.370586,52.519631],[13.370586,52.519484],[13.366579,52.519486],[13.366579,52.519324],[13.366403,52.519324],[13.366403,52.519262],[13.365539,52.519262],[13.365499,52.519265],[13.365499,52.519295],[13.364139,52.519292],[13.364067,52.519288],[13.363573,52.519164]],[[13.383025,52.513096],[13.383101,52.512935],[13.383236,52.512891],[13.383714,52.512988],[13.383792,52.512951],[13.383882,52.512781],[13.383446,52.512691],[13.383553,52.51249],[13.383093,52.512398],[13.382312,52.513899],[13.383922,52.51425],[13.384623,52.514335],[13.384762,52.513937],[13.384988,52.51349],[13.383025,52.513096]],[[13.384301,52.512332],[13.384879,52.512444],[13.384852,52.512495],[13.38546,52.512613],[13.385948,52.511759],[13.384773,52.511531],[13.384535,52.511889],[13.384301,52.512332]]],[[[13.399483,52.511027],[13.40121,52.511124],[13.401727,52.5111],[13.402999,52.511875],[13.403349,52.512128],[13.403849,52.512437],[13.405833,52.513805],[13.407564,52.51524],[13.407537,52.515257],[13.407603,52.515313],[13.406975,52.515502],[13.406953,52.515482],[13.405644,52.516061],[13.405095,52.516466],[13.40469,52.5168],[13.40439,52.517069],[13.404326,52.517105],[13.404168,52.517247],[13.404182,52.517253],[13.403782,52.517601],[13.402725,52.518703],[13.402675,52.518823],[13.402497,52.518975],[13.401965,52.518765],[13.401303,52.518538],[13.400708,52.518354],[13.400777,52.518286],[13.399612,52.517838],[13.398853,52.517788],[13.398173,52.517771],[13.396373,52.51765],[13.396109,52.517732],[13.395134,52.517661],[13.395377,52.516295],[13.39564,52.515069],[13.396675,52.515138],[13.396897,52.514087],[13.397104,52.514088],[13.396828,52.5153],[13.397566,52.515423],[13.398766,52.515689],[13.399621,52.51591],[13.399769,52.515726],[13.399735,52.515698],[13.40004,52.515254],[13.400102,52.515155],[13.400082,52.51515],[13.400378,52.51473],[13.4012,52.513826],[13.401218,52.513759],[13.401291,52.513683],[13.401205,52.513648],[13.401397,52.513459],[13.401232,52.5134],[13.401241,52.513391],[13.400987,52.513254],[13.401015,52.513232],[13.400512,52.512795],[13.402012,52.51217],[13.401912,52.512051],[13.40159,52.512187],[13.401058,52.511706],[13.40154,52.511498],[13.40147,52.511418],[13.397339,52.513102],[13.396702,52.51246],[13.396856,52.511594],[13.396787,52.511574],[13.396808,52.511454],[13.396786,52.511453],[13.396913,52.51087],[13.399483,52.511027]]]]}},{"type":"Feature","id":1,"properties":{"gisid":"E0201","name":"Rummelsburger Bucht","bezirk":"Friedrichshain-Kreuzberg, Lichtenberg","f_in_kraft":"27.04.1994","f_gvbl":"1994, Nr. 17, Seite 118","status":"Entwicklungsbereich"},"geometry":{"type":"MultiPolygon","coordinates":[[[[13.474324,52.500159],[13.475116,52.501213],[13.475223,52.501398],[13.475419,52.501606],[13.475044,52.501676],[13.474941,52.501677],[13.474339,52.50176],[13.474119,52.50186],[13.473831,52.501957],[13.473875,52.501869],[13.473873,52.501823],[13.469791,52.502445],[13.469755,52.50245],[13.469755,52.502402],[13.469432,52.502456],[13.469323,52.502164],[13.469235,52.50211],[13.468259,52.499533],[13.467975,52.498831],[13.467816,52.498537],[13.467554,52.49818],[13.467237,52.497849],[13.466917,52.497578],[13.466112,52.497017],[13.466241,52.496905],[13.467419,52.496107],[13.469689,52.498764],[13.469497,52.498916],[13.469306,52.499097],[13.46931,52.499121],[13.469385,52.4992],[13.469775,52.499474],[13.469863,52.499559],[13.470032,52.499583],[13.470156,52.499503],[13.470219,52.499572],[13.470291,52.499617],[13.470311,52.499663],[13.470293,52.49972],[13.470235,52.499737],[13.470107,52.49986],[13.470169,52.499906],[13.470158,52.500059],[13.470185,52.50009],[13.470153,52.500174],[13.470472,52.500366],[13.47086,52.500179],[13.471097,52.500095],[13.471366,52.5001],[13.471501,52.500149],[13.471589,52.500216],[13.471651,52.500238],[13.471712,52.500306],[13.471783,52.500327],[13.471833,52.500373],[13.471987,52.500454],[13.472005,52.500439],[13.472307,52.500566],[13.473042,52.500687],[13.473564,52.500556],[13.473816,52.500447],[13.473771,52.500412],[13.473777,52.500384],[13.474324,52.500159]]]]}},{"type":"Feature","id":2,"properties":{"gisid":"E0901","name":"Johannisthal / Adlershof","bezirk":"Treptow-Köpenick","f_in_kraft":"22.12.1994","f_gvbl":"1994, Nr. 67, Seite 499","status":"Entwicklungsbereich"},"geometry":{"type":"MultiPolygon","coordinates":[[[[13.530147,52.440216],[13.530071,52.440172],[13.52933,52.440661],[13.526954,52.441805],[13.526819,52.441694],[13.526284,52.441943],[13.525838,52.442108],[13.52519,52.442298],[13.524442,52.441884],[13.52415,52.442068],[13.523886,52.441908],[13.523054,52.442491],[13.522686,52.442555],[13.521439,52.441865],[13.518513,52.443853],[13.519749,52.444534],[13.519028,52.445023],[13.518233,52.444589],[13.518489,52.444417],[13.518038,52.444176],[13.517666,52.444429],[13.51811,52.444672],[13.517813,52.444872],[13.517371,52.444629],[13.514718,52.446489],[13.514727,52.446539],[13.516122,52.447224],[13.516495,52.446972],[13.517059,52.447249],[13.516686,52.447501],[13.517219,52.447764],[13.517167,52.447807],[13.516767,52.447611],[13.516575,52.447585],[13.514574,52.446602],[13.513949,52.446502],[13.512181,52.445632],[13.511351,52.445202],[13.510464,52.444707],[13.510306,52.444603],[13.509161,52.443227],[13.509167,52.443208],[13.509051,52.443068],[13.508763,52.442821],[13.508325,52.442538],[13.508208,52.442483],[13.508224,52.442464],[13.508065,52.442349],[13.507905,52.442201],[13.507758,52.442007],[13.507713,52.442005],[13.507719,52.441931],[13.50764,52.441689],[13.507147,52.4394],[13.507066,52.438401],[13.505867,52.438355],[13.505846,52.438373],[13.505664,52.438367],[13.505642,52.438436],[13.505406,52.438427],[13.505398,52.438458],[13.505371,52.438447],[13.505685,52.437205],[13.506039,52.437332],[13.506023,52.437348],[13.50623,52.437423],[13.510939,52.432336],[13.511004,52.432268],[13.511075,52.432292],[13.511324,52.432025],[13.511355,52.431991],[13.511292,52.43197],[13.511785,52.431438],[13.511847,52.43146],[13.512804,52.430419],[13.51316,52.430335],[13.510799,52.432866],[13.510861,52.432895],[13.510875,52.432883],[13.510992,52.432936],[13.511088,52.432938],[13.511346,52.43308],[13.511199,52.433181],[13.510819,52.433193],[13.510574,52.433107],[13.509803,52.433945],[13.50977,52.433934],[13.50973,52.433941],[13.509148,52.434568],[13.510082,52.434894],[13.510478,52.434882],[13.510535,52.435541],[13.510138,52.435558],[13.510232,52.436655],[13.509847,52.436667],[13.508679,52.436331],[13.507668,52.435977],[13.506674,52.437052],[13.506788,52.437057],[13.506856,52.43704],[13.506474,52.437452],[13.506833,52.437629],[13.506999,52.437746],[13.507139,52.437874],[13.507318,52.438122],[13.507377,52.438265],[13.507409,52.438421],[13.510286,52.438322],[13.510456,52.438938],[13.51099,52.438867],[13.51104,52.439007],[13.510543,52.439073],[13.510546,52.439085],[13.510518,52.439089],[13.510496,52.43908],[13.510567,52.439341],[13.51014,52.439364],[13.510164,52.439513],[13.510609,52.439489],[13.51059,52.439421],[13.511161,52.439345],[13.511515,52.440339],[13.511042,52.440429],[13.510091,52.440641],[13.510044,52.440319],[13.510256,52.440305],[13.510154,52.439599],[13.508098,52.439717],[13.507571,52.439758],[13.507542,52.439779],[13.507982,52.44184],[13.508076,52.442011],[13.508218,52.442168],[13.508554,52.442422],[13.512584,52.441534],[13.512685,52.441703],[13.51514,52.441155],[13.516096,52.441681],[13.520729,52.438537],[13.525705,52.438453],[13.525493,52.438599],[13.525564,52.438635],[13.521762,52.441208],[13.522025,52.441352],[13.521345,52.441813],[13.521439,52.441865],[13.522562,52.441102],[13.523889,52.441842],[13.524081,52.441803],[13.525316,52.440973],[13.523903,52.440191],[13.526073,52.438716],[13.527297,52.437825],[13.529634,52.439177],[13.531409,52.438031],[13.531451,52.438031],[13.532257,52.438496],[13.533217,52.437876],[13.532074,52.437215],[13.531114,52.437835],[13.529035,52.436628],[13.529959,52.435991],[13.530102,52.435827],[13.532389,52.43715],[13.533965,52.436132],[13.531591,52.434758],[13.533217,52.433701],[13.533736,52.434002],[13.534618,52.433431],[13.535622,52.434011],[13.535813,52.433875],[13.537666,52.434945],[13.538323,52.43452],[13.538538,52.434656],[13.538553,52.434646],[13.539961,52.435163],[13.539527,52.435474],[13.539203,52.435647],[13.538687,52.436014],[13.537663,52.436591],[13.537201,52.436833],[13.535663,52.437533],[13.535704,52.437557],[13.535158,52.437781],[13.535292,52.437888],[13.533961,52.438502],[13.532934,52.438927],[13.530196,52.440244],[13.530147,52.440216]],[[13.519894,52.442404],[13.519612,52.442247],[13.51986,52.442079],[13.518215,52.441192],[13.517198,52.441896],[13.519102,52.442928],[13.518708,52.44321],[13.518761,52.443239],[13.519947,52.442434],[13.519894,52.442404]],[[13.535622,52.434012],[13.534739,52.434582],[13.53658,52.435647],[13.537464,52.435076],[13.535622,52.434012]],[[13.534235,52.435368],[13.534912,52.43493],[13.533929,52.434361],[13.532702,52.435154],[13.53307,52.435367],[13.533328,52.4352],[13.533944,52.435556],[13.534235,52.435368]],[[13.535645,52.435718],[13.53503,52.436117],[13.535465,52.436368],[13.536081,52.43597],[13.535645,52.435718]],[[13.51737,52.444629],[13.517666,52.444428],[13.517636,52.444412],[13.517339,52.444612],[13.51737,52.444629]]],[[[13.529631,52.435702],[13.528826,52.435237],[13.52822,52.435628],[13.528113,52.435567],[13.527434,52.436005],[13.528389,52.436558],[13.526891,52.43759],[13.522408,52.434995],[13.525144,52.433229],[13.525365,52.433061],[13.527071,52.43196],[13.527305,52.43209],[13.52715,52.432223],[13.525702,52.433158],[13.525707,52.433258],[13.526375,52.433645],[13.527931,52.432641],[13.529016,52.433268],[13.527424,52.434302],[13.5285,52.434924],[13.529106,52.434532],[13.529213,52.434594],[13.530202,52.433955],[13.530415,52.434078],[13.529426,52.434718],[13.529533,52.43478],[13.528927,52.435171],[13.529775,52.435662],[13.529654,52.435716],[13.529631,52.435702]],[[13.52584,52.43533],[13.525626,52.435469],[13.52567,52.436586],[13.525913,52.436727],[13.527018,52.436012],[13.52584,52.43533]],[[13.52648,52.433706],[13.527251,52.434152],[13.528399,52.433407],[13.527631,52.432962],[13.52648,52.433706]],[[13.527009,52.434309],[13.527044,52.434286],[13.526272,52.43384],[13.525828,52.434126],[13.525992,52.434221],[13.526009,52.434663],[13.52625,52.434802],[13.527009,52.434309]],[[13.528078,52.434804],[13.526793,52.435635],[13.52722,52.435882],[13.527899,52.435443],[13.527792,52.435381],[13.528399,52.43499],[13.528078,52.434804]],[[13.525546,52.433419],[13.525575,52.434162],[13.526167,52.433779],[13.525546,52.433419]]],[[[13.501393,52.433365],[13.500545,52.43284],[13.501457,52.432316],[13.502388,52.431861],[13.502549,52.431756],[13.504405,52.430833],[13.504314,52.430847],[13.504358,52.430826],[13.504143,52.430693],[13.504195,52.430667],[13.504005,52.430549],[13.504596,52.430261],[13.504795,52.430385],[13.504947,52.430316],[13.505167,52.43044],[13.506493,52.429905],[13.508335,52.429125],[13.508497,52.429285],[13.509312,52.429084],[13.50993,52.428972],[13.509825,52.428747],[13.510406,52.428604],[13.51054,52.428893],[13.512234,52.428663],[13.512877,52.428593],[13.513152,52.429175],[13.513041,52.429215],[13.512966,52.429275],[13.509291,52.429915],[13.506629,52.431521],[13.505052,52.430544],[13.504533,52.430817],[13.504453,52.430826],[13.504503,52.430857],[13.504453,52.430883],[13.500602,52.432818],[13.502516,52.434002],[13.502469,52.43403],[13.501393,52.433365]]],[[[13.526557,52.426284],[13.526479,52.426288],[13.5272,52.428765],[13.52582,52.428542],[13.524978,52.428435],[13.524404,52.428388],[13.522235,52.428267],[13.522453,52.426887],[13.520201,52.426999],[13.520223,52.426933],[13.520338,52.426887],[13.525757,52.426617],[13.526309,52.426626],[13.526343,52.426341],[13.522276,52.426562],[13.522268,52.426485],[13.526615,52.426245],[13.526624,52.42628],[13.526557,52.426284]],[[13.524217,52.428266],[13.524279,52.427857],[13.523987,52.42784],[13.52393,52.42821],[13.524217,52.428266]]],[[[13.541727,52.426783],[13.543971,52.428],[13.54214,52.429309],[13.539541,52.42799],[13.541486,52.426652],[13.541727,52.426783]]],[[[13.541754,52.426134],[13.541758,52.426166],[13.539296,52.427861],[13.536615,52.426397],[13.536587,52.42636],[13.536557,52.426164],[13.541716,52.42588],[13.541754,52.426134]]],[[[13.510384,52.433317],[13.510803,52.433463],[13.511406,52.433444],[13.513195,52.432218],[13.513184,52.432199],[13.511901,52.431752],[13.511966,52.431681],[13.513274,52.432137],[13.51332,52.432132],[13.515266,52.430799],[13.515262,52.430777],[13.513351,52.430122],[13.513402,52.430047],[13.513781,52.430177],[13.513996,52.429942],[13.51421,52.430015],[13.513995,52.43025],[13.515754,52.430852],[13.515965,52.431318],[13.516414,52.4313],[13.516438,52.431353],[13.515966,52.431372],[13.514272,52.432533],[13.514274,52.432559],[13.514587,52.432729],[13.514528,52.432769],[13.514215,52.432599],[13.514174,52.4326],[13.513319,52.433186],[13.513697,52.433392],[13.51365,52.433721],[13.513031,52.433383],[13.512894,52.433478],[13.513136,52.433737],[13.512696,52.433751],[13.512673,52.433485],[13.51238,52.433494],[13.512338,52.433522],[13.512377,52.433981],[13.512289,52.433983],[13.51225,52.433525],[13.512203,52.4335],[13.510771,52.433545],[13.510319,52.433388],[13.510384,52.433317]],[[13.515697,52.43103],[13.515641,52.430906],[13.515434,52.430835],[13.515382,52.430841],[13.513515,52.43212],[13.513517,52.432146],[13.514131,52.432481],[13.514173,52.432479],[13.51581,52.431357],[13.51583,52.431323],[13.515697,52.43103]],[[13.513008,52.433278],[13.51387,52.432687],[13.513867,52.432662],[13.513253,52.432327],[13.513211,52.432328],[13.511683,52.433376],[13.511685,52.433401],[13.511746,52.433433],[13.512802,52.4334],[13.512852,52.433385],[13.513008,52.433278]]],[[[13.517789,52.428677],[13.518924,52.42849],[13.519291,52.428479],[13.519372,52.428503],[13.518478,52.431186],[13.517634,52.431222],[13.516605,52.428884],[13.517789,52.428677]]],[[[13.545326,52.430587],[13.54474,52.431579],[13.544437,52.431899],[13.54396,52.431618],[13.542039,52.432839],[13.540966,52.43221],[13.542924,52.431009],[13.543729,52.431482],[13.54523,52.430529],[13.545266,52.430462],[13.545363,52.429926],[13.545271,52.429877],[13.545335,52.429684],[13.545749,52.429204],[13.545797,52.42917],[13.546035,52.429295],[13.545582,52.429596],[13.545447,52.43028],[13.545326,52.430587]]],[[[13.54529,52.42602],[13.545635,52.426131],[13.546296,52.42647],[13.546449,52.426361],[13.54655,52.426424],[13.541814,52.429779],[13.540673,52.430469],[13.53661,52.432867],[13.536511,52.432804],[13.540668,52.43035],[13.541708,52.42972],[13.544762,52.427557],[13.544669,52.427501],[13.545077,52.427209],[13.54472,52.427022],[13.544365,52.427276],[13.544125,52.427448],[13.544476,52.427639],[13.544124,52.427891],[13.543225,52.427403],[13.544184,52.426742],[13.543339,52.426301],[13.543186,52.426239],[13.543049,52.426208],[13.542868,52.426193],[13.542093,52.426234],[13.542081,52.426153],[13.542865,52.426112],[13.543066,52.426127],[13.54322,52.426159],[13.543425,52.426239],[13.544437,52.426768],[13.54529,52.42602]]],[[[13.518532,52.432751],[13.518338,52.432639],[13.518827,52.431174],[13.521807,52.431123],[13.521563,52.431342],[13.518979,52.43301],[13.518532,52.432751]]],[[[13.539238,52.432958],[13.539342,52.432897],[13.538566,52.432404],[13.538912,52.4322],[13.53938,52.432497],[13.539726,52.432293],[13.540765,52.432952],[13.53917,52.433966],[13.538036,52.433249],[13.538075,52.433226],[13.537862,52.43309],[13.537629,52.433227],[13.537737,52.433296],[13.537505,52.433433],[13.537058,52.43315],[13.537422,52.432935],[13.537006,52.432671],[13.53749,52.432386],[13.537906,52.432649],[13.538214,52.432466],[13.538374,52.432568],[13.538135,52.432709],[13.538467,52.432918],[13.538429,52.432941],[13.538834,52.433197],[13.539238,52.432958]]],[[[13.543621,52.432534],[13.54257,52.433321],[13.542169,52.433574],[13.542008,52.433697],[13.541928,52.433785],[13.541868,52.433752],[13.540793,52.434555],[13.540853,52.434588],[13.540346,52.434947],[13.540357,52.434967],[13.54032,52.434993],[13.540252,52.434998],[13.540217,52.434984],[13.540357,52.43488],[13.540184,52.434814],[13.540266,52.434701],[13.540387,52.434629],[13.540698,52.434502],[13.540676,52.434489],[13.540708,52.434455],[13.540865,52.434338],[13.539914,52.433778],[13.540989,52.433095],[13.541549,52.433449],[13.541517,52.433468],[13.541786,52.433639],[13.541823,52.433594],[13.542107,52.43347],[13.542307,52.433357],[13.542573,52.433151],[13.542655,52.433071],[13.542721,52.432958],[13.542803,52.432907],[13.542831,52.432754],[13.542784,52.43245],[13.542852,52.432343],[13.542904,52.432308],[13.542992,52.432266],[13.543099,52.432243],[13.543172,52.432237],[13.543355,52.432261],[13.543514,52.432335],[13.543627,52.432515],[13.543621,52.432534]]],[[[13.533314,52.432676],[13.533856,52.433],[13.532982,52.433565],[13.531869,52.432921],[13.532778,52.432355],[13.533314,52.432676]]],[[[13.500189,52.432619],[13.499116,52.433148],[13.498158,52.4337],[13.499195,52.434298],[13.500953,52.435259],[13.500828,52.435335],[13.500571,52.435201],[13.500539,52.43522],[13.499242,52.434514],[13.499331,52.434525],[13.497968,52.433788],[13.497597,52.433548],[13.497804,52.43345],[13.497768,52.433427],[13.497974,52.433337],[13.498358,52.433259],[13.498536,52.433205],[13.499992,52.432497],[13.500189,52.432619]]],[[[13.521281,52.433617],[13.520688,52.433999],[13.519192,52.433134],[13.519785,52.432751],[13.521281,52.433617]]],[[[13.547727,52.428172],[13.547129,52.427841],[13.547166,52.427681],[13.547167,52.427452],[13.547062,52.426835],[13.548449,52.427693],[13.547727,52.428172]]],[[[13.508929,52.428415],[13.509108,52.428591],[13.507407,52.429216],[13.507227,52.429041],[13.508258,52.428649],[13.508929,52.428415]]],[[[13.547044,52.42673],[13.547219,52.426624],[13.548677,52.427541],[13.548515,52.427649],[13.547044,52.42673]]],[[[13.520088,52.432556],[13.520391,52.43236],[13.521138,52.432793],[13.520836,52.432989],[13.520088,52.432556]]],[[[13.512836,52.437433],[13.512832,52.437391],[13.513129,52.437382],[13.513066,52.437821],[13.512316,52.437845],[13.512287,52.437507],[13.511859,52.437521],[13.511854,52.437461],[13.511912,52.437463],[13.512046,52.437503],[13.512651,52.437484],[13.512636,52.437591],[13.512738,52.437597],[13.512706,52.437824],[13.51278,52.437821],[13.512836,52.437433]]],[[[13.502718,52.43165],[13.502473,52.431468],[13.50283,52.431287],[13.502952,52.431245],[13.503184,52.431416],[13.502718,52.43165]]],[[[13.519868,52.426968],[13.519772,52.426924],[13.519769,52.426899],[13.519718,52.426902],[13.519695,52.426757],[13.519949,52.426727],[13.519799,52.427229],[13.519706,52.427171],[13.519584,52.427145],[13.519575,52.42708],[13.51963,52.427043],[13.519868,52.426968]]],[[[13.514975,52.430172],[13.514987,52.430198],[13.514929,52.430261],[13.514388,52.430076],[13.514893,52.42999],[13.514975,52.430172]]],[[[13.52192,52.430583],[13.521874,52.430913],[13.522112,52.430908],[13.522078,52.431118],[13.521811,52.431123],[13.52206,52.429555],[13.52192,52.430583]]],[[[13.545776,52.425734],[13.545004,52.425231],[13.54514,52.425242],[13.545194,52.425271],[13.54645,52.426149],[13.545776,52.425734]]],[[[13.543918,52.425734],[13.544025,52.425752],[13.542685,52.425826],[13.5428,52.425747],[13.543918,52.425734]]],[[[13.522247,52.428563],[13.522481,52.428576],[13.522468,52.428662],[13.522203,52.428656],[13.522218,52.428561],[13.522247,52.428563]]],[[[13.541789,52.433894],[13.541845,52.433924],[13.541711,52.434018],[13.541654,52.433988],[13.541789,52.433894]]],[[[13.520496,52.42664],[13.520139,52.426668],[13.520298,52.426616],[13.520496,52.42664]]],[[[13.516155,52.428931],[13.516411,52.428887],[13.516477,52.428897],[13.516108,52.428961],[13.516155,52.428931]]],[[[13.520902,52.426645],[13.520829,52.426655],[13.52079,52.426648],[13.520766,52.426623],[13.521049,52.426609],[13.520902,52.426645]]],[[[13.519833,52.428133],[13.519617,52.428117],[13.519841,52.428079],[13.519833,52.428133]]],[[[13.521404,52.426642],[13.521513,52.426815],[13.521353,52.426648],[13.521404,52.426642]]],[[[13.521049,52.426609],[13.521308,52.426578],[13.521214,52.426601],[13.521049,52.426609]]],[[[13.520937,52.434143],[13.520902,52.434123],[13.520935,52.434102],[13.520937,52.434143]]],[[[13.521018,52.431956],[13.521048,52.431936],[13.52108,52.431955],[13.521018,52.431956]]]]}},{"type":"Feature","id":3,"properties":{"gisid":"E0902","name":"Ehemaliger Güterbahnhof Köpenick","bezirk":"Treptow-Köpenick","f_in_kraft":"27.05.2020","f_gvbl":"2020, Nr. 23, Seiten 327-331","status":"Entwicklungsbereich"},"geometry":{"type":"MultiPolygon","coordinates":[[[[13.593045,52.455029],[13.59302,52.455022],[13.592987,52.45507],[13.593014,52.455076],[13.592901,52.455261],[13.592762,52.455369],[13.592662,52.455415],[13.592724,52.456069],[13.595425,52.456836],[13.596314,52.456952],[13.596463,52.456778],[13.599625,52.45741],[13.600016,52.457466],[13.600832,52.457526],[13.600829,52.45769],[13.596895,52.457496],[13.585217,52.457851],[13.584763,52.457909],[13.583749,52.4581],[13.583416,52.458146],[13.582737,52.458168],[13.582727,52.458056],[13.582546,52.458063],[13.582557,52.458169],[13.582038,52.458163],[13.58203,52.45826],[13.581628,52.458255],[13.580897,52.458285],[13.580073,52.458368],[13.580079,52.458391],[13.579456,52.458477],[13.579487,52.458569],[13.579649,52.458753],[13.579435,52.458548],[13.579308,52.458355],[13.580413,52.458317],[13.580972,52.458271],[13.580956,52.458152],[13.58175,52.458133],[13.581749,52.458104],[13.581955,52.4581],[13.581919,52.457794],[13.585952,52.457603],[13.586008,52.456618],[13.586597,52.456703],[13.586735,52.456357],[13.585972,52.456244],[13.586024,52.456163],[13.588322,52.456214],[13.588341,52.455922],[13.58758,52.455905],[13.587602,52.455581],[13.589106,52.455621],[13.589414,52.455583],[13.589221,52.454867],[13.589128,52.45487],[13.589157,52.454514],[13.589234,52.454483],[13.589458,52.454312],[13.589459,52.45429],[13.589615,52.454242],[13.589878,52.454215],[13.59014,52.454207],[13.590369,52.454221],[13.590838,52.454285],[13.59108,52.454286],[13.591413,52.454224],[13.591539,52.454144],[13.591946,52.454058],[13.592101,52.454101],[13.592306,52.454024],[13.592471,52.453933],[13.592582,52.453911],[13.593244,52.453892],[13.593024,52.45436],[13.59375,52.454488],[13.593797,52.454565],[13.593656,52.454756],[13.593354,52.454702],[13.59327,52.454849],[13.593187,52.454923],[13.593124,52.454909],[13.593045,52.455029]]],[[[13.608112,52.457851],[13.608127,52.457847],[13.608124,52.457973],[13.608031,52.457987],[13.607351,52.458284],[13.6034,52.4583],[13.603534,52.458826],[13.599022,52.458962],[13.590144,52.459179],[13.588311,52.459237],[13.588318,52.459361],[13.588248,52.459472],[13.587361,52.459263],[13.586626,52.459224],[13.586584,52.459613],[13.58669,52.460273],[13.586681,52.461167],[13.584263,52.460929],[13.584255,52.4592],[13.584197,52.459161],[13.583155,52.459108],[13.58241,52.459155],[13.580119,52.459088],[13.580082,52.459124],[13.57991,52.459014],[13.579734,52.458834],[13.580203,52.458796],[13.580209,52.458821],[13.582563,52.458631],[13.584616,52.458567],[13.585569,52.458563],[13.585569,52.458582],[13.585689,52.458583],[13.585689,52.458565],[13.586573,52.458583],[13.589737,52.458698],[13.590723,52.458718],[13.591681,52.458704],[13.594962,52.458608],[13.596222,52.458547],[13.596252,52.458583],[13.597158,52.458497],[13.599141,52.458258],[13.600007,52.458177],[13.601086,52.458122],[13.601139,52.458177],[13.601418,52.458219],[13.603361,52.458149],[13.603354,52.458119],[13.603393,52.458117],[13.603269,52.458066],[13.603253,52.458013],[13.604347,52.457969],[13.605735,52.457865],[13.606288,52.457839],[13.606289,52.457856],[13.606328,52.457854],[13.60633,52.457837],[13.607167,52.457803],[13.607168,52.457821],[13.607208,52.45782],[13.607205,52.457802],[13.607829,52.457779],[13.607827,52.457873],[13.608031,52.45788],[13.608112,52.457851]]],[[[13.602219,52.457659],[13.602222,52.457713],[13.601452,52.457746],[13.601445,52.457707],[13.601232,52.457715],[13.601233,52.457749],[13.600958,52.457737],[13.600957,52.457535],[13.601688,52.457556],[13.602218,52.45763],[13.602219,52.457659]]]]}},{"type":"Feature","id":4,"properties":{"gisid":"E0101a","name":"Parlaments- und Regierungsviertel","bezirk":"Mitte","f_in_kraft":"04.07.1993","f_gvbl":"1993, Nr. 35, Seite 268","e_in_kraft":"12.03.2016","e_gvbl":"2016, Nr. 07, Seiten 74-84","status":"Aus dem Entwicklungsrecht entlassen"},"geometry":{"type":"MultiPolygon","coordinates":[[[[13.375402,52.521603],[13.37518,52.521502],[13.373803,52.520769],[13.3738,52.520615],[13.373684,52.520615],[13.373682,52.519698],[13.376454,52.519697],[13.376671,52.519561],[13.37686,52.519469],[13.376844,52.517981],[13.376882,52.517791],[13.377195,52.517153],[13.377188,52.517087],[13.377131,52.517037],[13.377175,52.516943],[13.377189,52.516834],[13.377138,52.51673],[13.37695,52.516655],[13.376754,52.516522],[13.376681,52.516431],[13.376629,52.516306],[13.376671,52.51611],[13.376775,52.515985],[13.376981,52.515856],[13.377254,52.515772],[13.377339,52.515703],[13.377374,52.515638],[13.376697,52.512769],[13.376808,52.512457],[13.376761,52.512243],[13.376825,52.512195],[13.376492,52.510673],[13.377019,52.510687],[13.379833,52.510866],[13.381693,52.511014],[13.381806,52.510196],[13.381924,52.510202],[13.381971,52.509954],[13.380354,52.509854],[13.380538,52.508678],[13.382217,52.508775],[13.382489,52.507126],[13.385762,52.507329],[13.384409,52.5099],[13.387334,52.510082],[13.387123,52.510291],[13.387102,52.51026],[13.38397,52.510078],[13.382777,52.512341],[13.381821,52.512168],[13.381816,52.512179],[13.381728,52.512168],[13.38173,52.512157],[13.380974,52.5121],[13.381131,52.511154],[13.379849,52.511052],[13.378453,52.510963],[13.378422,52.511139],[13.378172,52.511587],[13.377123,52.511384],[13.377284,52.51212],[13.380639,52.512328],[13.380603,52.512507],[13.380096,52.513465],[13.379965,52.513439],[13.379958,52.513645],[13.377434,52.51315],[13.377719,52.51449],[13.379151,52.514582],[13.381376,52.515011],[13.380759,52.516202],[13.379751,52.516134],[13.379657,52.516676],[13.380844,52.516753],[13.380562,52.518277],[13.382152,52.518384],[13.382023,52.519092],[13.381527,52.518982],[13.381026,52.518905],[13.380136,52.518832],[13.379727,52.518826],[13.379219,52.51885],[13.378629,52.518919],[13.378086,52.51902],[13.377596,52.519154],[13.377378,52.519259],[13.37738,52.519388],[13.376896,52.519608],[13.37669,52.519728],[13.376454,52.519901],[13.376269,52.52008],[13.376144,52.520285],[13.375914,52.521234],[13.375564,52.521647],[13.37556,52.521674],[13.375402,52.521603]]],[[[13.354897,52.517865],[13.355398,52.517704],[13.355783,52.517613],[13.35643,52.517535],[13.356868,52.517513],[13.357203,52.517534],[13.357681,52.517603],[13.358157,52.517694],[13.358761,52.517836],[13.35899,52.517901],[13.359549,52.51813],[13.360884,52.518768],[13.361587,52.519154],[13.361598,52.519145],[13.361853,52.519268],[13.362091,52.519361],[13.362397,52.519457],[13.365811,52.520346],[13.366871,52.520725],[13.367144,52.520856],[13.367374,52.520995],[13.359912,52.520992],[13.359762,52.521098],[13.358337,52.520372],[13.357967,52.52021],[13.357499,52.520036],[13.357045,52.519897],[13.356418,52.519747],[13.355782,52.519639],[13.355281,52.519581],[13.354719,52.517926],[13.354897,52.517865]]],[[[13.393313,52.512234],[13.39358,52.510672],[13.396913,52.51087],[13.396786,52.511453],[13.396808,52.511454],[13.396787,52.511574],[13.396856,52.511594],[13.396702,52.51246],[13.397339,52.513102],[13.40147,52.511418],[13.40154,52.511498],[13.401058,52.511706],[13.40159,52.512187],[13.401912,52.512051],[13.402012,52.51217],[13.400512,52.512795],[13.401015,52.513232],[13.400987,52.513254],[13.401241,52.513391],[13.401232,52.5134],[13.401397,52.513459],[13.401205,52.513648],[13.401291,52.513683],[13.401218,52.513759],[13.4012,52.513826],[13.400378,52.51473],[13.400082,52.51515],[13.400102,52.515155],[13.40004,52.515254],[13.399735,52.515698],[13.399769,52.515726],[13.399621,52.51591],[13.398766,52.515689],[13.397566,52.515423],[13.396828,52.5153],[13.397104,52.514088],[13.396897,52.514087],[13.397053,52.513415],[13.396257,52.513292],[13.396046,52.513178],[13.395825,52.512786],[13.395838,52.512699],[13.396285,52.512724],[13.396305,52.512602],[13.393296,52.51243],[13.393313,52.512234]]],[[[13.363573,52.519164],[13.364067,52.519288],[13.364139,52.519292],[13.365499,52.519295],[13.365499,52.519265],[13.365539,52.519262],[13.366403,52.519262],[13.366403,52.519324],[13.366579,52.519324],[13.366579,52.519486],[13.370586,52.519484],[13.370586,52.519631],[13.370628,52.519631],[13.370628,52.51966],[13.370669,52.51966],[13.370677,52.5197],[13.37067,52.520657],[13.370606,52.520657],[13.370606,52.520685],[13.370557,52.520685],[13.370557,52.520712],[13.370586,52.520715],[13.368955,52.52161],[13.368559,52.521206],[13.368247,52.520938],[13.367872,52.52066],[13.367523,52.520462],[13.367353,52.520384],[13.366425,52.520041],[13.365462,52.51976],[13.365137,52.519585],[13.364493,52.519422],[13.36404,52.5194],[13.36294,52.519114],[13.362409,52.518951],[13.362032,52.518788],[13.361604,52.518552],[13.361285,52.518348],[13.361257,52.5183],[13.360772,52.517978],[13.360556,52.517855],[13.360326,52.517743],[13.359828,52.517551],[13.359212,52.517406],[13.358348,52.517231],[13.357736,52.517137],[13.357172,52.517079],[13.356709,52.517062],[13.356159,52.517083],[13.35528,52.517203],[13.354987,52.517263],[13.354902,52.517294],[13.354858,52.517164],[13.355421,52.517061],[13.356127,52.516991],[13.356689,52.516974],[13.357267,52.516995],[13.357968,52.517067],[13.358517,52.517157],[13.360388,52.517577],[13.36113,52.5177],[13.361587,52.517742],[13.362204,52.517758],[13.363412,52.517704],[13.363729,52.51833],[13.363842,52.518421],[13.363796,52.518447],[13.363615,52.518467],[13.363611,52.519109],[13.363573,52.519164]]],[[[13.381092,52.516221],[13.381704,52.515067],[13.388889,52.515532],[13.388847,52.515729],[13.386141,52.515557],[13.385965,52.516549],[13.381092,52.516221]]],[[[13.386366,52.514482],[13.386474,52.513793],[13.385172,52.513705],[13.385216,52.513512],[13.389177,52.513769],[13.389033,52.514651],[13.386366,52.514482]]],[[[13.383025,52.513096],[13.384988,52.51349],[13.384762,52.513937],[13.384623,52.514335],[13.383922,52.51425],[13.382312,52.513899],[13.383093,52.512398],[13.383553,52.51249],[13.383446,52.512691],[13.383882,52.512781],[13.383792,52.512951],[13.383714,52.512988],[13.383236,52.512891],[13.383101,52.512935],[13.383025,52.513096]]],[[[13.385713,52.517767],[13.385771,52.517771],[13.385744,52.517937],[13.383877,52.517816],[13.384018,52.516968],[13.38588,52.517089],[13.385771,52.517771],[13.385713,52.517767]]],[[[13.384301,52.512332],[13.384535,52.511889],[13.384773,52.511531],[13.385948,52.511759],[13.38546,52.512613],[13.384852,52.512495],[13.384879,52.512444],[13.384301,52.512332]]]]}},{"type":"Feature","id":5,"properties":{"gisid":"E0201a","name":"Rummelsburger Bucht","bezirk":"Friedrichshain-Kreuzberg, Lichtenberg","f_in_kraft":"27.04.1994","f_gvbl":"1994, Nr. 17, Seite 118","e_in_kraft":"05.01.2005","e_gvbl":"2005, Nr. 01, Seiten 4-6","status":"Aus dem Entwicklungsrecht entlassen"},"geometry":{"type":"MultiPolygon","coordinates":[[[[13.466871,52.497546],[13.467237,52.497849],[13.467479,52.498091],[13.46774,52.498424],[13.467906,52.498692],[13.468523,52.500201],[13.468711,52.500763],[13.469235,52.50211],[13.469323,52.502164],[13.469432,52.502456],[13.469755,52.502402],[13.469755,52.50245],[13.469791,52.502445],[13.473873,52.501823],[13.473875,52.501869],[13.473831,52.501957],[13.474119,52.50186],[13.474339,52.50176],[13.474941,52.501677],[13.475044,52.501676],[13.475419,52.501606],[13.477734,52.50054],[13.478357,52.501064],[13.477313,52.501332],[13.475401,52.501703],[13.475649,52.502227],[13.475692,52.502601],[13.475614,52.502729],[13.47538,52.50282],[13.473433,52.503198],[13.473117,52.503301],[13.472979,52.503428],[13.471422,52.505408],[13.471173,52.505136],[13.470785,52.505525],[13.470432,52.505175],[13.470074,52.504945],[13.469725,52.504796],[13.469216,52.504598],[13.468964,52.504528],[13.468266,52.504345],[13.467859,52.504283],[13.466967,52.502894],[13.466492,52.502529],[13.466288,52.502081],[13.466402,52.501199],[13.465427,52.498879],[13.46455,52.4976],[13.462999,52.498084],[13.462372,52.497335],[13.463267,52.496964],[13.46327,52.496551],[13.464204,52.496127],[13.463866,52.495903],[13.463913,52.495872],[13.46388,52.495851],[13.464246,52.49566],[13.464374,52.49561],[13.465932,52.496704],[13.465933,52.496771],[13.466,52.496809],[13.465919,52.496851],[13.465921,52.496877],[13.465718,52.496984],[13.465697,52.49697],[13.465608,52.497018],[13.465746,52.497111],[13.465729,52.497121],[13.465747,52.497129],[13.466046,52.496972],[13.466871,52.497546]]],[[[13.475,52.49666],[13.474712,52.496791],[13.473292,52.497219],[13.47147,52.495086],[13.473168,52.494577],[13.473038,52.494427],[13.472377,52.494624],[13.471733,52.493868],[13.473012,52.493461],[13.474495,52.494991],[13.475173,52.495539],[13.475544,52.495665],[13.475879,52.495974],[13.475777,52.496217],[13.475646,52.496408],[13.474988,52.49665],[13.475,52.49666]]],[[[13.477016,52.500578],[13.475781,52.499556],[13.47785,52.498623],[13.477812,52.497988],[13.478512,52.497249],[13.480591,52.498932],[13.477016,52.500578]]]]}},{"type":"Feature","id":6,"properties":{"gisid":"E0201b","name":"Rummelsburger Bucht","bezirk":"Friedrichshain-Kreuzberg, Lichtenberg","f_in_kraft":"27.04.1994","f_gvbl":"1994, Nr. 17, Seite 118","e_in_kraft":"27.01.2008","e_gvbl":"2008, Nr. 01, Seiten 2-3","status":"Aus dem Entwicklungsrecht entlassen"},"geometry":{"type":"MultiPolygon","coordinates":[[[[13.477016,52.500578],[13.480591,52.498932],[13.478511,52.497249],[13.479011,52.496743],[13.479158,52.496793],[13.479285,52.496729],[13.480122,52.496223],[13.48028,52.496097],[13.480422,52.495832],[13.48039,52.495805],[13.480873,52.495578],[13.480839,52.495435],[13.481002,52.495226],[13.480968,52.495154],[13.48117,52.4951],[13.481579,52.494811],[13.481693,52.494659],[13.48214,52.494412],[13.483083,52.493483],[13.483214,52.493431],[13.484094,52.493501],[13.484174,52.49346],[13.48473,52.493283],[13.485802,52.492806],[13.487676,52.491382],[13.487876,52.491248],[13.488302,52.491036],[13.488843,52.491209],[13.489786,52.490726],[13.48994,52.490668],[13.490017,52.490686],[13.490557,52.491025],[13.490728,52.490922],[13.490218,52.490581],[13.490194,52.490541],[13.490208,52.490504],[13.490432,52.490377],[13.490663,52.490526],[13.490932,52.490372],[13.490689,52.490219],[13.491375,52.489822],[13.492934,52.490427],[13.492926,52.490436],[13.492995,52.490464],[13.493021,52.490441],[13.493581,52.49066],[13.491897,52.492287],[13.493492,52.492916],[13.492743,52.49328],[13.492929,52.493355],[13.489779,52.494753],[13.489781,52.494789],[13.488975,52.495164],[13.489052,52.495251],[13.48959,52.495536],[13.487582,52.496416],[13.487192,52.49663],[13.486723,52.496972],[13.48638,52.497264],[13.485933,52.496906],[13.485663,52.497029],[13.485583,52.496965],[13.478949,52.500027],[13.477734,52.50054],[13.475419,52.501606],[13.475223,52.501398],[13.475116,52.501213],[13.474324,52.500159],[13.475341,52.499754],[13.475781,52.499556],[13.477016,52.500578]]],[[[13.466112,52.497017],[13.466046,52.496972],[13.465747,52.497129],[13.465729,52.497121],[13.465746,52.497111],[13.465608,52.497018],[13.465697,52.49697],[13.465718,52.496984],[13.465921,52.496877],[13.465919,52.496851],[13.466,52.496809],[13.465933,52.496771],[13.465932,52.496704],[13.464374,52.49561],[13.464252,52.495662],[13.464214,52.495638],[13.464427,52.495536],[13.464629,52.495499],[13.467651,52.494548],[13.470405,52.493465],[13.470489,52.493468],[13.471221,52.493198],[13.472559,52.492807],[13.472699,52.492748],[13.473152,52.492672],[13.473218,52.492645],[13.473665,52.492586],[13.47394,52.492523],[13.474314,52.492474],[13.474651,52.492397],[13.474726,52.492385],[13.474773,52.492402],[13.476294,52.492126],[13.476353,52.492093],[13.476503,52.492089],[13.477043,52.491914],[13.478067,52.491331],[13.478266,52.491459],[13.478812,52.491726],[13.480625,52.490303],[13.480619,52.490256],[13.479829,52.489932],[13.479863,52.489883],[13.480422,52.489388],[13.480651,52.48924],[13.481014,52.489114],[13.481741,52.488729],[13.48187,52.488678],[13.482149,52.488611],[13.482376,52.488602],[13.48253,52.488635],[13.482629,52.488702],[13.482816,52.48892],[13.482964,52.489157],[13.483046,52.489362],[13.48307,52.489624],[13.483052,52.489695],[13.4828,52.490057],[13.482361,52.490582],[13.482398,52.490597],[13.482298,52.490826],[13.482336,52.490887],[13.482539,52.490968],[13.482222,52.491228],[13.481991,52.491184],[13.481205,52.491493],[13.480751,52.491734],[13.480222,52.492183],[13.480338,52.492245],[13.480328,52.492258],[13.479412,52.493186],[13.476452,52.494186],[13.476407,52.494171],[13.47571,52.494757],[13.475694,52.494867],[13.475561,52.494994],[13.475437,52.495284],[13.475416,52.495395],[13.475412,52.495493],[13.475513,52.495655],[13.475173,52.495539],[13.474495,52.494991],[13.473012,52.493461],[13.471733,52.493868],[13.472377,52.494624],[13.473038,52.494427],[13.473168,52.494577],[13.47147,52.495086],[13.473292,52.497219],[13.473073,52.497289],[13.471374,52.498033],[13.471314,52.498071],[13.471133,52.498088],[13.469882,52.498602],[13.469685,52.498759],[13.467419,52.496107],[13.466241,52.496905],[13.466112,52.497017]]]]}},{"type":"Feature","id":7,"properties":{"gisid":"E0401a","name":"Alter Schlachthof / Eldenaer Straße","bezirk":"Pankow","f_in_kraft":"22.07.1993","f_gvbl":"1993, Nr. 40, Seite 326","e_in_kraft":"27.01.2008","e_gvbl":"2008, Nr. 01, Seite 4","status":"Aus dem Entwicklungsrecht entlassen"},"geometry":{"type":"MultiPolygon","coordinates":[[[[13.461362,52.524449],[13.460515,52.524685],[13.459868,52.524919],[13.459264,52.525192],[13.458693,52.525496],[13.458268,52.525761],[13.457927,52.525996],[13.457494,52.52637],[13.456162,52.52772],[13.455689,52.528253],[13.452417,52.527526],[13.4558,52.522552],[13.456157,52.522458],[13.45529,52.521272],[13.462695,52.519928],[13.470614,52.52057],[13.470366,52.521021],[13.470117,52.521402],[13.469807,52.521751],[13.469412,52.522098],[13.468951,52.52241],[13.468447,52.522675],[13.467886,52.522911],[13.467287,52.5231],[13.464676,52.523688],[13.463975,52.523877],[13.463327,52.524085],[13.461907,52.524326],[13.461362,52.524449]]]]}},{"type":"Feature","id":8,"properties":{"gisid":"E0801a","name":"Wasserstadt Berlin-Oberhavel","bezirk":"Spandau","f_in_kraft":"05.08.1992","f_gvbl":"1992, Nr. 35, Seite 241","e_in_kraft":"21.01.2006","e_gvbl":"2006, Nr. 02, Seiten 32-34","status":"Aus dem Entwicklungsrecht entlassen"},"geometry":{"type":"MultiPolygon","coordinates":[[[[13.227589,52.548989],[13.228057,52.548625],[13.22786,52.54852],[13.227759,52.548542],[13.227283,52.548592],[13.225327,52.548653],[13.225309,52.547976],[13.225136,52.547597],[13.224086,52.547664],[13.223749,52.547722],[13.223663,52.547577],[13.223572,52.547513],[13.223572,52.547485],[13.223551,52.54749],[13.223468,52.547421],[13.223434,52.547186],[13.223418,52.547182],[13.223433,52.547136],[13.223291,52.547113],[13.223302,52.547087],[13.223444,52.547111],[13.223486,52.546971],[13.223503,52.546973],[13.223533,52.546903],[13.223389,52.546881],[13.2234,52.546855],[13.223544,52.546878],[13.223668,52.546742],[13.223639,52.546693],[13.223535,52.5467],[13.223487,52.546681],[13.223409,52.546598],[13.223313,52.546602],[13.223188,52.546361],[13.223012,52.546156],[13.222937,52.545938],[13.22283,52.545963],[13.222578,52.545472],[13.222954,52.545374],[13.222971,52.545346],[13.222941,52.545285],[13.222842,52.545271],[13.222753,52.545179],[13.2225,52.545003],[13.222435,52.544807],[13.222335,52.544821],[13.222063,52.54426],[13.229128,52.542949],[13.228609,52.541915],[13.22926,52.541946],[13.229634,52.541927],[13.229992,52.541875],[13.2302,52.541828],[13.230652,52.541678],[13.230883,52.541567],[13.231148,52.541411],[13.231339,52.541275],[13.231505,52.541126],[13.231637,52.540966],[13.231755,52.540591],[13.231916,52.540369],[13.232053,52.540385],[13.232131,52.540364],[13.232326,52.54035],[13.232811,52.541943],[13.232874,52.542199],[13.232874,52.542491],[13.232342,52.544534],[13.23228,52.544732],[13.232143,52.545018],[13.232003,52.545225],[13.230904,52.54661],[13.230857,52.546597],[13.230737,52.54675],[13.230376,52.546985],[13.230079,52.547358],[13.229807,52.54781],[13.229709,52.547933],[13.22956,52.548069],[13.229155,52.548349],[13.229256,52.548364],[13.228623,52.549911],[13.227033,52.549403],[13.227589,52.548989]]],[[[13.218393,52.558556],[13.218355,52.558582],[13.217653,52.558578],[13.217317,52.557176],[13.217317,52.557109],[13.217301,52.557112],[13.217249,52.556896],[13.217284,52.556891],[13.217325,52.556639],[13.217645,52.556393],[13.217814,52.554965],[13.218881,52.554774],[13.219369,52.55577],[13.219831,52.556096],[13.219777,52.556106],[13.219815,52.556132],[13.219844,52.556127],[13.220029,52.55628],[13.221367,52.557203],[13.221415,52.557346],[13.221189,52.55765],[13.221122,52.558101],[13.221495,52.559178],[13.221931,52.559654],[13.218678,52.560137],[13.21872,52.560103],[13.2187,52.559493],[13.218433,52.558736],[13.218393,52.558556]]],[[[13.211185,52.548876],[13.210453,52.548808],[13.209919,52.547818],[13.208665,52.545648],[13.208974,52.545599],[13.209019,52.545547],[13.210938,52.545149],[13.211286,52.54556],[13.211704,52.545932],[13.211873,52.546121],[13.212016,52.546158],[13.212073,52.546201],[13.212453,52.546859],[13.212526,52.546921],[13.21269,52.547281],[13.212751,52.547278],[13.212813,52.547322],[13.21284,52.547448],[13.212781,52.547492],[13.213213,52.548242],[13.213389,52.548385],[13.213503,52.548542],[13.211529,52.548908],[13.211185,52.548876]]],[[[13.230785,52.558558],[13.231605,52.558428],[13.231295,52.559143],[13.228795,52.559547],[13.228936,52.560004],[13.228925,52.560257],[13.228707,52.560524],[13.228404,52.560709],[13.228297,52.560711],[13.227724,52.560663],[13.227076,52.560564],[13.226954,52.560516],[13.225135,52.559535],[13.227882,52.559121],[13.228347,52.559024],[13.228333,52.558991],[13.229314,52.558798],[13.230785,52.558558]]],[[[13.213097,52.5532],[13.213084,52.55328],[13.213219,52.55329],[13.213007,52.553653],[13.208235,52.554007],[13.208023,52.553936],[13.208155,52.553665],[13.20834,52.553408],[13.208797,52.553546],[13.208998,52.553531],[13.209026,52.553455],[13.209804,52.553419],[13.210087,52.553046],[13.213084,52.55328],[13.213097,52.5532]]],[[[13.224458,52.563564],[13.22453,52.563556],[13.224692,52.562466],[13.225549,52.562451],[13.225594,52.56252],[13.225588,52.562611],[13.225706,52.56284],[13.226075,52.563283],[13.226159,52.563489],[13.226116,52.563566],[13.226006,52.56363],[13.225819,52.56369],[13.225216,52.563952],[13.225129,52.564105],[13.225016,52.564242],[13.225308,52.564696],[13.22541,52.564762],[13.225543,52.564819],[13.224306,52.56505],[13.22453,52.563557],[13.224458,52.563564]]],[[[13.211376,52.549826],[13.210551,52.5501],[13.210452,52.54999],[13.210414,52.549249],[13.211321,52.549248],[13.211402,52.549683],[13.211292,52.549697],[13.211376,52.549826]]],[[[13.22101,52.550594],[13.221104,52.550448],[13.221111,52.550355],[13.221052,52.550196],[13.221099,52.550091],[13.221153,52.55006],[13.221522,52.550133],[13.221685,52.550185],[13.221836,52.550254],[13.221974,52.550398],[13.22197,52.550487],[13.22189,52.550609],[13.221738,52.550693],[13.221574,52.550732],[13.2213,52.550758],[13.221062,52.55068],[13.221022,52.550644],[13.22101,52.550594]]],[[[13.227253,52.562564],[13.227121,52.56261],[13.227031,52.562606],[13.22681,52.562495],[13.226634,52.562254],[13.226605,52.561949],[13.226647,52.561862],[13.226733,52.561843],[13.226831,52.561857],[13.226952,52.561898],[13.227106,52.562051],[13.227287,52.562183],[13.227288,52.562418],[13.227253,52.562564]]],[[[13.220089,52.554738],[13.220149,52.554597],[13.220113,52.554582],[13.220132,52.554538],[13.220176,52.55451],[13.220204,52.554519],[13.220262,52.554465],[13.220361,52.554482],[13.220441,52.554522],[13.220587,52.554687],[13.220625,52.554787],[13.220637,52.55491],[13.220613,52.555048],[13.220543,52.555119],[13.220405,52.555189],[13.220382,52.555169],[13.220308,52.555168],[13.220156,52.555049],[13.220089,52.554738]]]]}},{"type":"Feature","id":9,"properties":{"gisid":"E0801b","name":"Wasserstadt Berlin-Oberhavel","bezirk":"Spandau","f_in_kraft":"05.08.1992","f_gvbl":"1992, Nr. 35, Seite 241","e_in_kraft":"28.09.2008","e_gvbl":"2008, Nr. 24, Seiten 266-267","status":"Aus dem Entwicklungsrecht entlassen"},"geometry":{"type":"MultiPolygon","coordinates":[[[[13.220278,52.549911],[13.217445,52.549055],[13.217872,52.548527],[13.217667,52.548465],[13.217853,52.548212],[13.217865,52.548107],[13.217812,52.547984],[13.217666,52.547867],[13.216152,52.547071],[13.216019,52.547049],[13.215892,52.547056],[13.215894,52.547065],[13.212843,52.547416],[13.212813,52.547322],[13.215779,52.546975],[13.215795,52.546925],[13.215855,52.546907],[13.21604,52.54677],[13.216329,52.5466],[13.216935,52.546568],[13.217365,52.546563],[13.218353,52.546491],[13.220215,52.547052],[13.220227,52.54708],[13.220276,52.547091],[13.220446,52.547496],[13.220521,52.54761],[13.22056,52.547743],[13.220707,52.547917],[13.221139,52.548333],[13.221641,52.548606],[13.222021,52.548686],[13.222579,52.548713],[13.222633,52.548753],[13.222635,52.548775],[13.223033,52.548766],[13.223087,52.548711],[13.223936,52.54869],[13.223913,52.548425],[13.223749,52.547722],[13.224086,52.547664],[13.225136,52.547597],[13.225309,52.547976],[13.225327,52.548653],[13.227283,52.548592],[13.227759,52.548542],[13.22786,52.54852],[13.228057,52.548625],[13.227033,52.549403],[13.230888,52.550633],[13.231129,52.551846],[13.231853,52.552388],[13.231628,52.5525],[13.228987,52.553396],[13.230859,52.555501],[13.231775,52.555395],[13.232253,52.556933],[13.231605,52.558428],[13.229314,52.558798],[13.228333,52.558991],[13.228347,52.559024],[13.227882,52.559121],[13.225135,52.559535],[13.225116,52.559521],[13.224892,52.559243],[13.224878,52.559198],[13.224866,52.559106],[13.224899,52.558815],[13.224955,52.558589],[13.224474,52.557228],[13.224109,52.555593],[13.223675,52.555394],[13.223565,52.555266],[13.223505,52.555247],[13.22342,52.555154],[13.223427,52.554887],[13.22355,52.554442],[13.223585,52.554181],[13.223584,52.554168],[13.223498,52.554166],[13.22346,52.553994],[13.223443,52.553529],[13.223138,52.553533],[13.223144,52.553584],[13.223103,52.553609],[13.222922,52.553608],[13.222924,52.553443],[13.223663,52.553449],[13.223661,52.552773],[13.223604,52.552512],[13.223498,52.552512],[13.223487,52.552439],[13.223029,52.552277],[13.223168,52.551574],[13.223193,52.550937],[13.22325,52.550745],[13.223688,52.55034],[13.223695,52.550217],[13.223636,52.550074],[13.223594,52.550066],[13.22361,52.550032],[13.223646,52.550038],[13.223921,52.548842],[13.2231,52.548882],[13.223036,52.548825],[13.222641,52.548835],[13.222586,52.548893],[13.221882,52.548937],[13.221648,52.548986],[13.221495,52.54906],[13.2213,52.549088],[13.220999,52.549229],[13.220728,52.549418],[13.220605,52.549519],[13.220522,52.549645],[13.220454,52.549693],[13.220387,52.549715],[13.220428,52.549819],[13.220345,52.549945],[13.220273,52.549923],[13.220278,52.549911]]],[[[13.20796,52.554284],[13.208023,52.553936],[13.208235,52.554007],[13.213007,52.553653],[13.213219,52.55329],[13.213084,52.55328],[13.213097,52.5532],[13.214139,52.553345],[13.214335,52.552419],[13.213924,52.552206],[13.213947,52.552208],[13.213695,52.551922],[13.212345,52.551224],[13.211123,52.550636],[13.210906,52.550494],[13.210551,52.5501],[13.211376,52.549826],[13.211292,52.549697],[13.211402,52.549683],[13.211321,52.549248],[13.210414,52.549249],[13.210397,52.54891],[13.210453,52.548808],[13.211529,52.548908],[13.213503,52.548542],[13.214135,52.549191],[13.214357,52.549326],[13.214661,52.550205],[13.215162,52.551171],[13.215143,52.551174],[13.215524,52.551882],[13.215695,52.551955],[13.215613,52.552635],[13.215632,52.552717],[13.215713,52.552855],[13.216109,52.552808],[13.216325,52.553517],[13.216417,52.553903],[13.216299,52.553912],[13.216392,52.554385],[13.216277,52.554401],[13.216308,52.554502],[13.21623,52.554504],[13.216147,52.554797],[13.216002,52.555146],[13.215984,52.555268],[13.216003,52.555306],[13.215966,52.555488],[13.215978,52.555591],[13.215915,52.555793],[13.215921,52.555863],[13.215843,52.555874],[13.216216,52.557002],[13.216268,52.557081],[13.215497,52.55749],[13.215475,52.558218],[13.215257,52.558343],[13.215119,52.558463],[13.214905,52.558553],[13.214299,52.558639],[13.214405,52.558918],[13.214463,52.559002],[13.21453,52.558993],[13.214642,52.559319],[13.210167,52.5599],[13.208292,52.55901],[13.207814,52.555804],[13.207815,52.555549],[13.20796,52.554284]]],[[[13.217399,52.559638],[13.217673,52.558658],[13.217653,52.558578],[13.218355,52.558582],[13.218393,52.558556],[13.218433,52.558736],[13.2187,52.559493],[13.21872,52.560103],[13.218678,52.560137],[13.221931,52.559654],[13.222224,52.559979],[13.223923,52.560503],[13.223686,52.561091],[13.223435,52.561454],[13.22362,52.561801],[13.224112,52.56198],[13.224544,52.561436],[13.224641,52.561466],[13.224211,52.561996],[13.224548,52.562057],[13.224941,52.562101],[13.225285,52.562178],[13.225431,52.562258],[13.225549,52.562451],[13.224692,52.562466],[13.22453,52.563556],[13.215895,52.564477],[13.21279,52.561151],[13.21518,52.56084],[13.215112,52.560647],[13.21715,52.560364],[13.217399,52.559638]]]]}},{"type":"Feature","id":10,"properties":{"gisid":"E0801c","name":"Wasserstadt Berlin-Oberhavel","bezirk":"Spandau","f_in_kraft":"05.08.1992","f_gvbl":"1992, Nr. 35, Seite 241","e_in_kraft":"15.08.2012","e_gvbl":"2012, Nr. 20, Seite 255","status":"Aus dem Entwicklungsrecht entlassen"},"geometry":{"type":"MultiPolygon","coordinates":[[[[13.214642,52.559319],[13.21453,52.558993],[13.214463,52.559002],[13.214405,52.558918],[13.214299,52.558639],[13.214905,52.558553],[13.215119,52.558463],[13.215257,52.558343],[13.215475,52.558218],[13.215497,52.55749],[13.216268,52.557081],[13.216226,52.557001],[13.217249,52.556896],[13.217301,52.557112],[13.217317,52.557109],[13.217317,52.557176],[13.217673,52.558658],[13.217429,52.559549],[13.21715,52.560364],[13.215112,52.560647],[13.214642,52.559319]]],[[[13.220278,52.549911],[13.220273,52.549923],[13.220345,52.549945],[13.220266,52.550066],[13.220267,52.550104],[13.219978,52.550761],[13.219918,52.550802],[13.219839,52.550992],[13.219774,52.551043],[13.219769,52.551119],[13.219725,52.551219],[13.21962,52.551288],[13.219246,52.551365],[13.218996,52.551398],[13.218935,52.551424],[13.21846,52.551351],[13.218278,52.55131],[13.218036,52.551217],[13.217989,52.551183],[13.217799,52.551123],[13.217573,52.550996],[13.217519,52.550959],[13.217434,52.550826],[13.217366,52.550784],[13.217345,52.550712],[13.217267,52.550661],[13.21728,52.550522],[13.217227,52.550419],[13.217179,52.550424],[13.217025,52.550109],[13.21692,52.549967],[13.216889,52.549951],[13.216846,52.549867],[13.21689,52.549829],[13.216873,52.549634],[13.216846,52.549597],[13.216807,52.549599],[13.216767,52.549498],[13.216653,52.549366],[13.216602,52.549253],[13.216512,52.549211],[13.216475,52.549122],[13.216394,52.549035],[13.21635,52.548943],[13.2163,52.548657],[13.216143,52.548293],[13.21612,52.548092],[13.21606,52.547983],[13.216087,52.547876],[13.216028,52.547684],[13.216034,52.54751],[13.21591,52.547335],[13.215899,52.547121],[13.215813,52.547074],[13.216019,52.547049],[13.216152,52.547071],[13.217666,52.547867],[13.217812,52.547984],[13.217865,52.548107],[13.217853,52.548212],[13.217667,52.548465],[13.217872,52.548527],[13.217445,52.549055],[13.220278,52.549911]]],[[[13.223431,52.544006],[13.222016,52.544265],[13.221433,52.543231],[13.22582,52.542416],[13.226344,52.543465],[13.223431,52.544006]]]]}},{"type":"Feature","id":11,"properties":{"gisid":"E0901a","name":"Johannisthal / Adlershof","bezirk":"Treptow-Köpenick","f_in_kraft":"22.12.1994","f_gvbl":"1994, Nr. 67, Seite 499","e_in_kraft":"01.04.2006","e_gvbl":"2006, Nr. 12, Seiten 293-295","status":"Aus dem Entwicklungsrecht entlassen"},"geometry":{"type":"MultiPolygon","coordinates":[[[[13.526737,52.426704],[13.526615,52.426245],[13.536173,52.425716],[13.536783,52.425767],[13.539417,52.425625],[13.539732,52.425594],[13.539977,52.425528],[13.540201,52.425492],[13.544362,52.42526],[13.544646,52.425228],[13.544709,52.425253],[13.544755,52.425237],[13.545004,52.425231],[13.545776,52.425734],[13.547219,52.426624],[13.547044,52.42673],[13.546449,52.426361],[13.546296,52.42647],[13.545635,52.426131],[13.545395,52.426047],[13.544551,52.425837],[13.543918,52.425734],[13.5428,52.425747],[13.541716,52.42588],[13.535942,52.426198],[13.53597,52.426389],[13.535847,52.426474],[13.536032,52.426644],[13.53659,52.426613],[13.539109,52.42799],[13.541968,52.429432],[13.540928,52.430109],[13.537816,52.431944],[13.53637,52.43103],[13.534994,52.431844],[13.538759,52.434227],[13.538323,52.43452],[13.53655,52.433398],[13.535622,52.434011],[13.533856,52.433],[13.532778,52.432355],[13.531869,52.432921],[13.531627,52.433033],[13.530404,52.433824],[13.529218,52.433137],[13.529193,52.433142],[13.527071,52.43196],[13.525365,52.433061],[13.525144,52.433229],[13.524263,52.433798],[13.521048,52.431936],[13.522036,52.431299],[13.522481,52.428576],[13.5202,52.428453],[13.519734,52.428452],[13.519372,52.428503],[13.519506,52.428109],[13.524749,52.428414],[13.525575,52.428506],[13.5272,52.428765],[13.527039,52.428212],[13.52684,52.426698],[13.526737,52.426704]]],[[[13.526645,52.437732],[13.526666,52.437744],[13.525705,52.438453],[13.520729,52.438537],[13.516096,52.441681],[13.51514,52.441155],[13.512685,52.441703],[13.511935,52.440449],[13.512754,52.440273],[13.513741,52.433342],[13.516486,52.431461],[13.516402,52.431274],[13.518478,52.431186],[13.51797,52.43271],[13.526645,52.437732]]]]}},{"type":"Feature","id":12,"properties":{"gisid":"E0901b","name":"Johannisthal / Adlershof","bezirk":"Treptow-Köpenick","f_in_kraft":"22.12.1994","f_gvbl":"1994, Nr. 67, Seite 499","e_in_kraft":"Einzelentlassungen","e_gvbl":"Grundbucheintragung\r\n","status":"Aus dem Entwicklungsrecht entlassen"},"geometry":{"type":"MultiPolygon","coordinates":[[[[13.519372,52.428503],[13.519291,52.428479],[13.519123,52.428479],[13.518704,52.428518],[13.516605,52.428884],[13.517634,52.431222],[13.516402,52.431274],[13.516414,52.4313],[13.515965,52.431318],[13.515754,52.430852],[13.513995,52.43025],[13.51421,52.430015],[13.513996,52.429942],[13.513781,52.430177],[13.513402,52.430047],[13.513351,52.430122],[13.515262,52.430777],[13.515266,52.430799],[13.51332,52.432132],[13.513274,52.432137],[13.511966,52.431681],[13.511901,52.431752],[13.513184,52.432199],[13.513195,52.432218],[13.511406,52.433444],[13.510803,52.433463],[13.510384,52.433317],[13.510319,52.433388],[13.510771,52.433545],[13.512203,52.4335],[13.51225,52.433525],[13.512289,52.433983],[13.512377,52.433981],[13.512338,52.433522],[13.51238,52.433494],[13.512673,52.433485],[13.512696,52.433751],[13.513136,52.433737],[13.512894,52.433478],[13.513031,52.433383],[13.51365,52.433721],[13.513697,52.433392],[13.513319,52.433186],[13.514174,52.4326],[13.514215,52.432599],[13.514528,52.432769],[13.514587,52.432729],[13.514274,52.432559],[13.514272,52.432533],[13.515966,52.431372],[13.516438,52.431353],[13.516486,52.431461],[13.513741,52.433342],[13.512754,52.440273],[13.511935,52.440449],[13.512584,52.441534],[13.508554,52.442422],[13.508218,52.442168],[13.508076,52.442011],[13.507982,52.44184],[13.507542,52.439779],[13.507571,52.439758],[13.508098,52.439717],[13.510154,52.439599],[13.510256,52.440305],[13.510044,52.440319],[13.510091,52.440641],[13.511042,52.440429],[13.511515,52.440339],[13.511161,52.439345],[13.51059,52.439421],[13.510609,52.439489],[13.510164,52.439513],[13.51014,52.439364],[13.510567,52.439341],[13.510496,52.43908],[13.510518,52.439089],[13.510546,52.439085],[13.510543,52.439073],[13.51104,52.439007],[13.51099,52.438867],[13.510456,52.438938],[13.510286,52.438322],[13.507409,52.438421],[13.507377,52.438265],[13.507318,52.438122],[13.507139,52.437874],[13.506999,52.437746],[13.506833,52.437629],[13.506474,52.437452],[13.506856,52.43704],[13.506788,52.437057],[13.506674,52.437052],[13.507668,52.435977],[13.508679,52.436331],[13.509847,52.436667],[13.510232,52.436655],[13.510138,52.435558],[13.510535,52.435541],[13.510478,52.434882],[13.510082,52.434894],[13.509148,52.434568],[13.50973,52.433941],[13.50977,52.433934],[13.509803,52.433945],[13.510574,52.433107],[13.510819,52.433193],[13.511199,52.433181],[13.511346,52.43308],[13.511088,52.432938],[13.510992,52.432936],[13.510875,52.432883],[13.510861,52.432895],[13.510799,52.432866],[13.51316,52.430335],[13.512804,52.430419],[13.511847,52.43146],[13.511785,52.431438],[13.512563,52.430604],[13.511251,52.430095],[13.511614,52.429744],[13.511295,52.4298],[13.511019,52.430066],[13.510634,52.429915],[13.509483,52.430115],[13.506805,52.431731],[13.506629,52.431521],[13.509291,52.429915],[13.512957,52.429277],[13.513041,52.429215],[13.513152,52.429175],[13.512877,52.428593],[13.512234,52.428663],[13.51054,52.428893],[13.510406,52.428604],[13.509825,52.428747],[13.50993,52.428972],[13.509312,52.429084],[13.508497,52.429285],[13.508335,52.429125],[13.506493,52.429905],[13.505167,52.43044],[13.504947,52.430316],[13.504795,52.430385],[13.504597,52.430261],[13.506192,52.429491],[13.507227,52.429041],[13.507407,52.429216],[13.509108,52.428591],[13.508929,52.428415],[13.509721,52.428167],[13.511125,52.427781],[13.512115,52.427561],[13.51342,52.427315],[13.514866,52.427102],[13.515889,52.426989],[13.516531,52.426937],[13.519695,52.426757],[13.519718,52.426902],[13.519769,52.426899],[13.519772,52.426924],[13.519868,52.426968],[13.519597,52.427059],[13.519575,52.42708],[13.519584,52.427145],[13.519706,52.427171],[13.519799,52.427229],[13.519949,52.426727],[13.520139,52.426668],[13.520766,52.426623],[13.52079,52.426648],[13.520829,52.426655],[13.521049,52.426609],[13.521214,52.426601],[13.521308,52.426578],[13.522005,52.426531],[13.522271,52.426517],[13.522276,52.426562],[13.526343,52.426341],[13.526309,52.426626],[13.525757,52.426617],[13.520338,52.426887],[13.520223,52.426933],[13.520201,52.426999],[13.522453,52.426887],[13.522235,52.428267],[13.519841,52.428134],[13.519825,52.428128],[13.519841,52.428079],[13.519617,52.428117],[13.519506,52.428109],[13.519372,52.428503]],[[13.512836,52.437433],[13.51278,52.437821],[13.512706,52.437824],[13.512738,52.437597],[13.512636,52.437591],[13.512651,52.437484],[13.512046,52.437503],[13.511912,52.437463],[13.511854,52.437461],[13.511859,52.437521],[13.512287,52.437507],[13.512316,52.437845],[13.513066,52.437821],[13.513129,52.437382],[13.512832,52.437391],[13.512836,52.437433]],[[13.514975,52.430172],[13.514893,52.42999],[13.514388,52.430076],[13.514929,52.430261],[13.514987,52.430198],[13.514975,52.430172]],[[13.516155,52.428931],[13.516108,52.428961],[13.516477,52.428897],[13.516411,52.428887],[13.516155,52.428931]],[[13.521404,52.426642],[13.521353,52.426648],[13.521513,52.426815],[13.521404,52.426642]]],[[[13.526645,52.437732],[13.51797,52.43271],[13.519372,52.428503],[13.519734,52.428452],[13.520479,52.428464],[13.522218,52.428561],[13.522203,52.428656],[13.522468,52.428662],[13.522112,52.430908],[13.521874,52.430913],[13.52206,52.429555],[13.521811,52.431123],[13.522078,52.431118],[13.522036,52.431299],[13.521018,52.431956],[13.52108,52.431955],[13.524263,52.433798],[13.522408,52.434995],[13.526891,52.43759],[13.528389,52.436558],[13.527434,52.436005],[13.528113,52.435567],[13.52822,52.435628],[13.528826,52.435237],[13.529654,52.435716],[13.529775,52.435662],[13.528927,52.435171],[13.529533,52.43478],[13.529426,52.434718],[13.530415,52.434078],[13.530202,52.433955],[13.529213,52.434594],[13.529106,52.434532],[13.5285,52.434924],[13.527424,52.434302],[13.529016,52.433268],[13.527931,52.432641],[13.526375,52.433645],[13.525707,52.433258],[13.525702,52.433158],[13.52715,52.432223],[13.527305,52.43209],[13.529193,52.433142],[13.529218,52.433137],[13.530404,52.433824],[13.531627,52.433033],[13.531869,52.432921],[13.532982,52.433565],[13.533856,52.433],[13.534618,52.433431],[13.533736,52.434002],[13.533217,52.433701],[13.531591,52.434758],[13.533965,52.436132],[13.532389,52.43715],[13.530102,52.435827],[13.529959,52.435991],[13.529035,52.436628],[13.531114,52.437835],[13.532074,52.437215],[13.533217,52.437876],[13.532257,52.438496],[13.531451,52.438031],[13.531409,52.438031],[13.529634,52.439177],[13.527297,52.437825],[13.526073,52.438716],[13.523903,52.440191],[13.525316,52.440973],[13.524081,52.441803],[13.523889,52.441842],[13.522562,52.441102],[13.521439,52.441865],[13.521345,52.441813],[13.522025,52.441352],[13.521762,52.441208],[13.525564,52.438635],[13.525493,52.438599],[13.526666,52.437744],[13.526645,52.437732]],[[13.518532,52.432751],[13.518979,52.43301],[13.521563,52.431342],[13.521807,52.431123],[13.518827,52.431174],[13.518338,52.432639],[13.518532,52.432751]],[[13.521281,52.433617],[13.519785,52.432751],[13.519192,52.433134],[13.520688,52.433999],[13.521281,52.433617]],[[13.520088,52.432556],[13.520836,52.432989],[13.521138,52.432793],[13.520391,52.43236],[13.520088,52.432556]],[[13.529026,52.434221],[13.528975,52.434192],[13.529038,52.434151],[13.528925,52.434085],[13.528577,52.43431],[13.528538,52.434288],[13.52829,52.434448],[13.528453,52.434528],[13.52853,52.434478],[13.528582,52.434508],[13.529026,52.434221]],[[13.520902,52.434123],[13.520937,52.434143],[13.520935,52.434102],[13.520902,52.434123]]],[[[13.538323,52.43452],[13.538759,52.434227],[13.537505,52.433433],[13.537737,52.433296],[13.537629,52.433227],[13.537862,52.43309],[13.538075,52.433226],[13.538036,52.433249],[13.53917,52.433966],[13.540765,52.432952],[13.539726,52.432293],[13.53938,52.432497],[13.538912,52.4322],[13.538566,52.432404],[13.539342,52.432897],[13.538834,52.433197],[13.538429,52.432941],[13.538467,52.432918],[13.538135,52.432709],[13.538374,52.432568],[13.538214,52.432466],[13.537906,52.432649],[13.53749,52.432386],[13.537006,52.432671],[13.537422,52.432935],[13.537058,52.43315],[13.53661,52.432867],[13.540673,52.430469],[13.541814,52.429779],[13.54655,52.426424],[13.548515,52.427649],[13.548449,52.427693],[13.547062,52.426835],[13.547167,52.427452],[13.547166,52.427681],[13.547129,52.427841],[13.547727,52.428172],[13.546036,52.429295],[13.545797,52.42917],[13.545749,52.429204],[13.545335,52.429684],[13.545271,52.429877],[13.545363,52.429926],[13.545266,52.430462],[13.54523,52.430529],[13.543729,52.431482],[13.542924,52.431009],[13.540966,52.43221],[13.542039,52.432839],[13.54396,52.431618],[13.544436,52.431901],[13.544307,52.432017],[13.543621,52.432534],[13.543627,52.432515],[13.543514,52.432335],[13.543355,52.432261],[13.543172,52.432237],[13.543099,52.432243],[13.542992,52.432266],[13.542904,52.432308],[13.542852,52.432343],[13.542784,52.43245],[13.542831,52.432754],[13.542803,52.432907],[13.542721,52.432958],[13.542655,52.433071],[13.542573,52.433151],[13.542307,52.433357],[13.542107,52.43347],[13.541823,52.433594],[13.541786,52.433639],[13.541517,52.433468],[13.541549,52.433449],[13.540989,52.433095],[13.539914,52.433778],[13.540865,52.434338],[13.540708,52.434455],[13.540676,52.434489],[13.540698,52.434502],[13.540387,52.434629],[13.540266,52.434701],[13.540184,52.434814],[13.540357,52.43488],[13.540217,52.434984],[13.540252,52.434998],[13.54032,52.434993],[13.540272,52.435025],[13.540097,52.435067],[13.539961,52.435163],[13.538553,52.434646],[13.538538,52.434656],[13.538323,52.43452]]],[[[13.53637,52.43103],[13.537816,52.431944],[13.540928,52.430109],[13.541968,52.429432],[13.539109,52.42799],[13.53659,52.426613],[13.536032,52.426644],[13.535847,52.426474],[13.53597,52.426389],[13.535942,52.426198],[13.536557,52.426164],[13.536587,52.42636],[13.536615,52.426397],[13.539296,52.427861],[13.541758,52.426166],[13.541716,52.42588],[13.5428,52.425747],[13.542685,52.425826],[13.544025,52.425752],[13.544551,52.425837],[13.54529,52.42602],[13.544437,52.426768],[13.543425,52.426239],[13.54322,52.426159],[13.543066,52.426127],[13.542865,52.426112],[13.542081,52.426153],[13.542093,52.426234],[13.542868,52.426193],[13.543049,52.426208],[13.543186,52.426239],[13.543339,52.426301],[13.544184,52.426742],[13.543225,52.427403],[13.544124,52.427891],[13.544476,52.427639],[13.544125,52.427448],[13.544365,52.427276],[13.54472,52.427022],[13.545077,52.427209],[13.544669,52.427501],[13.544762,52.427557],[13.541708,52.42972],[13.540668,52.43035],[13.536511,52.432804],[13.534994,52.431844],[13.53637,52.43103]],[[13.541727,52.426783],[13.541486,52.426652],[13.539541,52.42799],[13.54214,52.429309],[13.543971,52.428],[13.541727,52.426783]]],[[[13.517168,52.447806],[13.517219,52.447764],[13.516686,52.447501],[13.517059,52.447249],[13.516495,52.446972],[13.516122,52.447224],[13.514727,52.446539],[13.514718,52.446489],[13.517371,52.444629],[13.517813,52.444872],[13.51811,52.444672],[13.517666,52.444429],[13.518038,52.444176],[13.518489,52.444417],[13.518233,52.444589],[13.519028,52.445023],[13.519749,52.444534],[13.520439,52.444914],[13.520182,52.445068],[13.51988,52.445286],[13.518302,52.446508],[13.518672,52.446705],[13.517326,52.447818],[13.517298,52.447802],[13.517245,52.447846],[13.517168,52.447806]]],[[[13.498265,52.433637],[13.499116,52.433148],[13.500189,52.432619],[13.499993,52.432497],[13.504005,52.430549],[13.504195,52.430667],[13.504143,52.430693],[13.504358,52.430826],[13.504314,52.430847],[13.504405,52.430833],[13.502549,52.431756],[13.502388,52.431861],[13.501457,52.432316],[13.500545,52.43284],[13.502469,52.43403],[13.502516,52.434002],[13.502766,52.434167],[13.50095,52.435261],[13.499195,52.434298],[13.498158,52.4337],[13.498265,52.433637]],[[13.502718,52.43165],[13.503184,52.431416],[13.502952,52.431245],[13.50283,52.431287],[13.502473,52.431468],[13.502718,52.43165]]],[[[13.519894,52.442404],[13.519947,52.442434],[13.518761,52.443239],[13.518708,52.44321],[13.519102,52.442928],[13.517198,52.441896],[13.518215,52.441192],[13.51986,52.442079],[13.519612,52.442247],[13.519894,52.442404]]],[[[13.519082,52.444166],[13.518513,52.443853],[13.521439,52.441865],[13.522053,52.442205],[13.519156,52.444166],[13.519082,52.444166]]],[[[13.535622,52.434012],[13.537464,52.435076],[13.53658,52.435647],[13.534739,52.434582],[13.535622,52.434012]]],[[[13.53655,52.433398],[13.538323,52.43452],[13.537666,52.434945],[13.535813,52.433875],[13.53655,52.433398]]],[[[13.514523,52.43143],[13.515382,52.430841],[13.515434,52.430835],[13.515641,52.430906],[13.51583,52.431323],[13.51581,52.431357],[13.51433,52.432372],[13.514173,52.432479],[13.514131,52.432481],[13.513517,52.432146],[13.513515,52.43212],[13.514523,52.43143]]],[[[13.534235,52.435368],[13.533944,52.435556],[13.533328,52.4352],[13.53307,52.435367],[13.532702,52.435154],[13.533929,52.434361],[13.534912,52.43493],[13.534235,52.435368]]],[[[13.513008,52.433278],[13.512852,52.433385],[13.512802,52.4334],[13.511746,52.433433],[13.511685,52.433401],[13.511683,52.433376],[13.513211,52.432328],[13.513253,52.432327],[13.513867,52.432662],[13.51387,52.432687],[13.513008,52.433278]]],[[[13.52584,52.43533],[13.527018,52.436012],[13.525913,52.436727],[13.52567,52.436586],[13.525626,52.435469],[13.52584,52.43533]]],[[[13.52648,52.433706],[13.527631,52.432962],[13.528399,52.433407],[13.527251,52.434152],[13.52648,52.433706]]],[[[13.527009,52.434309],[13.52625,52.434802],[13.526009,52.434663],[13.525992,52.434221],[13.525828,52.434126],[13.526272,52.43384],[13.527044,52.434286],[13.527009,52.434309]]],[[[13.528078,52.434804],[13.528399,52.43499],[13.527792,52.435381],[13.527899,52.435443],[13.52722,52.435882],[13.526793,52.435635],[13.528078,52.434804]]],[[[13.536081,52.43597],[13.535465,52.436368],[13.53503,52.436117],[13.535645,52.435718],[13.536081,52.43597]]],[[[13.526602,52.426711],[13.526479,52.426288],[13.526624,52.42628],[13.526737,52.426704],[13.52684,52.426698],[13.527039,52.428212],[13.526602,52.426711]]],[[[13.525546,52.433419],[13.526167,52.433779],[13.525575,52.434162],[13.525546,52.433419]]],[[[13.524217,52.428266],[13.52393,52.42821],[13.523987,52.42784],[13.524279,52.427857],[13.524217,52.428266]]],[[[13.541928,52.433785],[13.541951,52.433797],[13.541912,52.433877],[13.541845,52.433924],[13.541789,52.433894],[13.541654,52.433988],[13.541711,52.434018],[13.541621,52.434081],[13.541492,52.434116],[13.540853,52.434588],[13.540793,52.434555],[13.541868,52.433752],[13.541928,52.433785]]],[[[13.507713,52.442005],[13.507758,52.442007],[13.507905,52.442201],[13.508065,52.442349],[13.508224,52.442464],[13.508208,52.442483],[13.507893,52.442361],[13.507766,52.442264],[13.507704,52.442133],[13.507713,52.442005]]],[[[13.530147,52.440216],[13.530196,52.440244],[13.52933,52.440661],[13.530071,52.440172],[13.530147,52.440216]]],[[[13.511293,52.43197],[13.511355,52.431991],[13.511075,52.432292],[13.511005,52.432268],[13.511293,52.43197]]],[[[13.51737,52.444629],[13.517339,52.444612],[13.517636,52.444412],[13.517666,52.444428],[13.51737,52.444629]]]]}},{"type":"Feature","id":13,"properties":{"gisid":"E0902a","name":"Ehemaliger Güterbahnhof Köpenick","bezirk":"Treptow-Köpenick","f_in_kraft":"27.05.2020","f_gvbl":"2020, Nr. 23, Seiten 327-331","e_in_kraft":"26.06.2022","e_gvbl":"2022, Nr. 33, Seiten 380-384","status":"Aus dem Entwicklungsrecht entlassen"},"geometry":{"type":"MultiPolygon","coordinates":[[[[13.579649,52.458753],[13.579487,52.458569],[13.579456,52.458477],[13.580079,52.458391],[13.580073,52.458368],[13.580897,52.458285],[13.581628,52.458255],[13.58203,52.45826],[13.582038,52.458163],[13.582557,52.458169],[13.582546,52.458063],[13.582727,52.458056],[13.582737,52.458168],[13.583416,52.458146],[13.583749,52.4581],[13.584763,52.457909],[13.585217,52.457851],[13.596895,52.457496],[13.600829,52.45769],[13.600832,52.457526],[13.600957,52.457535],[13.600958,52.457737],[13.601233,52.457749],[13.601232,52.457715],[13.601445,52.457707],[13.601452,52.457746],[13.602222,52.457713],[13.602242,52.458045],[13.603253,52.458013],[13.603269,52.458066],[13.603393,52.458117],[13.603354,52.458119],[13.603361,52.458149],[13.601418,52.458219],[13.601139,52.458177],[13.601086,52.458122],[13.600007,52.458177],[13.599141,52.458258],[13.597158,52.458497],[13.596252,52.458583],[13.596222,52.458547],[13.594962,52.458608],[13.591681,52.458704],[13.590723,52.458718],[13.589737,52.458698],[13.586573,52.458583],[13.585689,52.458565],[13.585689,52.458583],[13.585569,52.458582],[13.585569,52.458563],[13.58502,52.458562],[13.582563,52.458631],[13.580209,52.458821],[13.580203,52.458796],[13.579734,52.458834],[13.579649,52.458753]]],[[[13.593024,52.45436],[13.593244,52.453892],[13.5936,52.453953],[13.593653,52.45398],[13.593667,52.454272],[13.59375,52.454488],[13.593024,52.45436]]],[[[13.608126,52.457886],[13.608127,52.457847],[13.608031,52.45788],[13.607827,52.457873],[13.607829,52.457779],[13.608126,52.457768],[13.608145,52.45797],[13.608124,52.457973],[13.608126,52.457886]]],[[[13.593014,52.455076],[13.592987,52.45507],[13.59302,52.455022],[13.593046,52.455029],[13.593014,52.455076]]]]}},{"type":"Feature","id":14,"properties":{"gisid":"E1001a","name":"Biesdorf-Süd","bezirk":"Marzahn-Hellersdorf","f_in_kraft":"16.01.1994","f_gvbl":"1994, Nr. 02, Seite 32","e_in_kraft":"25.03.2006","e_gvbl":"2006, Nr. 11, Seiten 285-287","status":"Aus dem Entwicklungsrecht entlassen"},"geometry":{"type":"MultiPolygon","coordinates":[[[[13.547454,52.507783],[13.547187,52.507793],[13.547029,52.506303],[13.546912,52.505649],[13.546799,52.505494],[13.546639,52.50536],[13.546455,52.505285],[13.546253,52.505256],[13.546247,52.50522],[13.547289,52.505156],[13.545762,52.50405],[13.545337,52.503645],[13.544966,52.50319],[13.544584,52.503053],[13.544188,52.502775],[13.543918,52.502365],[13.543621,52.50209],[13.543372,52.501819],[13.545187,52.501721],[13.545693,52.501727],[13.546212,52.501764],[13.546303,52.501528],[13.54688,52.500656],[13.549792,52.501372],[13.551077,52.501711],[13.550215,52.502848],[13.5504,52.504661],[13.550015,52.505359],[13.550099,52.506229],[13.54889,52.506276],[13.5479,52.505585],[13.547184,52.505632],[13.548079,52.506308],[13.549767,52.50752],[13.549928,52.50755],[13.550513,52.50753],[13.550529,52.507665],[13.547454,52.507783]]],[[[13.564007,52.507645],[13.564148,52.50778],[13.564281,52.507877],[13.563754,52.508073],[13.56488,52.508958],[13.565254,52.508778],[13.566497,52.509601],[13.566793,52.509843],[13.567421,52.510274],[13.566453,52.510883],[13.56649,52.511314],[13.563972,52.511386],[13.563997,52.511693],[13.563654,52.511702],[13.563436,52.511724],[13.563633,52.512536],[13.563643,52.512705],[13.563081,52.512712],[13.562918,52.512681],[13.562616,52.51269],[13.562392,52.511657],[13.562362,52.511353],[13.562271,52.510972],[13.562191,52.510661],[13.562075,52.510369],[13.561589,52.508528],[13.561642,52.508528],[13.561841,52.508468],[13.562658,52.508171],[13.564007,52.507645]]],[[[13.573812,52.500657],[13.573842,52.500616],[13.574124,52.500609],[13.574289,52.500621],[13.574708,52.500693],[13.575344,52.500778],[13.576105,52.500786],[13.576319,52.500808],[13.576767,52.500924],[13.576997,52.501029],[13.577299,52.501227],[13.577437,52.501409],[13.57762,52.501763],[13.577628,52.501907],[13.577423,52.50217],[13.577426,52.502297],[13.577923,52.503416],[13.578283,52.504155],[13.578376,52.504396],[13.578434,52.504563],[13.578482,52.50505],[13.577916,52.505056],[13.577918,52.504776],[13.577851,52.504549],[13.577881,52.504552],[13.5777,52.504109],[13.575071,52.503719],[13.576427,52.501739],[13.575618,52.501519],[13.573338,52.504845],[13.572908,52.504749],[13.572525,52.505297],[13.571961,52.505419],[13.572328,52.504884],[13.571875,52.504778],[13.574091,52.501569],[13.57367,52.501458],[13.573706,52.501406],[13.573351,52.501317],[13.573812,52.500657]]],[[[13.561502,52.503255],[13.561484,52.50305],[13.563048,52.503417],[13.565048,52.504055],[13.565257,52.504151],[13.567352,52.505281],[13.567329,52.505326],[13.563116,52.506477],[13.561656,52.505408],[13.561502,52.503255]],[[13.562613,52.505172],[13.562824,52.505509],[13.564878,52.505034],[13.564841,52.50466],[13.562613,52.505172]],[[13.563826,52.504266],[13.564083,52.50469],[13.564832,52.50452],[13.564788,52.504021],[13.563826,52.504266]],[[13.561876,52.504757],[13.561893,52.504979],[13.562392,52.504861],[13.562515,52.505051],[13.562787,52.504988],[13.562548,52.504592],[13.561876,52.504757]]],[[[13.557019,52.505998],[13.557166,52.507435],[13.552576,52.507609],[13.552363,52.505473],[13.556948,52.505299],[13.557019,52.505998]]]]}},{"type":"Feature","id":15,"properties":{"gisid":"E1001b","name":"Biesdorf-Süd","bezirk":"Marzahn-Hellersdorf","f_in_kraft":"16.01.1994","f_gvbl":"1994, Nr. 02, Seite 32","e_in_kraft":"02.12.2007","e_gvbl":"2007, Nr. 31, Seite 590","status":"Aus dem Entwicklungsrecht entlassen"},"geometry":{"type":"MultiPolygon","coordinates":[[[[13.557019,52.505998],[13.556948,52.505299],[13.552363,52.505473],[13.552253,52.504296],[13.552328,52.503915],[13.552474,52.50354],[13.552696,52.503191],[13.552962,52.502842],[13.553964,52.501796],[13.555449,52.502366],[13.556473,52.502821],[13.557613,52.503386],[13.557824,52.503506],[13.558695,52.504018],[13.559226,52.504392],[13.560034,52.503877],[13.560302,52.503884],[13.560309,52.503966],[13.560637,52.504158],[13.561564,52.50413],[13.561656,52.505408],[13.563116,52.506477],[13.567329,52.505326],[13.567352,52.505281],[13.565257,52.504151],[13.565048,52.504055],[13.563048,52.503417],[13.561487,52.503051],[13.561357,52.501264],[13.563289,52.498075],[13.568204,52.499711],[13.569121,52.498195],[13.569257,52.498347],[13.56945,52.498519],[13.569669,52.49868],[13.56989,52.498815],[13.570314,52.499017],[13.571122,52.499314],[13.571369,52.499463],[13.57154,52.499616],[13.571882,52.500047],[13.57196,52.500126],[13.572156,52.500261],[13.572396,52.500369],[13.572993,52.500555],[13.573373,52.500608],[13.573842,52.500616],[13.573351,52.501317],[13.573706,52.501406],[13.573351,52.501317],[13.569947,52.506263],[13.566513,52.507216],[13.564245,52.507891],[13.564281,52.507877],[13.564148,52.50778],[13.564007,52.507645],[13.562658,52.508171],[13.561642,52.508528],[13.561589,52.508528],[13.561583,52.508501],[13.560757,52.508572],[13.560361,52.508627],[13.560048,52.508585],[13.559963,52.508556],[13.55931,52.508535],[13.552742,52.508993],[13.551418,52.50913],[13.551472,52.50908],[13.551463,52.509034],[13.551503,52.509018],[13.551409,52.508606],[13.551121,52.508138],[13.550806,52.50774],[13.550529,52.507665],[13.550513,52.50753],[13.552562,52.507454],[13.552576,52.507609],[13.557166,52.507435],[13.557019,52.505998]]]]}}]}