{"type":"FeatureCollection","features":[{"type":"Feature","id":0,"properties":{"gisid":"S0151B","schluessel":"S0151B","gebietsname":"Wedding/Müllerstraße","bezirk":"Mitte","verordnung":"12.","f_gvbl_dat":"31.03.2011","f_in_kraft":"01.04.2011","ae_gvbldat":null,"ae_inkraft":null,"verfahren":"umfassend","au_gvbldat":null,"au_inkraft":null,"fl_in_ha":85.3,"status":"Umfassendes Verfahren"},"geometry":{"type":"MultiPolygon","coordinates":[[[[13.35371,52.547233],[13.350551,52.549299],[13.349844,52.549732],[13.343443,52.553364],[13.344829,52.554275],[13.345773,52.554921],[13.34792,52.556327],[13.350145,52.555072],[13.348542,52.553995],[13.348956,52.553767],[13.348243,52.553291],[13.34841,52.553196],[13.348203,52.553057],[13.34909,52.552551],[13.348902,52.552429],[13.349003,52.552372],[13.349254,52.552231],[13.349983,52.552708],[13.350524,52.552404],[13.352538,52.553724],[13.353259,52.553318],[13.350936,52.551782],[13.352279,52.551008],[13.354487,52.552154],[13.360545,52.548672],[13.363231,52.550425],[13.364628,52.549602],[13.361855,52.547865],[13.364465,52.545008],[13.368404,52.544948],[13.368392,52.544679],[13.370041,52.543813],[13.36993,52.543597],[13.370229,52.541286],[13.370405,52.540683],[13.371147,52.540195],[13.371131,52.539959],[13.370903,52.539829],[13.370369,52.539654],[13.367993,52.541149],[13.365929,52.54232],[13.365596,52.542202],[13.365537,52.542219],[13.36416,52.541733],[13.360254,52.544163],[13.358993,52.543757],[13.358506,52.544097],[13.35371,52.547233]]]]}},{"type":"Feature","id":1,"properties":{"gisid":"S0152","schluessel":"S0152","gebietsname":"Turmstraße","bezirk":"Mitte","verordnung":"12.","f_gvbl_dat":"31.03.2011","f_in_kraft":"01.04.2011","ae_gvbldat":null,"ae_inkraft":null,"verfahren":"umfassend","au_gvbldat":null,"au_inkraft":null,"fl_in_ha":92.7,"status":"Umfassendes Verfahren"},"geometry":{"type":"MultiPolygon","coordinates":[[[[13.331708,52.523979],[13.331764,52.523949],[13.331759,52.523925],[13.332074,52.524009],[13.334326,52.524417],[13.334295,52.524128],[13.334846,52.52411],[13.334832,52.523994],[13.33514,52.523979],[13.335151,52.524087],[13.335494,52.524072],[13.335522,52.524348],[13.335717,52.524383],[13.336045,52.524367],[13.336393,52.524571],[13.336804,52.524553],[13.336785,52.524387],[13.33706,52.524408],[13.33705,52.524483],[13.337407,52.524509],[13.337373,52.524682],[13.337695,52.524706],[13.337977,52.524936],[13.338386,52.524965],[13.338419,52.524795],[13.338977,52.524834],[13.338944,52.525005],[13.339264,52.525026],[13.33955,52.525238],[13.340064,52.525272],[13.340094,52.525113],[13.340323,52.525128],[13.340315,52.525083],[13.34117,52.524977],[13.341179,52.525003],[13.341788,52.524928],[13.341833,52.525068],[13.342418,52.52499],[13.342983,52.52501],[13.343466,52.524947],[13.343281,52.524425],[13.34403,52.524327],[13.344165,52.524689],[13.34478,52.524608],[13.344907,52.525003],[13.349327,52.52446],[13.349679,52.524342],[13.351048,52.524169],[13.351141,52.524469],[13.351845,52.526294],[13.355759,52.526587],[13.35353,52.52924],[13.35281,52.52943],[13.352644,52.529627],[13.352475,52.529518],[13.351198,52.529853],[13.35119,52.529893],[13.34765,52.530821],[13.34764,52.530867],[13.34739,52.531048],[13.347334,52.531064],[13.347001,52.531081],[13.346866,52.531027],[13.346683,52.530742],[13.346693,52.530697],[13.343552,52.52911],[13.343484,52.529129],[13.343037,52.529154],[13.343046,52.528219],[13.341181,52.528211],[13.340097,52.528248],[13.331261,52.529086],[13.331717,52.530928],[13.32875,52.531206],[13.328361,52.531206],[13.328408,52.53007],[13.328296,52.530068],[13.328306,52.529798],[13.328419,52.5298],[13.328498,52.527836],[13.328404,52.527834],[13.328343,52.527584],[13.32843,52.527266],[13.327884,52.525885],[13.328188,52.525646],[13.329957,52.525575],[13.329562,52.523974],[13.329475,52.523945],[13.329411,52.523703],[13.32946,52.523642],[13.330125,52.523658],[13.331329,52.523876],[13.331323,52.523909],[13.331708,52.523979]]]]}},{"type":"Feature","id":2,"properties":{"gisid":"S0153","schluessel":"S0153","gebietsname":"Nördliche Luisenstadt","bezirk":"Mitte","verordnung":"12.","f_gvbl_dat":"31.03.2011","f_in_kraft":"01.04.2011","ae_gvbldat":null,"ae_inkraft":null,"verfahren":"umfassend","au_gvbldat":null,"au_inkraft":null,"fl_in_ha":25.2,"status":"Umfassendes Verfahren"},"geometry":{"type":"MultiPolygon","coordinates":[[[[13.416468,52.514081],[13.415519,52.514145],[13.415462,52.514106],[13.415203,52.513993],[13.414989,52.514005],[13.413853,52.513638],[13.413532,52.514011],[13.412249,52.513582],[13.41213,52.513716],[13.414113,52.514377],[13.414122,52.514367],[13.41422,52.514398],[13.414649,52.51444],[13.415049,52.514421],[13.415101,52.51503],[13.415415,52.515014],[13.415322,52.514404],[13.416371,52.514338],[13.416736,52.514292],[13.417121,52.514211],[13.418055,52.51393],[13.421031,52.512948],[13.421487,52.512814],[13.422581,52.512343],[13.423032,52.512117],[13.423083,52.512124],[13.423184,52.512079],[13.423655,52.511809],[13.424503,52.511382],[13.427924,52.50938],[13.427716,52.509249],[13.426885,52.508088],[13.427689,52.507744],[13.427229,52.507097],[13.426956,52.506801],[13.426802,52.506664],[13.426452,52.506415],[13.426283,52.50631],[13.425853,52.506086],[13.420758,52.507484],[13.420877,52.507636],[13.420443,52.507755],[13.420595,52.507967],[13.41945,52.508286],[13.42071,52.510025],[13.420855,52.509988],[13.422492,52.512257],[13.422158,52.512348],[13.420953,52.512799],[13.420473,52.512255],[13.420393,52.512139],[13.42022,52.512146],[13.42034,52.512308],[13.420825,52.512847],[13.42036,52.513013],[13.419972,52.513126],[13.41826,52.51368],[13.418274,52.513711],[13.418138,52.513755],[13.418123,52.513725],[13.418053,52.513746],[13.417931,52.513714],[13.417401,52.513809],[13.417178,52.513862],[13.416999,52.513976],[13.416633,52.514061],[13.416468,52.514081]]]]}},{"type":"Feature","id":3,"properties":{"gisid":"S0154","schluessel":"S0154","gebietsname":"Badstraße/Pankstraße","bezirk":"Mitte","verordnung":"14.","f_gvbl_dat":"24.12.2021","f_in_kraft":"25.12.2021","ae_gvbldat":null,"ae_inkraft":null,"verfahren":"umfassend","au_gvbldat":null,"au_inkraft":null,"fl_in_ha":16.1,"status":"Umfassendes Verfahren"},"geometry":{"type":"MultiPolygon","coordinates":[[[[13.383016,52.548542],[13.380852,52.548971],[13.380446,52.549084],[13.379632,52.549508],[13.379219,52.549771],[13.381946,52.55158],[13.382539,52.55203],[13.382696,52.551965],[13.382692,52.551944],[13.383155,52.551752],[13.385698,52.550206],[13.383444,52.548458],[13.383016,52.548542]]],[[[13.374046,52.543832],[13.373899,52.54361],[13.369938,52.544605],[13.370518,52.545721],[13.37221,52.546775],[13.373782,52.545864],[13.374167,52.545552],[13.374411,52.545453],[13.374498,52.545392],[13.374575,52.545304],[13.374621,52.545145],[13.374536,52.544895],[13.374558,52.54469],[13.374514,52.544499],[13.374046,52.543832]]]]}},{"type":"Feature","id":4,"properties":{"gisid":"S0319","schluessel":"S0319","gebietsname":"Langhansstraße","bezirk":"Pankow","verordnung":"15.","f_gvbl_dat":"24.12.2021","f_in_kraft":"25.12.2021","ae_gvbldat":null,"ae_inkraft":null,"verfahren":"umfassend","au_gvbldat":null,"au_inkraft":null,"fl_in_ha":90.6,"status":"Umfassendes Verfahren"},"geometry":{"type":"MultiPolygon","coordinates":[[[[13.430254,52.554666],[13.429816,52.554676],[13.429365,52.554643],[13.430113,52.551848],[13.429794,52.551129],[13.429856,52.550987],[13.434325,52.549227],[13.435486,52.550556],[13.438722,52.549702],[13.438727,52.549619],[13.438801,52.549557],[13.439225,52.549432],[13.439332,52.549431],[13.439382,52.549462],[13.439416,52.549516],[13.441003,52.549088],[13.44275,52.548661],[13.444936,52.547896],[13.445303,52.548293],[13.444997,52.548399],[13.446326,52.549852],[13.448218,52.549255],[13.449695,52.55098],[13.45388,52.549763],[13.454163,52.54978],[13.455352,52.551243],[13.44958,52.552805],[13.449497,52.553032],[13.44933,52.553164],[13.448915,52.553237],[13.448651,52.553186],[13.448488,52.553098],[13.439732,52.555472],[13.439734,52.555594],[13.439683,52.55569],[13.439541,52.555802],[13.43938,52.555868],[13.439209,52.555895],[13.438998,52.555883],[13.438835,52.55584],[13.438677,52.555754],[13.433397,52.557189],[13.433632,52.55751],[13.433176,52.557992],[13.432965,52.557931],[13.432252,52.557676],[13.432675,52.557252],[13.431606,52.554635],[13.430254,52.554666]]]]}},{"type":"Feature","id":5,"properties":{"gisid":"S0551B","schluessel":"S0551B","gebietsname":"Wilhelmstadt","bezirk":"Spandau","verordnung":"12.","f_gvbl_dat":"31.03.2011","f_in_kraft":"01.04.2011","ae_gvbldat":null,"ae_inkraft":null,"verfahren":"umfassend","au_gvbldat":null,"au_inkraft":null,"fl_in_ha":39.6,"status":"Umfassendes Verfahren"},"geometry":{"type":"MultiPolygon","coordinates":[[[[13.202972,52.522695],[13.203168,52.521051],[13.203115,52.520185],[13.2031,52.520185],[13.203019,52.519231],[13.202877,52.51892],[13.202674,52.518678],[13.20187,52.517992],[13.201561,52.517781],[13.202155,52.51759],[13.20206,52.517375],[13.202059,52.517158],[13.202167,52.517007],[13.202321,52.51689],[13.202569,52.516781],[13.202806,52.516712],[13.203155,52.516636],[13.203686,52.516584],[13.204176,52.51661],[13.204326,52.516965],[13.20431,52.517007],[13.204742,52.516899],[13.205235,52.518042],[13.205258,52.518157],[13.205227,52.518489],[13.205505,52.519001],[13.205593,52.519499],[13.205639,52.520252],[13.205581,52.520978],[13.205574,52.52102],[13.205294,52.521248],[13.20536,52.521286],[13.204937,52.521641],[13.204305,52.523159],[13.204413,52.52382],[13.204274,52.524002],[13.202437,52.525979],[13.201472,52.526921],[13.201454,52.526915],[13.200962,52.527655],[13.200065,52.528653],[13.199807,52.529002],[13.199541,52.529425],[13.196269,52.52966],[13.196413,52.530013],[13.196601,52.530322],[13.195918,52.530373],[13.195828,52.530236],[13.195868,52.530226],[13.195402,52.529262],[13.194126,52.529028],[13.194285,52.52871],[13.193986,52.52811],[13.194817,52.527898],[13.195564,52.52767],[13.195776,52.527174],[13.196168,52.527242],[13.198081,52.525629],[13.199486,52.524776],[13.199788,52.524653],[13.200165,52.524559],[13.200216,52.523988],[13.201469,52.524203],[13.2023,52.523826],[13.202246,52.52367],[13.202295,52.523481],[13.202855,52.523556],[13.202911,52.523265],[13.202972,52.522695]]],[[[13.197143,52.522732],[13.197557,52.522737],[13.19768,52.521839],[13.197683,52.52114],[13.19416,52.521107],[13.194163,52.521675],[13.194542,52.522698],[13.197143,52.522732]]],[[[13.200912,52.532387],[13.202027,52.533304],[13.201954,52.533249],[13.200645,52.533669],[13.200588,52.533751],[13.200536,52.533675],[13.200782,52.533573],[13.199468,52.533929],[13.199085,52.5333],[13.199057,52.533189],[13.1991,52.53309],[13.199197,52.533018],[13.199827,52.532788],[13.200295,52.53267],[13.200912,52.532387]]]]}},{"type":"Feature","id":6,"properties":{"gisid":"S0851B","schluessel":"S0851B","gebietsname":"Karl-Marx-Straße/Sonnenallee","bezirk":"Neukölln","verordnung":"12.","f_gvbl_dat":"31.03.2011","f_in_kraft":"01.04.2011","ae_gvbldat":null,"ae_inkraft":null,"verfahren":"umfassend","au_gvbldat":null,"au_inkraft":null,"fl_in_ha":52.1,"status":"Umfassendes Verfahren"},"geometry":{"type":"MultiPolygon","coordinates":[[[[13.432258,52.483874],[13.432433,52.484007],[13.43462,52.482998],[13.437828,52.481341],[13.43814,52.48121],[13.43812,52.481167],[13.439149,52.48053],[13.439447,52.480401],[13.439427,52.480357],[13.439594,52.480254],[13.439681,52.480074],[13.439843,52.480103],[13.440118,52.479526],[13.440619,52.479615],[13.440917,52.479458],[13.441302,52.479191],[13.442135,52.478672],[13.441921,52.478561],[13.439533,52.478096],[13.439524,52.47807],[13.440338,52.477605],[13.442038,52.476675],[13.442103,52.476677],[13.44468,52.475107],[13.4447,52.47492],[13.445185,52.474284],[13.445397,52.474107],[13.444764,52.474061],[13.443489,52.473998],[13.443442,52.474021],[13.442483,52.473889],[13.440993,52.473374],[13.440485,52.473246],[13.438742,52.472726],[13.437985,52.472634],[13.437826,52.473105],[13.437753,52.473125],[13.437069,52.472884],[13.437328,52.474425],[13.437612,52.474652],[13.437064,52.476249],[13.436838,52.476223],[13.436155,52.478158],[13.43607,52.478149],[13.436126,52.478202],[13.43597,52.478635],[13.435882,52.47867],[13.435954,52.478679],[13.436287,52.478904],[13.436107,52.479379],[13.431378,52.478789],[13.431328,52.478939],[13.429922,52.478762],[13.429805,52.479109],[13.428637,52.478962],[13.428213,52.480224],[13.431805,52.480726],[13.431561,52.481499],[13.43122,52.481459],[13.431109,52.48162],[13.431126,52.481678],[13.429402,52.48222],[13.429253,52.48215],[13.428929,52.482254],[13.428855,52.482466],[13.428813,52.482855],[13.429103,52.482762],[13.42922,52.482767],[13.430015,52.482866],[13.430008,52.482971],[13.430279,52.483007],[13.430322,52.482885],[13.430932,52.482963],[13.431102,52.483103],[13.431474,52.483279],[13.432258,52.483874]]]]}},{"type":"Feature","id":7,"properties":{"gisid":"S1151","schluessel":"S1151","gebietsname":"Frankfurter Allee Nord","bezirk":"Lichtenberg","verordnung":"12.","f_gvbl_dat":"31.03.2011","f_in_kraft":"01.04.2011","ae_gvbldat":null,"ae_inkraft":null,"verfahren":"umfassend","au_gvbldat":null,"au_inkraft":null,"fl_in_ha":25.9,"status":"Umfassendes Verfahren"},"geometry":{"type":"MultiPolygon","coordinates":[[[[13.496271,52.514065],[13.497099,52.513983],[13.49668,52.512398],[13.496409,52.512424],[13.496343,52.512297],[13.495772,52.512307],[13.495504,52.512333],[13.495558,52.512364],[13.49563,52.512373],[13.495693,52.512601],[13.495583,52.512622],[13.495457,52.512566],[13.495396,52.512559],[13.495105,52.512585],[13.495144,52.512733],[13.494448,52.512801],[13.49459,52.513338],[13.493812,52.513417],[13.493817,52.513434],[13.493582,52.513458],[13.493577,52.51344],[13.493147,52.513484],[13.493134,52.513435],[13.493103,52.513438],[13.492994,52.51302],[13.494148,52.512905],[13.493949,52.512153],[13.493895,52.512158],[13.493818,52.51188],[13.495805,52.511723],[13.496027,52.511728],[13.497776,52.511555],[13.498295,52.511516],[13.498362,52.511538],[13.498382,52.511613],[13.501889,52.512994],[13.502563,52.513221],[13.503926,52.513632],[13.505343,52.513985],[13.505873,52.514092],[13.505785,52.514255],[13.505948,52.514869],[13.505307,52.514933],[13.505247,52.514702],[13.505007,52.514726],[13.504902,52.514327],[13.504754,52.514291],[13.504775,52.514259],[13.504535,52.514199],[13.504299,52.514222],[13.504258,52.514067],[13.503921,52.514032],[13.503547,52.514069],[13.503512,52.513936],[13.503427,52.513899],[13.501867,52.514037],[13.501654,52.513316],[13.501467,52.513332],[13.501384,52.513254],[13.501094,52.51328],[13.50104,52.513075],[13.500686,52.512991],[13.500123,52.513048],[13.50009,52.512906],[13.499713,52.512557],[13.499411,52.512586],[13.499114,52.51254],[13.498533,52.512597],[13.498725,52.513282],[13.498917,52.513265],[13.498956,52.513408],[13.498764,52.513428],[13.498796,52.513563],[13.498681,52.513574],[13.498604,52.513644],[13.498737,52.514258],[13.498977,52.514233],[13.499,52.514321],[13.499193,52.514302],[13.499239,52.514479],[13.499043,52.5145],[13.499254,52.515296],[13.49901,52.515321],[13.499075,52.515551],[13.496723,52.515782],[13.496271,52.514065]]],[[[13.483345,52.514196],[13.483021,52.513072],[13.484227,52.51295],[13.484265,52.512965],[13.484259,52.51294],[13.488086,52.512558],[13.488811,52.515312],[13.48766,52.515514],[13.485233,52.515747],[13.484931,52.514548],[13.482977,52.514763],[13.482835,52.514246],[13.483345,52.514196]]],[[[13.500963,52.517963],[13.500545,52.517984],[13.499407,52.518098],[13.499328,52.517817],[13.500689,52.517687],[13.500151,52.515644],[13.50202,52.51546],[13.502479,52.517172],[13.502533,52.518098],[13.50249,52.518115],[13.502166,52.518096],[13.501469,52.517986],[13.500963,52.517963]]]]}},{"type":"Feature","id":8,"properties":{"gisid":"S1509B","schluessel":"S1509B","gebietsname":"Niederschöneweide","bezirk":"Treptow-Köpenick","verordnung":"10.","f_gvbl_dat":"03.12.1994","f_in_kraft":"04.12.1994","ae_gvbldat":"02.03.2022","ae_inkraft":"03.03.2022","verfahren":"umfassend","au_gvbldat":null,"au_inkraft":null,"fl_in_ha":7.4,"status":"Umfassendes Verfahren"},"geometry":{"type":"MultiPolygon","coordinates":[[[[13.515581,52.456016],[13.516041,52.455848],[13.517711,52.456292],[13.518372,52.456915],[13.517338,52.457281],[13.517168,52.457105],[13.516558,52.457275],[13.516322,52.457361],[13.516924,52.457981],[13.516626,52.458012],[13.515659,52.458165],[13.515133,52.458297],[13.514686,52.458443],[13.513527,52.458941],[13.511983,52.457308],[13.515581,52.456016]]]]}},{"type":"Feature","id":9,"properties":{"gisid":"S0151A","schluessel":"S0151A","gebietsname":"Wedding/Müllerstraße","bezirk":"Mitte","verordnung":"12.","f_gvbl_dat":"31.03.2011","f_in_kraft":"01.04.2011","ae_gvbldat":null,"ae_inkraft":null,"verfahren":"vereinfacht","au_gvbldat":null,"au_inkraft":null,"fl_in_ha":22.9,"status":"Vereinfachtes Verfahren"},"geometry":{"type":"MultiPolygon","coordinates":[[[[13.356797,52.543234],[13.350328,52.541906],[13.350282,52.54181],[13.350191,52.541878],[13.348776,52.541589],[13.348614,52.541472],[13.348264,52.541691],[13.347988,52.543037],[13.348282,52.542818],[13.350724,52.544081],[13.349426,52.545016],[13.35371,52.547233],[13.358506,52.544097],[13.358993,52.543757],[13.35838,52.54356],[13.356797,52.543234]]]]}},{"type":"Feature","id":10,"properties":{"gisid":"S0251","schluessel":"S0251","gebietsname":"Südliche Friedrichstadt","bezirk":"Friedrichshain-Kreuzberg","verordnung":"12.","f_gvbl_dat":"31.03.2011","f_in_kraft":"01.04.2011","ae_gvbldat":null,"ae_inkraft":null,"verfahren":"vereinfacht","au_gvbldat":null,"au_inkraft":null,"fl_in_ha":63.6,"status":"Vereinfachtes Verfahren"},"geometry":{"type":"MultiPolygon","coordinates":[[[[13.395364,52.495952],[13.395418,52.495598],[13.39521,52.495584],[13.395379,52.494646],[13.388142,52.494194],[13.388571,52.494678],[13.388591,52.494672],[13.388711,52.494807],[13.38869,52.494814],[13.389178,52.495365],[13.389198,52.495358],[13.389244,52.495409],[13.389167,52.495436],[13.389189,52.495606],[13.389174,52.495744],[13.389143,52.495893],[13.389067,52.495957],[13.389026,52.496245],[13.389087,52.49628],[13.388765,52.497489],[13.388718,52.497519],[13.388601,52.498035],[13.388468,52.49831],[13.388522,52.498321],[13.388536,52.498348],[13.388349,52.49905],[13.3885,52.499108],[13.388516,52.499617],[13.388543,52.499591],[13.388629,52.499603],[13.388628,52.499625],[13.38865,52.499626],[13.388556,52.500531],[13.388427,52.501466],[13.388378,52.50161],[13.387759,52.502802],[13.388052,52.502918],[13.388756,52.503054],[13.391219,52.503207],[13.391048,52.504269],[13.391615,52.504314],[13.39156,52.504651],[13.394877,52.504875],[13.395002,52.504089],[13.395744,52.504133],[13.396744,52.50551],[13.397242,52.505391],[13.399623,52.50469],[13.396927,52.499717],[13.396012,52.498571],[13.396033,52.498498],[13.396125,52.498462],[13.395894,52.498423],[13.395896,52.497977],[13.395832,52.497981],[13.395798,52.497749],[13.395805,52.497498],[13.395574,52.497063],[13.395458,52.496756],[13.39551,52.496778],[13.396135,52.496721],[13.397005,52.496608],[13.39654,52.496057],[13.395994,52.496202],[13.395771,52.496277],[13.39541,52.495973],[13.395364,52.495952]]],[[[13.386063,52.504281],[13.386903,52.504442],[13.387027,52.504206],[13.385243,52.503867],[13.385119,52.504101],[13.386063,52.504281]]]]}},{"type":"Feature","id":11,"properties":{"gisid":"S0551A","schluessel":"S0551A","gebietsname":"Wilhelmstadt","bezirk":"Spandau","verordnung":"12.","f_gvbl_dat":"31.03.2011","f_in_kraft":"01.04.2011","ae_gvbldat":null,"ae_inkraft":null,"verfahren":"vereinfacht","au_gvbldat":null,"au_inkraft":null,"fl_in_ha":63.7,"status":"Vereinfachtes Verfahren"},"geometry":{"type":"MultiPolygon","coordinates":[[[[13.187958,52.521344],[13.188273,52.52155],[13.188559,52.521707],[13.189586,52.522195],[13.189652,52.52224],[13.189694,52.5223],[13.190301,52.522727],[13.190369,52.522736],[13.190517,52.522849],[13.190522,52.522892],[13.191363,52.523537],[13.19021,52.523851],[13.190419,52.524184],[13.190311,52.524212],[13.19202,52.526563],[13.19241,52.526453],[13.192502,52.526576],[13.194023,52.526156],[13.194248,52.526561],[13.194817,52.527898],[13.195564,52.52767],[13.195776,52.527174],[13.196168,52.527242],[13.198081,52.525629],[13.199486,52.524776],[13.199788,52.524653],[13.200165,52.524559],[13.200216,52.523988],[13.201469,52.524203],[13.2023,52.523826],[13.202246,52.52367],[13.202295,52.523481],[13.202855,52.523556],[13.202911,52.523265],[13.202972,52.522695],[13.198013,52.521894],[13.197989,52.521874],[13.197984,52.520914],[13.198131,52.520916],[13.198094,52.518791],[13.198023,52.517575],[13.19776,52.51633],[13.196995,52.516369],[13.197008,52.516566],[13.196772,52.516569],[13.196814,52.516753],[13.196505,52.516753],[13.196686,52.517644],[13.196705,52.517848],[13.196895,52.517849],[13.196892,52.518111],[13.197026,52.518112],[13.197035,52.518519],[13.196811,52.518523],[13.196808,52.519016],[13.19689,52.519017],[13.196895,52.519391],[13.194221,52.519366],[13.194147,52.519321],[13.194148,52.519366],[13.194043,52.519365],[13.194043,52.519339],[13.192605,52.519316],[13.186674,52.519267],[13.186817,52.519867],[13.186989,52.520295],[13.18769,52.521061],[13.187756,52.521191],[13.187958,52.521344]],[[13.197143,52.522732],[13.197557,52.522737],[13.19768,52.521839],[13.197683,52.52114],[13.19416,52.521107],[13.194163,52.521675],[13.194542,52.522698],[13.197143,52.522732]]],[[[13.19645,52.530083],[13.196269,52.52966],[13.199541,52.529425],[13.199411,52.529775],[13.199365,52.530151],[13.199424,52.530527],[13.199569,52.530929],[13.199712,52.531174],[13.200113,52.531665],[13.200514,52.532057],[13.200912,52.532387],[13.200295,52.53267],[13.199827,52.532788],[13.199238,52.533001],[13.199136,52.533056],[13.199078,52.533122],[13.199059,52.533221],[13.199114,52.533363],[13.199921,52.534666],[13.199389,52.53505],[13.199296,52.535015],[13.198836,52.535067],[13.198409,52.535082],[13.197911,52.53514],[13.197762,52.534842],[13.199165,52.534566],[13.198609,52.533658],[13.197963,52.53278],[13.197927,52.532832],[13.197509,52.532915],[13.197474,52.53285],[13.197502,52.532844],[13.19739,52.532638],[13.196971,52.532722],[13.19688,52.532555],[13.197169,52.532497],[13.197032,52.532247],[13.197431,52.532167],[13.197289,52.531996],[13.196902,52.532075],[13.196752,52.5318],[13.196693,52.531811],[13.196557,52.531527],[13.196853,52.531474],[13.196813,52.531425],[13.196711,52.531303],[13.19646,52.531349],[13.1963,52.531169],[13.196179,52.531147],[13.195922,52.530866],[13.195846,52.530885],[13.195584,52.530486],[13.195918,52.530373],[13.196601,52.530322],[13.19645,52.530083]]]]}},{"type":"Feature","id":12,"properties":{"gisid":"S0851A","schluessel":"S0851A","gebietsname":"Karl-Marx-Straße/Sonnenallee","bezirk":"Neukölln","verordnung":"12.","f_gvbl_dat":"31.03.2011","f_in_kraft":"01.04.2011","ae_gvbldat":null,"ae_inkraft":null,"verfahren":"vereinfacht","au_gvbldat":null,"au_inkraft":null,"fl_in_ha":68.4,"status":"Vereinfachtes Verfahren"},"geometry":{"type":"MultiPolygon","coordinates":[[[[13.432258,52.483874],[13.432433,52.484007],[13.43462,52.482998],[13.437828,52.481341],[13.43814,52.48121],[13.43812,52.481167],[13.439149,52.48053],[13.439447,52.480401],[13.439427,52.480357],[13.439594,52.480254],[13.439681,52.480074],[13.439843,52.480103],[13.440118,52.479526],[13.440619,52.479615],[13.440419,52.480097],[13.441395,52.480245],[13.441945,52.479949],[13.442453,52.480335],[13.442709,52.480602],[13.442983,52.480466],[13.447418,52.483833],[13.447204,52.483943],[13.446995,52.483784],[13.447087,52.483738],[13.446868,52.483571],[13.441167,52.48649],[13.440907,52.486651],[13.440574,52.486909],[13.440281,52.487211],[13.439984,52.487686],[13.43934,52.489437],[13.439694,52.489484],[13.439799,52.489173],[13.440448,52.489281],[13.440628,52.489411],[13.439657,52.489909],[13.439634,52.489695],[13.439616,52.489693],[13.439628,52.489659],[13.439264,52.48961],[13.439253,52.489644],[13.438842,52.489589],[13.438167,52.490139],[13.436642,52.490631],[13.435945,52.48991],[13.435281,52.49013],[13.435168,52.490014],[13.435094,52.490012],[13.434716,52.489676],[13.435002,52.489559],[13.433591,52.4881],[13.433435,52.488156],[13.433294,52.488012],[13.433269,52.488021],[13.432491,52.487219],[13.43179,52.487462],[13.430535,52.486165],[13.430231,52.48592],[13.429964,52.485645],[13.429696,52.485702],[13.429366,52.485821],[13.429365,52.485808],[13.429083,52.485814],[13.429052,52.485271],[13.429113,52.485307],[13.429602,52.485302],[13.432258,52.483874]]]]}},{"type":"Feature","id":13,"properties":{"gisid":"S1509A","schluessel":"S1509A","gebietsname":"Niederschöneweide","bezirk":"Treptow-Köpenick","verordnung":"10.","f_gvbl_dat":"03.12.1994","f_in_kraft":"04.12.1994","ae_gvbldat":"02.03.2022","ae_inkraft":"03.03.2022","verfahren":"vereinfacht","au_gvbldat":null,"au_inkraft":null,"fl_in_ha":4.1,"status":"Vereinfachtes Verfahren"},"geometry":{"type":"MultiPolygon","coordinates":[[[[13.50611,52.459296],[13.50495,52.460077],[13.505717,52.460497],[13.507616,52.461463],[13.508161,52.46129],[13.509534,52.460741],[13.508815,52.460288],[13.506535,52.459005],[13.50611,52.459296]]]]}},{"type":"Feature","id":14,"properties":{"gisid":"S0110","schluessel":"S0110","gebietsname":"Spandauer Vorstadt","bezirk":"Mitte","verordnung":"09.","f_gvbl_dat":"08.10.1993","f_in_kraft":"09.10.1993","ae_gvbldat":null,"ae_inkraft":null,"verfahren":null,"au_gvbldat":"09.02.2008","au_inkraft":"10.02.2008","fl_in_ha":67.1,"status":"Aufgehoben (ab 2002)"},"geometry":{"type":"MultiPolygon","coordinates":[[[[13.387429,52.526404],[13.389021,52.526501],[13.396351,52.528484],[13.397984,52.528905],[13.403117,52.529059],[13.403323,52.529051],[13.408459,52.528424],[13.40928,52.528342],[13.409582,52.528137],[13.408079,52.524555],[13.407992,52.524403],[13.407499,52.523738],[13.407353,52.523483],[13.407216,52.523331],[13.406654,52.523408],[13.406081,52.523434],[13.405722,52.523427],[13.404906,52.523335],[13.404501,52.523254],[13.403845,52.523092],[13.403823,52.523086],[13.403836,52.523072],[13.403565,52.523001],[13.403,52.522881],[13.402978,52.522918],[13.402174,52.522727],[13.400917,52.522506],[13.400539,52.522297],[13.400503,52.522299],[13.400359,52.522569],[13.40025,52.522834],[13.398902,52.523356],[13.39888,52.523381],[13.398891,52.523405],[13.398819,52.523442],[13.398795,52.523479],[13.398705,52.523329],[13.395772,52.52413],[13.394011,52.524552],[13.387527,52.526154],[13.387494,52.526137],[13.387399,52.526402],[13.387429,52.526404]]]]}},{"type":"Feature","id":15,"properties":{"gisid":"S0111","schluessel":"S0111","gebietsname":"Rosenthaler Vorstadt","bezirk":"Mitte","verordnung":"10.","f_gvbl_dat":"03.12.1994","f_in_kraft":"04.12.1994","ae_gvbldat":null,"ae_inkraft":null,"verfahren":null,"au_gvbldat":"27.01.2009","au_inkraft":"28.01.2009","fl_in_ha":37.6,"status":"Aufgehoben (ab 2002)"},"geometry":{"type":"MultiPolygon","coordinates":[[[[13.394396,52.537667],[13.395859,52.538084],[13.396423,52.537374],[13.39647,52.537387],[13.396427,52.537444],[13.399456,52.538296],[13.400778,52.536561],[13.399349,52.535224],[13.399373,52.535024],[13.402736,52.533643],[13.402675,52.53359],[13.399094,52.532747],[13.398621,52.53265],[13.398762,52.532458],[13.400923,52.529932],[13.400754,52.529735],[13.397639,52.529564],[13.397358,52.529526],[13.395789,52.529148],[13.394217,52.532134],[13.394067,52.532289],[13.395053,52.533139],[13.39321,52.534069],[13.393505,52.534331],[13.394957,52.534666],[13.392669,52.536007],[13.394359,52.536514],[13.393517,52.537419],[13.394396,52.537667]]]]}},{"type":"Feature","id":16,"properties":{"gisid":"S0211","schluessel":"S0211","gebietsname":"Beusselstraße","bezirk":"Mitte","verordnung":"10.","f_gvbl_dat":"03.12.1994","f_in_kraft":"04.12.1994","ae_gvbldat":null,"ae_inkraft":null,"verfahren":null,"au_gvbldat":"20.02.2007","au_inkraft":"21.02.2007","fl_in_ha":10.6,"status":"Aufgehoben (ab 2002)"},"geometry":{"type":"MultiPolygon","coordinates":[[[[13.328296,52.530068],[13.327617,52.530059],[13.327633,52.529654],[13.326843,52.529649],[13.326561,52.529704],[13.325766,52.529694],[13.325744,52.530364],[13.326533,52.530375],[13.326821,52.530192],[13.327614,52.530195],[13.327599,52.530601],[13.327657,52.530602],[13.327646,52.530967],[13.32768,52.531142],[13.327664,52.531512],[13.326488,52.531498],[13.326467,52.532006],[13.324917,52.531983],[13.324935,52.531165],[13.325436,52.531174],[13.325442,52.531027],[13.325537,52.530771],[13.324946,52.530716],[13.324986,52.528871],[13.325784,52.528882],[13.325804,52.528344],[13.325493,52.52834],[13.325363,52.527899],[13.326639,52.527764],[13.326747,52.527444],[13.32655,52.52694],[13.326793,52.526905],[13.3266,52.52641],[13.327727,52.526117],[13.327468,52.525487],[13.326355,52.525779],[13.326052,52.525005],[13.32734,52.524513],[13.328316,52.526978],[13.328092,52.527011],[13.327992,52.526763],[13.327751,52.526789],[13.327986,52.527622],[13.328343,52.527584],[13.328404,52.527834],[13.328498,52.527836],[13.328419,52.5298],[13.328306,52.529798],[13.328296,52.530068]]]]}},{"type":"Feature","id":17,"properties":{"gisid":"S0212","schluessel":"S0212","gebietsname":"Stephankiez","bezirk":"Mitte","verordnung":"11.","f_gvbl_dat":"09.11.1995","f_in_kraft":"10.11.1995","ae_gvbldat":null,"ae_inkraft":null,"verfahren":null,"au_gvbldat":"20.02.2007","au_inkraft":"21.02.2007","fl_in_ha":6.3,"status":"Aufgehoben (ab 2002)"},"geometry":{"type":"MultiPolygon","coordinates":[[[[13.346992,52.53198],[13.346094,52.531983],[13.346091,52.532139],[13.345973,52.532138],[13.345859,52.532223],[13.346058,52.532317],[13.345478,52.532766],[13.343689,52.531903],[13.343707,52.531355],[13.343906,52.531306],[13.34391,52.531017],[13.34416,52.530949],[13.344198,52.530714],[13.344476,52.530712],[13.344476,52.530268],[13.345207,52.530265],[13.345205,52.53113],[13.345237,52.531454],[13.346866,52.531027],[13.347001,52.531081],[13.346992,52.53198]]],[[[13.35066,52.533066],[13.350479,52.533046],[13.350559,52.532806],[13.35078,52.532758],[13.350977,52.532551],[13.350921,52.532343],[13.351056,52.532183],[13.351044,52.532173],[13.351145,52.532076],[13.351147,52.532051],[13.351174,52.532043],[13.351782,52.532236],[13.351911,52.532085],[13.352538,52.532282],[13.352282,52.532585],[13.352049,52.532511],[13.351955,52.532623],[13.352188,52.532697],[13.351913,52.533022],[13.352846,52.533492],[13.352178,52.533988],[13.352458,52.534128],[13.352879,52.533816],[13.353158,52.533956],[13.352915,52.534137],[13.352897,52.534189],[13.352667,52.534165],[13.352661,52.534151],[13.352643,52.534219],[13.352602,52.53425],[13.352555,52.53441],[13.352672,52.534624],[13.352475,52.535288],[13.352111,52.535247],[13.352168,52.535062],[13.352276,52.535077],[13.35243,52.534597],[13.351487,52.534491],[13.351657,52.533989],[13.351483,52.533901],[13.351579,52.533832],[13.351397,52.533702],[13.35122,52.533681],[13.351244,52.533547],[13.35169,52.533217],[13.351033,52.532886],[13.350768,52.533079],[13.35066,52.533066]]],[[[13.348269,52.532931],[13.34839,52.533375],[13.348631,52.53335],[13.348647,52.533413],[13.349132,52.53337],[13.349323,52.533394],[13.349377,52.533227],[13.349565,52.53325],[13.349621,52.533083],[13.349549,52.532796],[13.348281,52.53292],[13.348269,52.532931]]],[[[13.349526,52.53446],[13.349724,52.534484],[13.349568,52.534961],[13.348832,52.534878],[13.348914,52.534606],[13.348996,52.534442],[13.349424,52.534491],[13.349437,52.534449],[13.349526,52.53446]]]]}},{"type":"Feature","id":18,"properties":{"gisid":"S0308","schluessel":"S0308","gebietsname":"Exerzierstraße","bezirk":"Mitte","verordnung":"07.","f_gvbl_dat":"07.02.1985","f_in_kraft":"08.02.1985","ae_gvbldat":null,"ae_inkraft":null,"verfahren":null,"au_gvbldat":"10.09.2003","au_inkraft":"11.09.2003","fl_in_ha":3.5,"status":"Aufgehoben (ab 2002)"},"geometry":{"type":"MultiPolygon","coordinates":[[[[13.371625,52.554589],[13.371493,52.554393],[13.376662,52.55374],[13.376789,52.553851],[13.376582,52.55403],[13.376344,52.553927],[13.376188,52.554056],[13.37611,52.554022],[13.375896,52.554206],[13.375683,52.554115],[13.375286,52.554462],[13.374996,52.554323],[13.374702,52.554577],[13.374588,52.554523],[13.374348,52.55471],[13.374032,52.554568],[13.373911,52.554669],[13.374195,52.554796],[13.374087,52.554887],[13.375085,52.555329],[13.374283,52.556025],[13.373646,52.555746],[13.37367,52.555726],[13.372871,52.555368],[13.372737,52.555475],[13.372341,52.555303],[13.37214,52.555353],[13.371625,52.554589]]]]}},{"type":"Feature","id":19,"properties":{"gisid":"S0309","schluessel":"S0309","gebietsname":"Koloniestraße","bezirk":"Mitte","verordnung":"07.","f_gvbl_dat":"07.02.1985","f_in_kraft":"08.02.1985","ae_gvbldat":null,"ae_inkraft":null,"verfahren":null,"au_gvbldat":"10.09.2003","au_inkraft":"11.09.2003","fl_in_ha":3,"status":"Aufgehoben (ab 2002)"},"geometry":{"type":"MultiPolygon","coordinates":[[[[13.37728,52.559433],[13.377133,52.559467],[13.377152,52.558487],[13.377825,52.558317],[13.377736,52.557999],[13.37716,52.558002],[13.377177,52.55726],[13.377376,52.557263],[13.377376,52.557243],[13.377495,52.557246],[13.377476,52.557123],[13.377768,52.557089],[13.378971,52.559014],[13.378136,52.55924],[13.37728,52.559433]]],[[[13.376716,52.559376],[13.376327,52.559379],[13.374986,52.559535],[13.375599,52.560399],[13.376412,52.560354],[13.376397,52.560659],[13.376836,52.560669],[13.376862,52.560652],[13.37682,52.560492],[13.376726,52.560336],[13.376746,52.559376],[13.376716,52.559376]]]]}},{"type":"Feature","id":20,"properties":{"gisid":"S0310","schluessel":"S0310","gebietsname":"Biesentaler Straße","bezirk":"Mitte","verordnung":"07.","f_gvbl_dat":"07.02.1985","f_in_kraft":"08.02.1985","ae_gvbldat":null,"ae_inkraft":null,"verfahren":null,"au_gvbldat":"08.04.2004","au_inkraft":"09.04.2004","fl_in_ha":4.8,"status":"Aufgehoben (ab 2002)"},"geometry":{"type":"MultiPolygon","coordinates":[[[[13.388869,52.557298],[13.388915,52.557363],[13.386154,52.558172],[13.385233,52.556884],[13.387125,52.556402],[13.387296,52.556629],[13.388196,52.556378],[13.388869,52.557298]]],[[[13.388568,52.556387],[13.389497,52.55766],[13.390551,52.557367],[13.390326,52.55708],[13.391008,52.556889],[13.390672,52.55646],[13.38999,52.556652],[13.389906,52.556544],[13.389768,52.556583],[13.389407,52.556068],[13.388516,52.556318],[13.388568,52.556387]]],[[[13.386414,52.556309],[13.38627,52.556145],[13.386237,52.555961],[13.385697,52.556005],[13.38574,52.556211],[13.385143,52.556471],[13.385151,52.556481],[13.384975,52.556528],[13.385106,52.556709],[13.386454,52.556354],[13.386414,52.556309]]]]}},{"type":"Feature","id":21,"properties":{"gisid":"S0311","schluessel":"S0311","gebietsname":"Stettiner Straße","bezirk":"Mitte","verordnung":"07.","f_gvbl_dat":"07.02.1985","f_in_kraft":"08.02.1985","ae_gvbldat":null,"ae_inkraft":null,"verfahren":null,"au_gvbldat":"08.04.2004","au_inkraft":"09.04.2004","fl_in_ha":7.4,"status":"Aufgehoben (ab 2002)"},"geometry":{"type":"MultiPolygon","coordinates":[[[[13.38981,52.554485],[13.389163,52.554873],[13.388219,52.554345],[13.388923,52.553918],[13.388162,52.553477],[13.387451,52.553916],[13.387278,52.553819],[13.387636,52.553599],[13.38695,52.553213],[13.387053,52.553146],[13.387428,52.553358],[13.387677,52.553194],[13.386956,52.552764],[13.386265,52.553207],[13.385032,52.552276],[13.38561,52.551982],[13.384993,52.551597],[13.38542,52.551338],[13.384699,52.550804],[13.384934,52.55066],[13.387689,52.552686],[13.391687,52.555009],[13.390962,52.555106],[13.389852,52.55446],[13.38981,52.554485]]],[[[13.386754,52.553984],[13.386869,52.553913],[13.389144,52.555184],[13.389027,52.555261],[13.387635,52.555372],[13.387066,52.554609],[13.38691,52.55452],[13.386575,52.554736],[13.38551,52.554143],[13.386028,52.553808],[13.386556,52.554106],[13.386754,52.553984]]],[[[13.38578,52.553164],[13.383825,52.551689],[13.383668,52.551768],[13.383428,52.551589],[13.383155,52.551752],[13.383986,52.552389],[13.383708,52.552534],[13.384552,52.553326],[13.384778,52.553465],[13.385003,52.553332],[13.385294,52.553491],[13.385324,52.553472],[13.385598,52.553642],[13.385774,52.55353],[13.385487,52.553352],[13.38578,52.553164]]]]}},{"type":"Feature","id":22,"properties":{"gisid":"S0312","schluessel":"S0312","gebietsname":"Schulstraße","bezirk":"Mitte","verordnung":"07.","f_gvbl_dat":"07.02.1985","f_in_kraft":"08.02.1985","ae_gvbldat":null,"ae_inkraft":null,"verfahren":null,"au_gvbldat":"08.04.2004","au_inkraft":"09.04.2004","fl_in_ha":8,"status":"Aufgehoben (ab 2002)"},"geometry":{"type":"MultiPolygon","coordinates":[[[[13.362943,52.552229],[13.362956,52.552108],[13.363151,52.552115],[13.363119,52.5524],[13.363612,52.552404],[13.363608,52.552826],[13.364287,52.552828],[13.364359,52.552153],[13.366039,52.552206],[13.36602,52.552415],[13.365933,52.552415],[13.365931,52.552554],[13.365869,52.552554],[13.365868,52.552694],[13.366352,52.552695],[13.366359,52.552679],[13.36645,52.552696],[13.366244,52.553113],[13.365148,52.553109],[13.365148,52.553391],[13.362676,52.553396],[13.362668,52.552823],[13.36311,52.552824],[13.363117,52.5525],[13.362914,52.5525],[13.362943,52.552229]]],[[[13.359858,52.551839],[13.361877,52.551906],[13.36202,52.551251],[13.359849,52.551125],[13.359777,52.551836],[13.359858,52.551839]]],[[[13.358963,52.551981],[13.357591,52.551938],[13.356635,52.552469],[13.357196,52.55276],[13.357722,52.552476],[13.357816,52.552539],[13.357798,52.552742],[13.357899,52.552804],[13.358634,52.552807],[13.358634,52.552442],[13.35901,52.552454],[13.359017,52.551983],[13.358963,52.551981]]],[[[13.362352,52.551529],[13.362355,52.551511],[13.362933,52.551545],[13.362956,52.551308],[13.363148,52.55132],[13.363898,52.550863],[13.364051,52.550964],[13.363436,52.551337],[13.364511,52.551402],[13.364482,52.551687],[13.364732,52.551694],[13.364717,52.551798],[13.364805,52.551803],[13.364791,52.551997],[13.362898,52.551937],[13.362922,52.551656],[13.362331,52.551623],[13.362352,52.551529]]],[[[13.364346,52.549426],[13.364357,52.549433],[13.364837,52.54915],[13.364371,52.548845],[13.364593,52.548711],[13.364424,52.548612],[13.364754,52.548416],[13.364326,52.54815],[13.363291,52.548764],[13.364346,52.549426]]],[[[13.366952,52.547462],[13.366921,52.547461],[13.367006,52.546866],[13.36778,52.546893],[13.368021,52.546853],[13.367997,52.54703],[13.367921,52.547031],[13.367868,52.547402],[13.368285,52.547363],[13.368247,52.547812],[13.367408,52.547767],[13.36739,52.5477],[13.367051,52.547731],[13.366884,52.547722],[13.366901,52.547604],[13.367084,52.547614],[13.367454,52.547582],[13.367463,52.547485],[13.366952,52.547462]]],[[[13.365638,52.548264],[13.364944,52.547833],[13.364944,52.547784],[13.36594,52.547191],[13.366354,52.547457],[13.366642,52.547471],[13.366594,52.54782],[13.365816,52.547778],[13.365744,52.54782],[13.366059,52.548017],[13.365638,52.548264]]],[[[13.365382,52.551591],[13.364451,52.550978],[13.364783,52.550778],[13.364885,52.550837],[13.365079,52.550719],[13.365215,52.550804],[13.365113,52.550865],[13.365445,52.551047],[13.365494,52.551018],[13.365671,52.551125],[13.365592,52.551173],[13.365932,52.551396],[13.365487,52.55166],[13.365382,52.551591]]]]}},{"type":"Feature","id":23,"properties":{"gisid":"S0318","schluessel":"S0318","gebietsname":"Soldiner Straße","bezirk":"Mitte","verordnung":"11.","f_gvbl_dat":"09.11.1995","f_in_kraft":"10.11.1995","ae_gvbldat":null,"ae_inkraft":null,"verfahren":null,"au_gvbldat":"20.02.2007","au_inkraft":"21.02.2007","fl_in_ha":1.9,"status":"Aufgehoben (ab 2002)"},"geometry":{"type":"MultiPolygon","coordinates":[[[[13.380732,52.558385],[13.380723,52.558339],[13.380851,52.558329],[13.381936,52.558099],[13.382341,52.558736],[13.381656,52.558908],[13.381864,52.55919],[13.382144,52.559124],[13.382239,52.559274],[13.382624,52.559181],[13.382834,52.55951],[13.381742,52.559813],[13.38117,52.559031],[13.380903,52.559098],[13.38072,52.558873],[13.380916,52.558843],[13.380756,52.558505],[13.380732,52.558385]]],[[[13.381057,52.55928],[13.381137,52.559388],[13.380894,52.559457],[13.381261,52.559945],[13.380779,52.56008],[13.380607,52.559852],[13.379999,52.559994],[13.379715,52.559539],[13.381024,52.559235],[13.381057,52.55928]]]]}},{"type":"Feature","id":24,"properties":{"gisid":"S0416","schluessel":"S0416","gebietsname":"Helmholtzplatz","bezirk":"Pankow","verordnung":"09.","f_gvbl_dat":"08.10.1993","f_in_kraft":"09.10.1993","ae_gvbldat":null,"ae_inkraft":null,"verfahren":null,"au_gvbldat":"07.02.2015","au_inkraft":"08.02.2015","fl_in_ha":81.9,"status":"Aufgehoben (ab 2002)"},"geometry":{"type":"MultiPolygon","coordinates":[[[[13.416426,52.540167],[13.414772,52.540424],[13.414068,52.540642],[13.412564,52.540885],[13.412518,52.540866],[13.412529,52.54149],[13.412687,52.543485],[13.412867,52.544305],[13.413737,52.547504],[13.414098,52.549606],[13.414447,52.549579],[13.414863,52.549521],[13.416042,52.549275],[13.416508,52.549139],[13.41705,52.549804],[13.417328,52.549728],[13.42035,52.548697],[13.427388,52.545659],[13.426986,52.544624],[13.427117,52.544569],[13.426921,52.544139],[13.426775,52.544191],[13.425689,52.542344],[13.423618,52.542802],[13.423522,52.542774],[13.422998,52.541562],[13.42497,52.54112],[13.423753,52.539033],[13.416426,52.540167]]]]}},{"type":"Feature","id":25,"properties":{"gisid":"S0417","schluessel":"S0417","gebietsname":"Kollwitzplatz","bezirk":"Pankow","verordnung":"09.","f_gvbl_dat":"08.10.1993","f_in_kraft":"09.10.1993","ae_gvbldat":null,"ae_inkraft":null,"verfahren":null,"au_gvbldat":"27.01.2009","au_inkraft":"28.01.2009","fl_in_ha":60.7,"status":"Aufgehoben (ab 2002)"},"geometry":{"type":"MultiPolygon","coordinates":[[[[13.409982,52.529163],[13.409948,52.529118],[13.410092,52.528811],[13.411314,52.528621],[13.415432,52.527463],[13.415809,52.527531],[13.41671,52.528593],[13.416895,52.528785],[13.417052,52.528785],[13.418017,52.529694],[13.418439,52.530189],[13.418314,52.530229],[13.419114,52.531199],[13.423753,52.539033],[13.417783,52.539956],[13.417455,52.538452],[13.417828,52.538432],[13.417786,52.538202],[13.418089,52.538186],[13.418038,52.537791],[13.418307,52.537768],[13.418386,52.537735],[13.418252,52.537558],[13.417656,52.537607],[13.417618,52.537435],[13.418127,52.537392],[13.417882,52.537067],[13.417797,52.536794],[13.417486,52.53683],[13.417101,52.536837],[13.415655,52.53663],[13.416107,52.536144],[13.41606,52.536138],[13.416085,52.536123],[13.416103,52.535519],[13.416087,52.535486],[13.413807,52.533432],[13.413148,52.533382],[13.413004,52.532848],[13.412635,52.53195],[13.412499,52.531223],[13.410999,52.530224],[13.410433,52.529766],[13.409982,52.529163]]],[[[13.416426,52.540167],[13.414772,52.540424],[13.414068,52.540642],[13.412564,52.540885],[13.412518,52.540866],[13.412547,52.539454],[13.412476,52.539452],[13.412501,52.538117],[13.412573,52.538128],[13.412624,52.537903],[13.414994,52.538328],[13.414908,52.538549],[13.415225,52.538574],[13.414939,52.539306],[13.41549,52.539385],[13.4155,52.539129],[13.41646,52.539141],[13.416426,52.540167]]]]}},{"type":"Feature","id":26,"properties":{"gisid":"S0418","schluessel":"S0418","gebietsname":"Teutoburger Platz","bezirk":"Pankow","verordnung":"10.","f_gvbl_dat":"03.12.1994","f_in_kraft":"04.12.1994","ae_gvbldat":null,"ae_inkraft":null,"verfahren":null,"au_gvbldat":"12.03.2013","au_inkraft":"13.03.2013","fl_in_ha":49.8,"status":"Aufgehoben (ab 2002)"},"geometry":{"type":"MultiPolygon","coordinates":[[[[13.411389,52.530486],[13.411064,52.53067],[13.410962,52.530596],[13.410861,52.530646],[13.410713,52.530533],[13.410572,52.530613],[13.408931,52.531146],[13.40822,52.530347],[13.406052,52.530972],[13.406368,52.532085],[13.406424,52.532348],[13.40835,52.534348],[13.407486,52.53469],[13.406918,52.53571],[13.406782,52.536022],[13.407532,52.536731],[13.407092,52.536913],[13.406832,52.537052],[13.406653,52.537375],[13.40648,52.537316],[13.406216,52.537855],[13.405814,52.537784],[13.405462,52.538503],[13.405519,52.538514],[13.404705,52.540188],[13.404369,52.540752],[13.408301,52.541495],[13.412523,52.541132],[13.412547,52.539454],[13.412476,52.539452],[13.412501,52.538117],[13.412573,52.538128],[13.412624,52.537903],[13.41273,52.536197],[13.412693,52.535976],[13.412717,52.535654],[13.412692,52.53556],[13.413148,52.533382],[13.413004,52.532848],[13.412635,52.53195],[13.412499,52.531223],[13.411389,52.530486]],[[13.411632,52.536036],[13.41202,52.536014],[13.411948,52.537051],[13.411415,52.537051],[13.411432,52.53689],[13.411739,52.53689],[13.41176,52.536676],[13.411577,52.536672],[13.411256,52.536696],[13.411204,52.536459],[13.41117,52.536461],[13.411138,52.536317],[13.410998,52.53633],[13.410942,52.536178],[13.411632,52.536036]]]]}},{"type":"Feature","id":27,"properties":{"gisid":"S0419","schluessel":"S0419","gebietsname":"Winsstraße","bezirk":"Pankow","verordnung":"10.","f_gvbl_dat":"03.12.1994","f_in_kraft":"04.12.1994","ae_gvbldat":null,"ae_inkraft":null,"verfahren":null,"au_gvbldat":"27.04.2011","au_inkraft":"28.04.2011","fl_in_ha":34.8,"status":"Aufgehoben (ab 2002)"},"geometry":{"type":"MultiPolygon","coordinates":[[[[13.422576,52.535749],[13.423813,52.537829],[13.427872,52.536431],[13.425984,52.534389],[13.42923,52.533279],[13.42979,52.533007],[13.425465,52.52928],[13.424632,52.529271],[13.423362,52.529703],[13.423855,52.530191],[13.420595,52.531363],[13.418858,52.529603],[13.418652,52.529673],[13.419767,52.531023],[13.422576,52.535749]]],[[[13.41903,52.529344],[13.420296,52.528914],[13.420143,52.528766],[13.420225,52.528719],[13.420255,52.528563],[13.417315,52.528354],[13.417545,52.5286],[13.418519,52.529517],[13.41903,52.529344]]]]}},{"type":"Feature","id":28,"properties":{"gisid":"S0420","schluessel":"S0420","gebietsname":"Bötzowstraße","bezirk":"Pankow","verordnung":"11.","f_gvbl_dat":"09.11.1995","f_in_kraft":"10.11.1995","ae_gvbldat":null,"ae_inkraft":null,"verfahren":null,"au_gvbldat":"27.04.2011","au_inkraft":"28.04.2011","fl_in_ha":29.1,"status":"Aufgehoben (ab 2002)"},"geometry":{"type":"MultiPolygon","coordinates":[[[[13.42527,52.529113],[13.425089,52.528955],[13.425914,52.528595],[13.425667,52.528373],[13.425728,52.528177],[13.431185,52.528815],[13.431123,52.529014],[13.431022,52.529112],[13.432405,52.530167],[13.433638,52.529657],[13.434006,52.529983],[13.434568,52.529745],[13.434911,52.530038],[13.435281,52.529878],[13.435846,52.530369],[13.434236,52.531068],[13.433786,52.53068],[13.433079,52.531006],[13.432302,52.530415],[13.430605,52.531121],[13.431048,52.531501],[13.431364,52.531362],[13.431398,52.531392],[13.43191,52.531178],[13.432383,52.531586],[13.433582,52.531069],[13.434732,52.531942],[13.433409,52.532531],[13.433889,52.532925],[13.434569,52.532623],[13.435265,52.533175],[13.435671,52.532979],[13.435892,52.533148],[13.435588,52.533295],[13.436057,52.533655],[13.435067,52.534131],[13.435265,52.534283],[13.435711,52.534068],[13.43613,52.534393],[13.43367,52.535574],[13.433252,52.535253],[13.433927,52.534928],[13.433726,52.534773],[13.433278,52.534988],[13.432815,52.534633],[13.432607,52.534732],[13.433049,52.535097],[13.432519,52.535352],[13.43188,52.535566],[13.42923,52.533279],[13.42979,52.533007],[13.42527,52.529113]]]]}},{"type":"Feature","id":29,"properties":{"gisid":"S0517","schluessel":"S0517","gebietsname":"Samariterviertel","bezirk":"Friedrichshain-Kreuzberg","verordnung":"09.","f_gvbl_dat":"08.10.1993","f_in_kraft":"09.10.1993","ae_gvbldat":null,"ae_inkraft":null,"verfahren":null,"au_gvbldat":"09.02.2008","au_inkraft":"10.02.2008","fl_in_ha":33.9,"status":"Aufgehoben (ab 2002)"},"geometry":{"type":"MultiPolygon","coordinates":[[[[13.469583,52.515499],[13.47324,52.514846],[13.473251,52.514702],[13.473633,52.514714],[13.4743,52.514527],[13.473731,52.515502],[13.473888,52.515631],[13.473351,52.516484],[13.473121,52.516833],[13.473012,52.516854],[13.471907,52.518555],[13.471012,52.519796],[13.470682,52.52031],[13.470598,52.520365],[13.466722,52.520051],[13.465891,52.518335],[13.465754,52.51829],[13.46297,52.518797],[13.462565,52.517971],[13.461867,52.518098],[13.462232,52.518823],[13.460947,52.519059],[13.460686,52.518521],[13.460163,52.518613],[13.460121,52.518524],[13.460037,52.518515],[13.459804,52.518561],[13.46016,52.519203],[13.458826,52.519447],[13.458556,52.518888],[13.457703,52.519058],[13.457019,52.517918],[13.456893,52.51777],[13.458296,52.517517],[13.45852,52.518023],[13.45942,52.517863],[13.45943,52.517882],[13.460027,52.517776],[13.460095,52.517911],[13.460546,52.517832],[13.460219,52.517174],[13.469583,52.515499]]]]}},{"type":"Feature","id":30,"properties":{"gisid":"S0519","schluessel":"S0519","gebietsname":"Warschauer Straße","bezirk":"Friedrichshain-Kreuzberg","verordnung":"10.","f_gvbl_dat":"03.12.1994","f_in_kraft":"04.12.1994","ae_gvbldat":null,"ae_inkraft":null,"verfahren":null,"au_gvbldat":"27.04.2011","au_inkraft":"28.04.2011","fl_in_ha":38.1,"status":"Aufgehoben (ab 2002)"},"geometry":{"type":"MultiPolygon","coordinates":[[[[13.446721,52.511468],[13.446198,52.511496],[13.447053,52.510443],[13.448143,52.510775],[13.448197,52.510706],[13.448306,52.510737],[13.448423,52.51058],[13.448404,52.510574],[13.448714,52.510193],[13.447516,52.509867],[13.44891,52.508156],[13.448975,52.508184],[13.45044,52.508538],[13.452854,52.508105],[13.452967,52.508332],[13.452945,52.508378],[13.455326,52.509994],[13.456151,52.509841],[13.456213,52.509971],[13.456233,52.509978],[13.456409,52.509945],[13.457556,52.512334],[13.459887,52.514627],[13.459227,52.514877],[13.458955,52.514609],[13.458562,52.514758],[13.457847,52.513947],[13.457714,52.514045],[13.457085,52.514239],[13.456947,52.514071],[13.457014,52.514051],[13.456751,52.513766],[13.456258,52.513936],[13.45624,52.513916],[13.456002,52.513998],[13.456227,52.514243],[13.455631,52.514428],[13.45517,52.51448],[13.455222,52.514655],[13.454529,52.514737],[13.454415,52.514316],[13.453822,52.514415],[13.453491,52.513678],[13.451963,52.513931],[13.451978,52.513964],[13.451592,52.514029],[13.451711,52.514284],[13.451118,52.514384],[13.451349,52.514898],[13.451743,52.515083],[13.451101,52.515588],[13.450005,52.515691],[13.449427,52.515177],[13.449875,52.514982],[13.450615,52.514857],[13.449762,52.51303],[13.447819,52.513352],[13.447628,52.513295],[13.447517,52.513429],[13.447279,52.513355],[13.448773,52.511368],[13.44874,52.511335],[13.446721,52.511468]],[[13.451867,52.511722],[13.451652,52.511241],[13.451014,52.511347],[13.451257,52.511874],[13.451054,52.511944],[13.451166,52.512188],[13.452013,52.512048],[13.451867,52.511722]],[[13.455049,52.512348],[13.455215,52.512589],[13.454669,52.512728],[13.454338,52.512269],[13.454927,52.512173],[13.455049,52.512348]],[[13.456311,52.512042],[13.456568,52.512383],[13.4561,52.512467],[13.455796,52.512028],[13.456244,52.511954],[13.456311,52.512042]]]]}},{"type":"Feature","id":31,"properties":{"gisid":"S0520","schluessel":"S0520","gebietsname":"Traveplatz-Ostkreuz","bezirk":"Friedrichshain-Kreuzberg","verordnung":"10.","f_gvbl_dat":"03.12.1994","f_in_kraft":"04.12.1994","ae_gvbldat":null,"ae_inkraft":null,"verfahren":null,"au_gvbldat":"10.07.2010","au_inkraft":"11.07.2010","fl_in_ha":35.1,"status":"Aufgehoben (ab 2002)"},"geometry":{"type":"MultiPolygon","coordinates":[[[[13.471109,52.505763],[13.471118,52.505732],[13.470824,52.505485],[13.470785,52.505525],[13.470432,52.505175],[13.470066,52.504941],[13.469216,52.504598],[13.468266,52.504345],[13.467892,52.504285],[13.466835,52.504214],[13.465386,52.504512],[13.46387,52.504678],[13.463205,52.504916],[13.463271,52.505048],[13.463168,52.505088],[13.46318,52.505119],[13.463031,52.505168],[13.463138,52.505194],[13.463201,52.505334],[13.463277,52.505321],[13.463363,52.505504],[13.463291,52.505518],[13.463452,52.505863],[13.463565,52.506028],[13.464129,52.505708],[13.464493,52.50594],[13.464793,52.506207],[13.464933,52.506271],[13.46477,52.506404],[13.465346,52.506667],[13.465669,52.506403],[13.466559,52.507311],[13.465153,52.507647],[13.469777,52.512304],[13.469771,52.512327],[13.469943,52.512514],[13.475366,52.51198],[13.475189,52.511791],[13.475133,52.511796],[13.474429,52.510998],[13.4738,52.511183],[13.473539,52.510886],[13.473843,52.510785],[13.473501,52.510395],[13.473807,52.510295],[13.471735,52.507942],[13.470452,52.506595],[13.470822,52.506522],[13.471568,52.506251],[13.471091,52.50577],[13.471109,52.505763]],[[13.472473,52.510017],[13.472533,52.510086],[13.472248,52.51018],[13.472063,52.510258],[13.472084,52.510279],[13.471357,52.510577],[13.471035,52.510279],[13.472274,52.509791],[13.472473,52.510017]],[[13.47278,52.510365],[13.473283,52.510939],[13.472892,52.511067],[13.472328,52.510516],[13.47278,52.510365]]]]}},{"type":"Feature","id":32,"properties":{"gisid":"S0601","schluessel":"S0601","gebietsname":"Kottbusser Tor","bezirk":"Friedrichshain-Kreuzberg","verordnung":"01.","f_gvbl_dat":"28.07.1972","f_in_kraft":"29.07.1972","ae_gvbldat":null,"ae_inkraft":null,"verfahren":null,"au_gvbldat":"27.06.2002","au_inkraft":"28.06.2002","fl_in_ha":105.6,"status":"Aufgehoben (ab 2002)"},"geometry":{"type":"MultiPolygon","coordinates":[[[[13.418213,52.505018],[13.417601,52.50417],[13.414908,52.504919],[13.414758,52.504859],[13.414073,52.504038],[13.411521,52.504891],[13.409971,52.506926],[13.408162,52.506231],[13.410175,52.5047],[13.40993,52.504286],[13.409709,52.504005],[13.409923,52.503946],[13.410294,52.503325],[13.410595,52.50324],[13.409056,52.501274],[13.407922,52.501607],[13.407716,52.501343],[13.408447,52.501127],[13.407244,52.499588],[13.406733,52.499724],[13.406534,52.499471],[13.406272,52.49954],[13.406321,52.499603],[13.406096,52.499664],[13.40576,52.499219],[13.406183,52.499092],[13.405987,52.498842],[13.405049,52.499124],[13.404786,52.498802],[13.404791,52.498523],[13.408325,52.498547],[13.409439,52.498608],[13.409788,52.498062],[13.409833,52.498064],[13.410021,52.49658],[13.409857,52.496178],[13.412868,52.495651],[13.413588,52.495576],[13.414168,52.495551],[13.414632,52.495551],[13.415475,52.495604],[13.416224,52.495688],[13.416761,52.49582],[13.41761,52.496129],[13.417954,52.496223],[13.418293,52.496281],[13.418971,52.496342],[13.419986,52.496514],[13.422262,52.499281],[13.423488,52.499293],[13.423489,52.499257],[13.423901,52.499262],[13.423929,52.499298],[13.424508,52.499304],[13.424509,52.499268],[13.424682,52.49927],[13.424681,52.499306],[13.427019,52.499391],[13.427018,52.499352],[13.427209,52.499361],[13.427205,52.499399],[13.429125,52.499502],[13.429976,52.499729],[13.42952,52.500706],[13.427845,52.501168],[13.428856,52.502335],[13.4259,52.503268],[13.425007,52.501948],[13.424933,52.501869],[13.424761,52.501767],[13.424521,52.5017],[13.424354,52.501687],[13.424223,52.501694],[13.423954,52.501756],[13.423762,52.501864],[13.423647,52.50201],[13.423625,52.502166],[13.423689,52.502311],[13.420491,52.503196],[13.421811,52.505043],[13.421542,52.505076],[13.421234,52.50515],[13.419431,52.505649],[13.41912,52.505219],[13.419053,52.505155],[13.418928,52.505077],[13.418943,52.505061],[13.418532,52.50497],[13.418519,52.504987],[13.418213,52.505018]]],[[[13.402781,52.49851],[13.401305,52.498498],[13.401309,52.49809],[13.401143,52.49792],[13.400542,52.497081],[13.399588,52.497253],[13.399015,52.497389],[13.399599,52.498213],[13.400484,52.499349],[13.401492,52.499102],[13.401541,52.499166],[13.40208,52.499011],[13.403104,52.498687],[13.402962,52.498512],[13.402781,52.49851]]]]}},{"type":"Feature","id":33,"properties":{"gisid":"S0605","schluessel":"S0605","gebietsname":"Chamissoplatz","bezirk":"Friedrichshain-Kreuzberg","verordnung":"04.","f_gvbl_dat":"04.12.1979","f_in_kraft":"06.12.1979","ae_gvbldat":null,"ae_inkraft":null,"verfahren":null,"au_gvbldat":"10.09.2003","au_inkraft":"11.09.2003","fl_in_ha":23.5,"status":"Aufgehoben (ab 2002)"},"geometry":{"type":"MultiPolygon","coordinates":[[[[13.386381,52.486351],[13.38636,52.486266],[13.386379,52.486261],[13.386377,52.486198],[13.386358,52.486193],[13.386377,52.486159],[13.386879,52.486156],[13.386853,52.486499],[13.38686,52.487026],[13.386688,52.487027],[13.3867,52.487209],[13.388183,52.48706],[13.388299,52.487521],[13.387129,52.48765],[13.387121,52.488126],[13.387203,52.489182],[13.388379,52.48909],[13.388318,52.488509],[13.388852,52.488481],[13.388616,52.487017],[13.391022,52.486772],[13.390965,52.485966],[13.394256,52.485941],[13.39426,52.486614],[13.394583,52.486592],[13.397355,52.486503],[13.397767,52.488762],[13.397177,52.488775],[13.397341,52.489302],[13.39559,52.489489],[13.395472,52.489075],[13.393614,52.489262],[13.388301,52.490022],[13.386938,52.490203],[13.386853,52.489927],[13.386815,52.489928],[13.386805,52.489886],[13.386839,52.489874],[13.386686,52.489246],[13.386652,52.489195],[13.386671,52.489181],[13.386523,52.488407],[13.386414,52.487398],[13.386381,52.486351]]]]}},{"type":"Feature","id":34,"properties":{"gisid":"S1101","schluessel":"S1101","gebietsname":"Bülowstraße","bezirk":"Tempelhof-Schöneberg","verordnung":"01.","f_gvbl_dat":"28.07.1972","f_in_kraft":"29.07.1972","ae_gvbldat":null,"ae_inkraft":null,"verfahren":null,"au_gvbldat":"29.06.1999","au_inkraft":"30.06.1999","fl_in_ha":63.3,"status":"Aufgehoben (ab 2002)"},"geometry":{"type":"MultiPolygon","coordinates":[[[[13.361228,52.493394],[13.361305,52.494106],[13.361419,52.495753],[13.361488,52.495925],[13.36095,52.495997],[13.354752,52.497228],[13.354395,52.498614],[13.354828,52.498662],[13.355081,52.498611],[13.35505,52.498549],[13.355264,52.498502],[13.355708,52.499372],[13.35593,52.499758],[13.355607,52.499822],[13.355409,52.500052],[13.358104,52.500928],[13.362531,52.499666],[13.363044,52.49956],[13.362363,52.497962],[13.363788,52.497695],[13.364047,52.498417],[13.363267,52.498529],[13.363519,52.499147],[13.363281,52.499182],[13.363404,52.499513],[13.368748,52.498783],[13.369353,52.498737],[13.369531,52.498869],[13.369722,52.498773],[13.369594,52.498109],[13.368668,52.497381],[13.368411,52.494483],[13.368579,52.493954],[13.368216,52.493329],[13.369161,52.493144],[13.369234,52.49328],[13.371075,52.492913],[13.371072,52.492757],[13.370687,52.492832],[13.370539,52.490654],[13.367411,52.491386],[13.367832,52.491817],[13.368539,52.492777],[13.368768,52.492739],[13.368862,52.492953],[13.368065,52.493114],[13.367383,52.49224],[13.366738,52.491545],[13.366254,52.491668],[13.36204,52.491468],[13.362105,52.49194],[13.361431,52.491967],[13.361418,52.491815],[13.361094,52.491821],[13.361228,52.493394]]]]}},{"type":"Feature","id":35,"properties":{"gisid":"S1104","schluessel":"S1104","gebietsname":"Kolonnenstraße","bezirk":"Tempelhof-Schöneberg","verordnung":"06.","f_gvbl_dat":"24.10.1984","f_in_kraft":"25.10.1984","ae_gvbldat":null,"ae_inkraft":null,"verfahren":null,"au_gvbldat":"10.09.2003","au_inkraft":"11.09.2003","fl_in_ha":7.6,"status":"Aufgehoben (ab 2002)"},"geometry":{"type":"MultiPolygon","coordinates":[[[[13.357104,52.484897],[13.358319,52.48554],[13.358662,52.485675],[13.358517,52.485865],[13.358538,52.485906],[13.358455,52.486033],[13.358103,52.48595],[13.358052,52.485926],[13.357377,52.486458],[13.357634,52.486573],[13.357493,52.48683],[13.357349,52.486889],[13.359026,52.488726],[13.360589,52.488045],[13.360726,52.487816],[13.362162,52.488378],[13.362234,52.488308],[13.362279,52.487879],[13.360518,52.486412],[13.360505,52.486382],[13.359895,52.485829],[13.359898,52.485764],[13.359012,52.485016],[13.359008,52.485058],[13.358764,52.485144],[13.357895,52.48441],[13.357633,52.484269],[13.356898,52.484789],[13.357104,52.484897]]]]}},{"type":"Feature","id":36,"properties":{"gisid":"S1410","schluessel":"S1410","gebietsname":"Kottbusser Damm Ost","bezirk":"Neukölln","verordnung":"11.","f_gvbl_dat":"09.11.1995","f_in_kraft":"10.11.1995","ae_gvbldat":null,"ae_inkraft":null,"verfahren":null,"au_gvbldat":"20.02.2007","au_inkraft":"21.02.2007","fl_in_ha":2.5,"status":"Aufgehoben (ab 2002)"},"geometry":{"type":"MultiPolygon","coordinates":[[[[13.425913,52.492353],[13.425886,52.49235],[13.426139,52.49143],[13.427704,52.491577],[13.427783,52.492203],[13.426427,52.492081],[13.426352,52.492392],[13.425913,52.492353]]],[[[13.422284,52.494262],[13.421796,52.494217],[13.421915,52.494642],[13.421756,52.495017],[13.42181,52.495138],[13.421554,52.495181],[13.421647,52.495389],[13.42225,52.495288],[13.422696,52.495148],[13.422446,52.494843],[13.422426,52.494768],[13.42262,52.494705],[13.422521,52.494403],[13.42255,52.494287],[13.422284,52.494262]]],[[[13.425224,52.491941],[13.425219,52.491972],[13.423109,52.491783],[13.423241,52.491571],[13.424572,52.49169],[13.424633,52.491469],[13.425815,52.491575],[13.425754,52.491795],[13.425256,52.491751],[13.425224,52.491941]]],[[[13.424486,52.493516],[13.42414,52.493485],[13.423948,52.494244],[13.424351,52.49428],[13.424542,52.493522],[13.424486,52.493516]]],[[[13.426742,52.488176],[13.42674,52.488191],[13.425911,52.488147],[13.425933,52.487987],[13.426247,52.487872],[13.426299,52.487933],[13.426502,52.487943],[13.426513,52.487839],[13.426778,52.487849],[13.426742,52.488176]]]]}},{"type":"Feature","id":37,"properties":{"gisid":"S1411","schluessel":"S1411","gebietsname":"Wederstraße","bezirk":"Neukölln","verordnung":"11.","f_gvbl_dat":"09.11.1995","f_in_kraft":"10.11.1995","ae_gvbldat":null,"ae_inkraft":null,"verfahren":null,"au_gvbldat":"10.07.2010","au_inkraft":"11.07.2010","fl_in_ha":24.6,"status":"Aufgehoben (ab 2002)"},"geometry":{"type":"MultiPolygon","coordinates":[[[[13.438849,52.463768],[13.441222,52.464023],[13.441128,52.464338],[13.440812,52.464304],[13.440683,52.464744],[13.437099,52.464356],[13.436872,52.465103],[13.4417,52.465605],[13.441778,52.465385],[13.441831,52.46539],[13.441975,52.464884],[13.442027,52.46489],[13.44224,52.464134],[13.443427,52.464263],[13.4437,52.464385],[13.445191,52.464628],[13.445289,52.464401],[13.445484,52.464433],[13.445638,52.464114],[13.443861,52.463789],[13.444391,52.463057],[13.444454,52.463015],[13.444895,52.462376],[13.444723,52.462356],[13.444714,52.462388],[13.444116,52.462318],[13.444004,52.46203],[13.44479,52.462114],[13.444829,52.461988],[13.444572,52.461958],[13.444605,52.461858],[13.444643,52.461863],[13.444675,52.461763],[13.44483,52.46178],[13.444963,52.461361],[13.440771,52.460876],[13.440481,52.461822],[13.440396,52.461858],[13.439966,52.461809],[13.440279,52.460819],[13.438197,52.460579],[13.437884,52.461572],[13.435904,52.461346],[13.435899,52.46136],[13.435604,52.461327],[13.435609,52.461312],[13.435221,52.461267],[13.435172,52.461188],[13.434783,52.461141],[13.434518,52.461886],[13.434534,52.461888],[13.434433,52.462185],[13.434403,52.462181],[13.434181,52.462755],[13.433792,52.46322],[13.438849,52.463768]]]]}},{"type":"Feature","id":38,"properties":{"gisid":"S1509C","schluessel":"S1509C","gebietsname":"Niederschöneweide","bezirk":"Treptow-Köpenick","verordnung":"10.","f_gvbl_dat":"03.12.1994","f_in_kraft":"04.12.1994","ae_gvbldat":null,"ae_inkraft":null,"verfahren":null,"au_gvbldat":"02.03.2022","au_inkraft":"03.03.2022","fl_in_ha":26,"status":"Aufgehoben (ab 2002)"},"geometry":{"type":"MultiPolygon","coordinates":[[[[13.506689,52.458893],[13.506539,52.459007],[13.508815,52.460288],[13.509534,52.460741],[13.51026,52.460458],[13.511306,52.459921],[13.512551,52.459367],[13.512616,52.459358],[13.513527,52.458941],[13.511983,52.457308],[13.51604,52.455849],[13.51406,52.455321],[13.513226,52.454386],[13.51235,52.454983],[13.512329,52.454967],[13.510198,52.456397],[13.510019,52.456657],[13.51007,52.45671],[13.509991,52.456696],[13.509603,52.456825],[13.509631,52.456848],[13.509593,52.456867],[13.509576,52.456857],[13.508636,52.457483],[13.508661,52.457497],[13.507587,52.458273],[13.506689,52.458893]]],[[[13.518361,52.453394],[13.517206,52.45276],[13.517635,52.452464],[13.517776,52.452541],[13.518046,52.452371],[13.518123,52.452421],[13.51906,52.45187],[13.519138,52.451847],[13.5193,52.451757],[13.520085,52.451286],[13.521023,52.451839],[13.521233,52.451712],[13.521192,52.451651],[13.521528,52.451441],[13.5215,52.451397],[13.521522,52.451381],[13.521581,52.451386],[13.522428,52.451833],[13.522497,52.451833],[13.522599,52.45179],[13.522618,52.451811],[13.522994,52.451728],[13.523347,52.452365],[13.518361,52.453394]]],[[[13.507616,52.461463],[13.506292,52.461886],[13.506047,52.46178],[13.505893,52.461662],[13.505595,52.461505],[13.505651,52.461462],[13.504118,52.46071],[13.504587,52.460335],[13.50495,52.460077],[13.505717,52.460497],[13.507616,52.461463]]],[[[13.519161,52.457564],[13.518708,52.45713],[13.518629,52.457159],[13.518372,52.456915],[13.517338,52.457281],[13.517168,52.457105],[13.516558,52.457275],[13.516322,52.457361],[13.516924,52.457981],[13.517895,52.457901],[13.519359,52.457854],[13.519254,52.457752],[13.519279,52.457676],[13.519161,52.457564]]]]}},{"type":"Feature","id":39,"properties":{"gisid":"S1612","schluessel":"S1612","gebietsname":"Altstadt/Kietz-Vorstadt","bezirk":"Treptow-Köpenick","verordnung":"09.","f_gvbl_dat":"08.10.1993","f_in_kraft":"09.10.1993","ae_gvbldat":null,"ae_inkraft":null,"verfahren":null,"au_gvbldat":"20.02.2007","au_inkraft":"21.02.2007","fl_in_ha":29.1,"status":"Aufgehoben (ab 2002)"},"geometry":{"type":"MultiPolygon","coordinates":[[[[13.575034,52.44839],[13.575128,52.448392],[13.57521,52.448362],[13.575643,52.448013],[13.577373,52.448312],[13.577977,52.448167],[13.579596,52.447679],[13.579735,52.44757],[13.579808,52.447062],[13.579747,52.447037],[13.579804,52.446681],[13.580024,52.446382],[13.580211,52.446076],[13.580247,52.445998],[13.580319,52.445645],[13.580404,52.445548],[13.580981,52.445734],[13.581018,52.445698],[13.581097,52.445703],[13.581109,52.445687],[13.581191,52.445704],[13.581368,52.445682],[13.581908,52.44545],[13.582137,52.445485],[13.582205,52.445481],[13.582862,52.445222],[13.582644,52.445127],[13.581722,52.444826],[13.581656,52.444787],[13.581166,52.444621],[13.581041,52.444521],[13.580382,52.444433],[13.580535,52.4442],[13.580582,52.443956],[13.579589,52.444359],[13.579557,52.444516],[13.579044,52.444985],[13.577788,52.444449],[13.577904,52.444306],[13.578213,52.444093],[13.578454,52.443842],[13.578559,52.443789],[13.580423,52.443088],[13.580165,52.442831],[13.5802,52.4428],[13.57953,52.442104],[13.579483,52.442026],[13.579233,52.442085],[13.578405,52.442021],[13.577659,52.442381],[13.577481,52.442235],[13.57759,52.442185],[13.577017,52.441523],[13.577512,52.441339],[13.577491,52.441337],[13.577415,52.44058],[13.577564,52.440396],[13.577843,52.440393],[13.577886,52.44018],[13.578111,52.440051],[13.578222,52.439909],[13.578196,52.439902],[13.578371,52.43968],[13.578341,52.439676],[13.578355,52.439558],[13.578275,52.439433],[13.578511,52.439318],[13.578847,52.439323],[13.578838,52.438967],[13.578799,52.438955],[13.576811,52.439918],[13.576488,52.440207],[13.57632,52.440743],[13.575847,52.440679],[13.575575,52.441195],[13.575553,52.441206],[13.575471,52.44141],[13.575466,52.441618],[13.575445,52.44163],[13.575408,52.441808],[13.575417,52.441901],[13.575545,52.441896],[13.575549,52.44192],[13.575477,52.441954],[13.575544,52.442259],[13.575541,52.442593],[13.575583,52.44264],[13.575698,52.442616],[13.575749,52.442708],[13.575735,52.442712],[13.575915,52.442932],[13.575893,52.442941],[13.576117,52.443132],[13.57608,52.443146],[13.576179,52.443257],[13.576297,52.443216],[13.576333,52.443288],[13.575907,52.443425],[13.576081,52.443641],[13.576201,52.443615],[13.576389,52.443812],[13.576813,52.444088],[13.576509,52.444112],[13.575874,52.443918],[13.57506,52.443939],[13.575007,52.44389],[13.574732,52.443897],[13.574691,52.443949],[13.574458,52.443954],[13.573309,52.444192],[13.572384,52.444297],[13.572309,52.444325],[13.572287,52.444353],[13.572293,52.444533],[13.572356,52.444589],[13.572504,52.444603],[13.572695,52.444647],[13.572785,52.444697],[13.572843,52.444768],[13.573203,52.445523],[13.573643,52.446291],[13.574659,52.447561],[13.574643,52.447566],[13.574667,52.447613],[13.57466,52.447661],[13.5744,52.448134],[13.574404,52.448205],[13.574444,52.448245],[13.574516,52.448278],[13.575034,52.44839]]]]}},{"type":"Feature","id":40,"properties":{"gisid":"S1613","schluessel":"S1613","gebietsname":"Oberschöneweide","bezirk":"Treptow-Köpenick","verordnung":"11.","f_gvbl_dat":"09.11.1995","f_in_kraft":"10.11.1995","ae_gvbldat":null,"ae_inkraft":null,"verfahren":null,"au_gvbldat":"10.07.2010","au_inkraft":"11.07.2010","fl_in_ha":41.9,"status":"Aufgehoben (ab 2002)"},"geometry":{"type":"MultiPolygon","coordinates":[[[[13.509618,52.466626],[13.50942,52.467094],[13.508782,52.466986],[13.50876,52.466857],[13.509128,52.465949],[13.509376,52.465688],[13.509158,52.465611],[13.508531,52.465336],[13.508202,52.465612],[13.50734,52.465251],[13.507252,52.465359],[13.506446,52.465108],[13.507365,52.464028],[13.507319,52.464014],[13.507451,52.463859],[13.507385,52.46383],[13.507729,52.463545],[13.507721,52.463299],[13.507951,52.463378],[13.508269,52.463441],[13.508529,52.463471],[13.508902,52.463472],[13.510377,52.46314],[13.510401,52.463162],[13.511125,52.463001],[13.51111,52.462971],[13.518307,52.461352],[13.517195,52.459521],[13.516962,52.459091],[13.517395,52.458994],[13.517761,52.458988],[13.518477,52.459039],[13.518887,52.459127],[13.518907,52.459096],[13.519069,52.459086],[13.519166,52.459174],[13.519455,52.45905],[13.519893,52.459352],[13.520117,52.459337],[13.520364,52.459293],[13.521112,52.460696],[13.526461,52.458377],[13.527769,52.457396],[13.528553,52.457788],[13.52845,52.457855],[13.52885,52.458084],[13.529176,52.457872],[13.529597,52.458119],[13.529273,52.458326],[13.53048,52.459017],[13.531312,52.458491],[13.531368,52.458431],[13.533029,52.459287],[13.532778,52.459336],[13.53282,52.459491],[13.532685,52.459566],[13.531205,52.461096],[13.529516,52.460134],[13.529487,52.460153],[13.529238,52.460013],[13.528729,52.460344],[13.528432,52.460169],[13.528362,52.460204],[13.527654,52.459821],[13.526708,52.460264],[13.527266,52.460715],[13.526555,52.461047],[13.525996,52.460597],[13.523428,52.461785],[13.522494,52.462199],[13.522107,52.461876],[13.521412,52.462189],[13.520853,52.461628],[13.518849,52.461911],[13.517451,52.462196],[13.517419,52.462254],[13.517316,52.462226],[13.517287,52.462177],[13.516712,52.462306],[13.516732,52.462339],[13.515814,52.462525],[13.514953,52.463043],[13.514407,52.463561],[13.51426,52.463757],[13.51395,52.463734],[13.513807,52.464418],[13.513776,52.46485],[13.513403,52.464843],[13.513155,52.464623],[13.512922,52.464583],[13.512772,52.464918],[13.512711,52.464909],[13.512153,52.466612],[13.512125,52.466779],[13.511968,52.466798],[13.511991,52.466979],[13.50963,52.466597],[13.509618,52.466626]]]]}},{"type":"Feature","id":41,"properties":{"gisid":"S1706","schluessel":"S1706","gebietsname":"Kaskelstraße","bezirk":"Lichtenberg","verordnung":"10.","f_gvbl_dat":"03.12.1994","f_in_kraft":"04.12.1994","ae_gvbldat":null,"ae_inkraft":null,"verfahren":null,"au_gvbldat":"09.02.2008","au_inkraft":"10.02.2008","fl_in_ha":22.1,"status":"Aufgehoben (ab 2002)"},"geometry":{"type":"MultiPolygon","coordinates":[[[[13.483221,52.502264],[13.482949,52.502961],[13.483066,52.502993],[13.48289,52.503386],[13.482606,52.503569],[13.482748,52.503509],[13.482358,52.504365],[13.482273,52.504514],[13.482034,52.504842],[13.481722,52.505157],[13.481515,52.505331],[13.481095,52.505622],[13.480874,52.505754],[13.48061,52.505879],[13.479272,52.506428],[13.478454,52.506733],[13.478453,52.506758],[13.478318,52.506795],[13.478287,52.506775],[13.477484,52.506947],[13.477418,52.506849],[13.476392,52.505698],[13.476438,52.50567],[13.476287,52.505393],[13.475984,52.505185],[13.475526,52.504909],[13.475392,52.504794],[13.475171,52.504547],[13.475082,52.504258],[13.475075,52.503673],[13.475114,52.503435],[13.475019,52.503255],[13.474939,52.502899],[13.47538,52.50282],[13.475614,52.502729],[13.475692,52.502601],[13.475678,52.502395],[13.475649,52.502227],[13.475561,52.502026],[13.476923,52.501798],[13.47693,52.50176],[13.478123,52.501851],[13.478116,52.501887],[13.478236,52.501896],[13.478398,52.501907],[13.478405,52.501872],[13.479919,52.501981],[13.479918,52.502017],[13.480422,52.502055],[13.480432,52.50202],[13.481851,52.502118],[13.481843,52.502159],[13.482292,52.502193],[13.4823,52.502155],[13.482747,52.502191],[13.482738,52.502229],[13.483221,52.502264]]]]}},{"type":"Feature","id":42,"properties":{"gisid":"S1707","schluessel":"S1707","gebietsname":"Weitlingstraße","bezirk":"Lichtenberg","verordnung":"10.","f_gvbl_dat":"03.12.1994","f_in_kraft":"04.12.1994","ae_gvbldat":null,"ae_inkraft":null,"verfahren":null,"au_gvbldat":"27.01.2009","au_inkraft":"28.01.2009","fl_in_ha":50.3,"status":"Aufgehoben (ab 2002)"},"geometry":{"type":"MultiPolygon","coordinates":[[[[13.494749,52.502287],[13.494841,52.502445],[13.494062,52.502606],[13.493558,52.501737],[13.492151,52.502031],[13.492069,52.501892],[13.491571,52.502036],[13.491327,52.502091],[13.491334,52.502102],[13.490893,52.502199],[13.491032,52.502431],[13.489018,52.502823],[13.48875,52.502469],[13.487967,52.502701],[13.488138,52.502992],[13.487599,52.503097],[13.487894,52.503611],[13.48775,52.503638],[13.487737,52.50361],[13.487339,52.503686],[13.487509,52.504009],[13.486776,52.50416],[13.48648,52.504015],[13.485333,52.503541],[13.485642,52.503479],[13.485526,52.503261],[13.485228,52.50281],[13.48369,52.503161],[13.483348,52.503069],[13.483683,52.50226],[13.484218,52.502297],[13.484335,52.502319],[13.484326,52.502334],[13.486558,52.502505],[13.486885,52.502425],[13.486737,52.502264],[13.486854,52.502089],[13.487484,52.50138],[13.48882,52.500298],[13.4888,52.500291],[13.489097,52.499962],[13.489257,52.49968],[13.489399,52.499486],[13.489633,52.499306],[13.489837,52.49911],[13.490203,52.49868],[13.491088,52.497863],[13.491833,52.497248],[13.492129,52.497375],[13.492116,52.497408],[13.493023,52.498019],[13.493194,52.497983],[13.493302,52.497933],[13.493515,52.498088],[13.493695,52.498309],[13.494196,52.499007],[13.495465,52.500404],[13.4956,52.500532],[13.495668,52.500538],[13.495858,52.500721],[13.495904,52.500711],[13.495965,52.500777],[13.495855,52.5008],[13.496456,52.501461],[13.495308,52.501701],[13.495391,52.501841],[13.495358,52.501847],[13.49552,52.502125],[13.494749,52.502287]]],[[[13.497104,52.507822],[13.495885,52.508071],[13.495978,52.50823],[13.495692,52.508251],[13.495151,52.508338],[13.494641,52.508119],[13.493522,52.507481],[13.493042,52.506989],[13.49277,52.507025],[13.492724,52.506954],[13.492508,52.506981],[13.492369,52.506756],[13.494567,52.506319],[13.493821,52.505043],[13.495314,52.504748],[13.494671,52.503656],[13.494969,52.503594],[13.494849,52.503386],[13.49506,52.503341],[13.494915,52.5031],[13.495185,52.503047],[13.495097,52.502895],[13.495877,52.502737],[13.496105,52.503128],[13.496914,52.502971],[13.49683,52.502826],[13.497569,52.502676],[13.497921,52.503073],[13.496954,52.503272],[13.497261,52.503843],[13.497404,52.503816],[13.497587,52.504128],[13.496771,52.504281],[13.49751,52.50555],[13.495964,52.50586],[13.496257,52.506369],[13.497808,52.506061],[13.498178,52.506696],[13.499505,52.506413],[13.499702,52.506752],[13.500883,52.50649],[13.50131,52.506993],[13.500268,52.507201],[13.500362,52.507359],[13.5004,52.507351],[13.500676,52.507864],[13.499267,52.508107],[13.498939,52.507461],[13.497104,52.507822]]],[[[13.498589,52.510087],[13.498769,52.510141],[13.498878,52.510206],[13.499792,52.510383],[13.500134,52.51046],[13.500342,52.510527],[13.500393,52.510536],[13.500541,52.51049],[13.500664,52.510648],[13.500817,52.510667],[13.500803,52.510715],[13.500822,52.510771],[13.500937,52.510866],[13.501511,52.510789],[13.503729,52.51058],[13.505682,52.510471],[13.505247,52.509382],[13.505033,52.509082],[13.505459,52.508947],[13.505141,52.508543],[13.504057,52.506873],[13.504196,52.506835],[13.504089,52.506626],[13.50233,52.506969],[13.502251,52.507075],[13.503563,52.508677],[13.502715,52.508929],[13.502738,52.508956],[13.499665,52.50948],[13.49955,52.509312],[13.499372,52.508945],[13.498656,52.509079],[13.498568,52.508925],[13.497859,52.509098],[13.498424,52.509965],[13.498589,52.510087]]]]}},{"type":"Feature","id":43,"properties":{"gisid":"S1805","schluessel":"S1805","gebietsname":"Komponistenviertel","bezirk":"Pankow","verordnung":"10.","f_gvbl_dat":"03.12.1994","f_in_kraft":"04.12.1994","ae_gvbldat":null,"ae_inkraft":null,"verfahren":null,"au_gvbldat":"10.07.2010","au_inkraft":"11.07.2010","fl_in_ha":49.7,"status":"Aufgehoben (ab 2002)"},"geometry":{"type":"MultiPolygon","coordinates":[[[[13.446923,52.547735],[13.446913,52.547723],[13.448035,52.54716],[13.447805,52.547056],[13.448032,52.546808],[13.449385,52.547412],[13.44959,52.547246],[13.449046,52.547009],[13.449234,52.546855],[13.449124,52.546755],[13.4493,52.546681],[13.449129,52.546532],[13.451973,52.545364],[13.452206,52.545415],[13.453604,52.544693],[13.454901,52.545136],[13.454456,52.545906],[13.457146,52.54649],[13.457511,52.545876],[13.455476,52.545175],[13.456182,52.544418],[13.459964,52.546943],[13.459297,52.548104],[13.463667,52.549055],[13.463464,52.549402],[13.466335,52.550022],[13.466075,52.550716],[13.466039,52.550883],[13.465978,52.551015],[13.465789,52.551297],[13.465501,52.551646],[13.46529,52.551694],[13.465081,52.551599],[13.465049,52.551627],[13.464129,52.551205],[13.464161,52.551178],[13.463969,52.551094],[13.463557,52.550956],[13.463114,52.550832],[13.463106,52.550846],[13.46191,52.550592],[13.461896,52.550617],[13.461,52.550422],[13.461012,52.550401],[13.460311,52.550247],[13.46031,52.550455],[13.458546,52.550082],[13.458569,52.550115],[13.458481,52.550098],[13.458517,52.550201],[13.455226,52.551091],[13.454163,52.54978],[13.45388,52.549763],[13.452891,52.550052],[13.452775,52.54987],[13.452715,52.54973],[13.452419,52.549774],[13.451937,52.549947],[13.452179,52.550258],[13.449695,52.55098],[13.446923,52.547735]]]]}},{"type":"Feature","id":44,"properties":{"gisid":"S1907","schluessel":"S1907","gebietsname":"Wollankstraße","bezirk":"Pankow","verordnung":"10.","f_gvbl_dat":"03.12.1994","f_in_kraft":"04.12.1994","ae_gvbldat":null,"ae_inkraft":null,"verfahren":null,"au_gvbldat":"27.04.2011","au_inkraft":"28.04.2011","fl_in_ha":68.5,"status":"Aufgehoben (ab 2002)"},"geometry":{"type":"MultiPolygon","coordinates":[[[[13.395339,52.564609],[13.394726,52.565124],[13.394465,52.564987],[13.396031,52.563503],[13.396452,52.56367],[13.397792,52.56426],[13.398216,52.5639],[13.398984,52.564267],[13.399464,52.563853],[13.39982,52.564015],[13.399843,52.56368],[13.401012,52.563724],[13.40088,52.565176],[13.401529,52.565196],[13.401542,52.56505],[13.402522,52.565083],[13.402487,52.565499],[13.404816,52.565374],[13.404959,52.563272],[13.407074,52.564515],[13.407118,52.564465],[13.407257,52.564542],[13.407222,52.564598],[13.411003,52.566803],[13.410862,52.567055],[13.412013,52.567273],[13.412327,52.56743],[13.412364,52.567547],[13.412358,52.567601],[13.41299,52.567956],[13.412906,52.567934],[13.413209,52.568105],[13.4127,52.569118],[13.412496,52.569748],[13.412659,52.569788],[13.412456,52.570154],[13.411935,52.570053],[13.410756,52.571048],[13.410224,52.570887],[13.410287,52.570793],[13.410237,52.570779],[13.410012,52.570784],[13.408842,52.571057],[13.408714,52.571017],[13.408556,52.571293],[13.408658,52.571322],[13.408244,52.572183],[13.408206,52.572174],[13.407849,52.572885],[13.404033,52.572096],[13.401972,52.571621],[13.401767,52.571619],[13.401279,52.571725],[13.400484,52.571366],[13.399965,52.571068],[13.399729,52.570959],[13.399716,52.570967],[13.399385,52.570788],[13.399354,52.570796],[13.398954,52.570641],[13.399866,52.570163],[13.399915,52.57018],[13.400814,52.569708],[13.400803,52.5697],[13.400842,52.569678],[13.400855,52.569686],[13.400991,52.569615],[13.400975,52.569604],[13.401017,52.569582],[13.401034,52.569592],[13.401478,52.569358],[13.401461,52.569319],[13.401555,52.569074],[13.401328,52.569107],[13.401344,52.569078],[13.401195,52.569095],[13.400966,52.569097],[13.400737,52.569063],[13.400354,52.568931],[13.400088,52.568775],[13.400128,52.568754],[13.399827,52.568542],[13.399712,52.568634],[13.399343,52.568377],[13.399425,52.56833],[13.399238,52.568201],[13.39916,52.568246],[13.398802,52.567994],[13.398876,52.56795],[13.398124,52.567422],[13.398055,52.567459],[13.397895,52.567346],[13.397963,52.567307],[13.397747,52.567155],[13.39767,52.567187],[13.397513,52.567078],[13.39765,52.567004],[13.397286,52.566749],[13.397223,52.566783],[13.396873,52.566521],[13.396927,52.566492],[13.396629,52.566279],[13.396561,52.566315],[13.396444,52.566232],[13.396374,52.566272],[13.39579,52.565867],[13.3959,52.565861],[13.395888,52.565852],[13.394951,52.565243],[13.395153,52.56513],[13.395379,52.564971],[13.396246,52.564246],[13.395925,52.564116],[13.395339,52.564609]],[[13.40935,52.566942],[13.409337,52.567056],[13.409306,52.567117],[13.408859,52.567453],[13.408436,52.567374],[13.407736,52.568731],[13.407093,52.568576],[13.407505,52.567666],[13.406976,52.567554],[13.406953,52.567597],[13.406423,52.567484],[13.40668,52.567037],[13.406792,52.566897],[13.406506,52.566815],[13.406745,52.566505],[13.406698,52.566492],[13.40694,52.566178],[13.407193,52.566247],[13.407588,52.5658],[13.407825,52.565872],[13.408533,52.566204],[13.408083,52.566563],[13.408536,52.566776],[13.408421,52.566867],[13.408793,52.566868],[13.40935,52.566942]]]]}}]}