{"type":"FeatureCollection","features":[{"type":"Feature","id":0,"properties":{"schluessel":"VR0301","gebietsname":"Blankenburger Süden","bezirk":"Pankow","fl_in_ha":"429.5","datum_gvbl":"11.07.2017","datum_in_kraft":"12.07.2017","gvbl_link":"https://www.berlin.de/sen/justiz/service/gesetze-und-verordnungen/2017/ausgabe-nr-17-vom-11-07-2017-s-337-356.pdf","weitere_link":"https://www.stadtentwicklung.berlin.de/wohnen/wohnungsbau/blankenburger-sueden/index.shtml","fachlich_zust":"SenStadt II W"},"geometry":{"type":"MultiPolygon","coordinates":[[[[13.442363,52.592274],[13.441999,52.59242],[13.442,52.592421],[13.441937,52.592447],[13.441862,52.592477],[13.441748,52.592367],[13.441334,52.591995],[13.441271,52.591939],[13.441099,52.591785],[13.441012,52.591707],[13.440894,52.591602],[13.440812,52.591554],[13.440695,52.591548],[13.440343,52.591654],[13.440297,52.591667],[13.440218,52.591689],[13.440139,52.591711],[13.440103,52.591719],[13.440046,52.591731],[13.439989,52.591744],[13.439932,52.591757],[13.439875,52.59177],[13.439818,52.591784],[13.439761,52.591797],[13.439704,52.59181],[13.439648,52.591824],[13.43922,52.591919],[13.439195,52.591924],[13.439186,52.591926],[13.43916,52.591932],[13.439136,52.591939],[13.438904,52.591998],[13.438788,52.592022],[13.438735,52.592034],[13.438576,52.59207],[13.438529,52.59208],[13.438438,52.5921],[13.43833,52.592123],[13.438257,52.592136],[13.438001,52.592189],[13.437566,52.592283],[13.437167,52.592371],[13.437021,52.592409],[13.436947,52.592443],[13.436896,52.592473],[13.436899,52.592477],[13.436872,52.592499],[13.436845,52.592474],[13.436824,52.592455],[13.436753,52.592519],[13.436694,52.592577],[13.436658,52.592612],[13.436636,52.592634],[13.436444,52.592821],[13.436364,52.592896],[13.436389,52.592905],[13.436224,52.59306],[13.436065,52.593211],[13.435906,52.593363],[13.435745,52.593516],[13.435584,52.593668],[13.435582,52.593667],[13.435559,52.593658],[13.435306,52.593896],[13.435276,52.593924],[13.435216,52.593981],[13.435022,52.594164],[13.434633,52.594535],[13.434652,52.594538],[13.43445,52.594729],[13.434429,52.594724],[13.434195,52.594945],[13.434102,52.595032],[13.433982,52.595148],[13.433821,52.595299],[13.433844,52.595306],[13.433848,52.595307],[13.433686,52.595457],[13.433666,52.595476],[13.433641,52.595467],[13.433487,52.595614],[13.43319,52.595898],[13.433053,52.596023],[13.433049,52.596011],[13.433026,52.595941],[13.432982,52.595809],[13.432937,52.595671],[13.432856,52.595669],[13.432778,52.595434],[13.432855,52.595424],[13.432812,52.595296],[13.432768,52.595168],[13.432716,52.59503],[13.432704,52.594995],[13.432646,52.594818],[13.432588,52.594645],[13.432529,52.594468],[13.432471,52.594294],[13.432468,52.594288],[13.432398,52.594074],[13.432391,52.594053],[13.432374,52.594001],[13.432366,52.593979],[13.432291,52.593763],[13.432158,52.593366],[13.432117,52.593221],[13.432023,52.592959],[13.432019,52.592948],[13.431825,52.592373],[13.431728,52.592392],[13.431636,52.592136],[13.431622,52.592086],[13.431585,52.591983],[13.431581,52.591969],[13.431542,52.591859],[13.432198,52.591633],[13.432532,52.591513],[13.43257,52.591499],[13.432924,52.591345],[13.433338,52.591124],[13.433393,52.591094],[13.433507,52.591031],[13.43358,52.590981],[13.433834,52.590809],[13.43412,52.590583],[13.434194,52.590516],[13.434873,52.590257],[13.440422,52.588146],[13.440074,52.587814],[13.438634,52.586508],[13.43861,52.586485],[13.438579,52.586455],[13.438571,52.586448],[13.438556,52.586433],[13.438538,52.586415],[13.438367,52.586251],[13.438204,52.586094],[13.437986,52.585887],[13.437787,52.585699],[13.43751,52.585437],[13.43707,52.585021],[13.436969,52.584926],[13.436901,52.58486],[13.436576,52.584565],[13.43648,52.584478],[13.436243,52.584252],[13.435544,52.583598],[13.434045,52.583544],[13.433807,52.583325],[13.431594,52.581287],[13.432638,52.580872],[13.432716,52.580841],[13.432817,52.580801],[13.432926,52.580811],[13.433145,52.581015],[13.43466,52.582342],[13.435113,52.58244],[13.435552,52.58253],[13.435577,52.582535],[13.435709,52.582564],[13.435945,52.582615],[13.436028,52.582634],[13.4364,52.582714],[13.436416,52.582718],[13.43645,52.582725],[13.43663,52.582764],[13.436739,52.582788],[13.436759,52.582792],[13.436878,52.582818],[13.437041,52.582854],[13.437062,52.582858],[13.437151,52.582878],[13.437225,52.582893],[13.437821,52.583019],[13.437854,52.582961],[13.438061,52.582959],[13.438133,52.582965],[13.438222,52.582973],[13.438226,52.582966],[13.438232,52.582955],[13.43824,52.582942],[13.438511,52.58294],[13.438732,52.582909],[13.438876,52.5829],[13.439127,52.582868],[13.439274,52.582842],[13.439348,52.58284],[13.439416,52.58284],[13.439498,52.582841],[13.439803,52.582825],[13.439853,52.582818],[13.439868,52.582814],[13.439963,52.58279],[13.44,52.582774],[13.440002,52.582773],[13.440067,52.582737],[13.440264,52.582658],[13.440267,52.582658],[13.440361,52.582632],[13.440439,52.582614],[13.440319,52.582503],[13.440492,52.582456],[13.440667,52.582409],[13.440746,52.582388],[13.440867,52.582355],[13.441105,52.582291],[13.441326,52.582231],[13.441549,52.582171],[13.441768,52.582111],[13.441818,52.582096],[13.441931,52.582066],[13.44203,52.582039],[13.442296,52.581967],[13.442324,52.58196],[13.442447,52.581927],[13.442668,52.581867],[13.442881,52.58181],[13.443215,52.581719],[13.443335,52.581687],[13.443838,52.58155],[13.444055,52.581491],[13.44427,52.581433],[13.444487,52.581374],[13.444781,52.581295],[13.444725,52.58114],[13.444665,52.580973],[13.444615,52.580833],[13.444602,52.580796],[13.444592,52.580769],[13.444584,52.580687],[13.444557,52.580426],[13.444555,52.580407],[13.44455,52.580365],[13.444548,52.580348],[13.444538,52.580261],[13.444526,52.580075],[13.444517,52.57993],[13.444507,52.579787],[13.444498,52.579643],[13.444488,52.5795],[13.444467,52.579205],[13.444467,52.579199],[13.444466,52.579182],[13.444461,52.579121],[13.44446,52.579112],[13.444458,52.579088],[13.444456,52.579057],[13.44444,52.57881],[13.444436,52.578741],[13.444427,52.578598],[13.444418,52.578454],[13.444409,52.578309],[13.444401,52.57818],[13.4444,52.578164],[13.444398,52.578119],[13.444397,52.578104],[13.444383,52.577903],[13.444369,52.577691],[13.444359,52.577545],[13.444354,52.577466],[13.444352,52.577439],[13.44435,52.577403],[13.444339,52.577249],[13.444301,52.57667],[13.44429,52.576505],[13.444268,52.576217],[13.444257,52.576069],[13.444244,52.575881],[13.444233,52.575704],[13.444145,52.574392],[13.444118,52.573981],[13.444093,52.573608],[13.444093,52.573603],[13.444211,52.573562],[13.444205,52.573481],[13.444178,52.573096],[13.444148,52.572976],[13.444111,52.57291],[13.444076,52.572846],[13.444033,52.572769],[13.443886,52.572822],[13.443873,52.572827],[13.443488,52.572589],[13.443202,52.572541],[13.443086,52.572522],[13.442967,52.572502],[13.442917,52.572426],[13.442916,52.572408],[13.442787,52.572326],[13.442703,52.572273],[13.442561,52.572183],[13.442477,52.572129],[13.442343,52.572044],[13.442132,52.571909],[13.442122,52.571903],[13.442039,52.571852],[13.441848,52.57173],[13.441652,52.571605],[13.441507,52.571512],[13.441356,52.571416],[13.441162,52.571292],[13.44096,52.571163],[13.440642,52.57096],[13.440561,52.570909],[13.440465,52.57094],[13.440372,52.57097],[13.440086,52.571063],[13.439678,52.571195],[13.439567,52.571228],[13.439369,52.571293],[13.439191,52.571351],[13.439051,52.571397],[13.438944,52.571431],[13.438854,52.57146],[13.438762,52.57149],[13.438652,52.571525],[13.438628,52.571533],[13.438564,52.571554],[13.438542,52.571561],[13.438429,52.571598],[13.438399,52.571607],[13.438338,52.571627],[13.438281,52.571646],[13.438259,52.571653],[13.43815,52.571688],[13.43802,52.57173],[13.437785,52.571807],[13.437723,52.571826],[13.437634,52.571855],[13.437547,52.571883],[13.437479,52.571904],[13.437489,52.571745],[13.437504,52.571501],[13.437513,52.571355],[13.437523,52.571197],[13.437533,52.570792],[13.437534,52.570762],[13.437537,52.570723],[13.437543,52.570642],[13.437546,52.570608],[13.437576,52.570304],[13.437591,52.570144],[13.437619,52.569861],[13.43762,52.569848],[13.437622,52.569826],[13.437463,52.569842],[13.437102,52.569814],[13.436996,52.569804],[13.43664,52.56977],[13.436544,52.569765],[13.436493,52.569763],[13.436422,52.569675],[13.436413,52.569657],[13.436373,52.569579],[13.436359,52.569546],[13.43628,52.569372],[13.436223,52.569254],[13.436167,52.569132],[13.436122,52.569036],[13.435661,52.56807],[13.435842,52.56801],[13.435965,52.56797],[13.436026,52.567951],[13.436322,52.567861],[13.436387,52.567841],[13.436397,52.567838],[13.436419,52.567832],[13.436728,52.567733],[13.436686,52.567631],[13.436639,52.567517],[13.436598,52.567416],[13.436555,52.567311],[13.436511,52.567205],[13.436431,52.566998],[13.43639,52.566893],[13.436349,52.566787],[13.436306,52.566683],[13.436261,52.566576],[13.436137,52.566263],[13.436077,52.566105],[13.436017,52.565948],[13.435932,52.565724],[13.435884,52.565681],[13.435879,52.565669],[13.435794,52.565451],[13.435739,52.565309],[13.435684,52.565168],[13.435616,52.564994],[13.435545,52.565015],[13.435455,52.565043],[13.435347,52.565076],[13.435262,52.565101],[13.435168,52.56513],[13.435069,52.56516],[13.434917,52.565206],[13.434877,52.565218],[13.434736,52.565261],[13.434692,52.565275],[13.43459,52.565306],[13.434559,52.565315],[13.434494,52.565335],[13.434424,52.565356],[13.434369,52.565373],[13.434288,52.565398],[13.434235,52.565414],[13.43417,52.565433],[13.434154,52.565438],[13.434059,52.565467],[13.434047,52.565471],[13.433929,52.565507],[13.433783,52.565551],[13.433714,52.565572],[13.433629,52.565598],[13.433564,52.565618],[13.433462,52.565649],[13.433428,52.565659],[13.43319,52.565731],[13.433148,52.565744],[13.432999,52.565789],[13.432912,52.565816],[13.432784,52.565855],[13.43266,52.565893],[13.432651,52.565895],[13.432556,52.565924],[13.43252,52.565935],[13.432404,52.56597],[13.432388,52.565975],[13.432246,52.566018],[13.432218,52.566027],[13.432071,52.566072],[13.432021,52.566087],[13.431965,52.566104],[13.431856,52.566137],[13.431827,52.566146],[13.431542,52.566232],[13.431409,52.566273],[13.431403,52.566275],[13.431258,52.566319],[13.431141,52.566354],[13.431027,52.566389],[13.430952,52.566412],[13.430872,52.566436],[13.430807,52.566456],[13.430788,52.566462],[13.430722,52.566482],[13.430703,52.566487],[13.430593,52.566521],[13.430477,52.566556],[13.430375,52.566587],[13.430254,52.566624],[13.430106,52.566669],[13.43001,52.566698],[13.429984,52.566706],[13.42987,52.566741],[13.429812,52.566758],[13.429766,52.566772],[13.42967,52.566802],[13.429618,52.566817],[13.429528,52.566845],[13.429466,52.566863],[13.429408,52.566881],[13.429355,52.566897],[13.429292,52.566916],[13.429184,52.566949],[13.429143,52.566962],[13.429064,52.566986],[13.429052,52.566989],[13.428943,52.567022],[13.428893,52.567038],[13.428845,52.567052],[13.428833,52.567056],[13.428713,52.567092],[13.428635,52.567116],[13.42854,52.567145],[13.428448,52.567173],[13.428345,52.567204],[13.428254,52.567232],[13.428147,52.567264],[13.428039,52.567297],[13.427893,52.567343],[13.427808,52.567367],[13.427716,52.56701],[13.427702,52.566953],[13.427689,52.566904],[13.427576,52.566464],[13.427549,52.566356],[13.427522,52.566249],[13.427493,52.566134],[13.427466,52.56603],[13.427454,52.56598],[13.427436,52.565909],[13.427391,52.565716],[13.427368,52.565618],[13.427352,52.565552],[13.427331,52.565462],[13.427305,52.565355],[13.427279,52.565243],[13.427252,52.565129],[13.427209,52.564948],[13.42727,52.564678],[13.427323,52.564445],[13.427394,52.56413],[13.427411,52.564056],[13.427447,52.563896],[13.427502,52.563653],[13.427567,52.563371],[13.427575,52.563334],[13.427626,52.563114],[13.427628,52.563108],[13.42769,52.563089],[13.427808,52.563054],[13.427852,52.563041],[13.427987,52.563001],[13.428197,52.562939],[13.428408,52.562876],[13.428653,52.562803],[13.428801,52.562759],[13.428841,52.562747],[13.42894,52.562717],[13.429128,52.56266],[13.429274,52.562616],[13.429513,52.562544],[13.429582,52.562523],[13.429642,52.562506],[13.429833,52.562449],[13.429967,52.562409],[13.430168,52.56235],[13.430293,52.562312],[13.430496,52.562252],[13.430732,52.562182],[13.430937,52.562121],[13.431211,52.56204],[13.431258,52.562026],[13.431426,52.561976],[13.431502,52.561954],[13.431615,52.56192],[13.431801,52.561865],[13.431822,52.561859],[13.431911,52.561833],[13.43202,52.5618],[13.432184,52.561752],[13.432218,52.561742],[13.432335,52.561707],[13.4325,52.561658],[13.432673,52.561607],[13.432728,52.56159],[13.432832,52.561559],[13.432957,52.561522],[13.433144,52.561465],[13.433295,52.56142],[13.433508,52.561356],[13.433554,52.561342],[13.433572,52.561337],[13.433689,52.561302],[13.433871,52.561247],[13.433876,52.561245],[13.434042,52.561195],[13.434057,52.561191],[13.434111,52.561175],[13.434024,52.560952],[13.43392,52.560689],[13.433815,52.560423],[13.433794,52.560371],[13.433735,52.560219],[13.433705,52.560145],[13.433579,52.559832],[13.433577,52.559828],[13.433574,52.55982],[13.433571,52.559814],[13.433393,52.559366],[13.433318,52.559176],[13.433171,52.558806],[13.433164,52.558788],[13.433134,52.558714],[13.43311,52.558655],[13.433077,52.558571],[13.433025,52.558439],[13.432947,52.558237],[13.43292,52.558166],[13.432888,52.558084],[13.432817,52.557985],[13.432744,52.557884],[13.432793,52.55787],[13.433462,52.557672],[13.433575,52.557722],[13.433722,52.557788],[13.433756,52.557803],[13.433908,52.55787],[13.433942,52.557885],[13.434091,52.557951],[13.434119,52.557963],[13.43427,52.55803],[13.434304,52.558045],[13.434453,52.558111],[13.434484,52.558125],[13.434653,52.5582],[13.434905,52.558316],[13.435095,52.558398],[13.435125,52.558411],[13.4351,52.558435],[13.435249,52.558501],[13.435279,52.558515],[13.43543,52.558583],[13.435461,52.558597],[13.43561,52.558664],[13.435643,52.558678],[13.435748,52.558725],[13.435827,52.558761],[13.435806,52.558779],[13.43606,52.558889],[13.43618,52.558942],[13.436237,52.558967],[13.436273,52.558983],[13.436567,52.559111],[13.436684,52.559162],[13.436759,52.559194],[13.436798,52.559211],[13.437067,52.559329],[13.437187,52.559381],[13.437254,52.55941],[13.437434,52.559477],[13.437571,52.559359],[13.437653,52.559289],[13.437731,52.559223],[13.437795,52.559167],[13.437867,52.559106],[13.437938,52.559044],[13.438007,52.558986],[13.438048,52.55895],[13.438069,52.558933],[13.438448,52.558612],[13.438516,52.558642],[13.43917,52.558927],[13.439235,52.558955],[13.439446,52.559048],[13.439459,52.559054],[13.44003,52.559305],[13.440052,52.559315],[13.439432,52.559831],[13.439425,52.559836],[13.43941,52.559849],[13.439043,52.560162],[13.439031,52.560172],[13.438956,52.560236],[13.438904,52.56028],[13.439004,52.560326],[13.439305,52.560465],[13.439748,52.560658],[13.439754,52.560661],[13.439874,52.560713],[13.440197,52.560853],[13.440486,52.560981],[13.440822,52.561132],[13.441112,52.561259],[13.441554,52.561453],[13.441846,52.561581],[13.442023,52.561659],[13.442065,52.561677],[13.442089,52.561688],[13.442624,52.561926],[13.443562,52.562308],[13.44399,52.562479],[13.444038,52.562498],[13.444088,52.562515],[13.444103,52.56252],[13.444412,52.562634],[13.444613,52.562712],[13.444811,52.562788],[13.445007,52.562863],[13.44521,52.562937],[13.445415,52.563012],[13.445604,52.563081],[13.445616,52.563085],[13.445818,52.563162],[13.44602,52.563239],[13.44633,52.563358],[13.44637,52.563366],[13.446435,52.56338],[13.446482,52.56339],[13.446533,52.563524],[13.446589,52.563546],[13.446835,52.563641],[13.447388,52.563855],[13.447965,52.564078],[13.44813,52.564147],[13.448137,52.56415],[13.448261,52.564202],[13.448287,52.564213],[13.448291,52.564222],[13.448374,52.564408],[13.448426,52.564525],[13.448042,52.564819],[13.447965,52.564861],[13.447861,52.565014],[13.447734,52.565203],[13.447683,52.565292],[13.447609,52.565412],[13.447604,52.565427],[13.447592,52.565451],[13.447579,52.565476],[13.447568,52.5655],[13.447556,52.565525],[13.447541,52.56555],[13.447531,52.565574],[13.447519,52.565599],[13.447506,52.565624],[13.447494,52.565648],[13.447482,52.565673],[13.447326,52.56602],[13.447166,52.566376],[13.447079,52.566566],[13.447068,52.56659],[13.447057,52.566615],[13.447046,52.56664],[13.447035,52.566665],[13.447024,52.56669],[13.447013,52.566715],[13.446866,52.567036],[13.446698,52.567416],[13.446618,52.567589],[13.446607,52.567614],[13.446596,52.567639],[13.446584,52.567664],[13.446573,52.567689],[13.446561,52.567714],[13.44655,52.567738],[13.446427,52.568008],[13.446242,52.568419],[13.446232,52.568441],[13.446224,52.568459],[13.446484,52.568529],[13.44652,52.568552],[13.446538,52.568564],[13.446749,52.568698],[13.446782,52.568719],[13.447025,52.568874],[13.447268,52.569029],[13.447372,52.569095],[13.447917,52.569442],[13.447947,52.569461],[13.448168,52.569602],[13.448359,52.569724],[13.448439,52.569775],[13.44849,52.569807],[13.448597,52.569876],[13.448716,52.569951],[13.448912,52.570076],[13.449334,52.570349],[13.449355,52.570362],[13.449375,52.570375],[13.449446,52.570421],[13.449458,52.570428],[13.449552,52.570488],[13.449591,52.570513],[13.450067,52.570814],[13.450262,52.570937],[13.450964,52.571382],[13.451061,52.571443],[13.451664,52.571825],[13.451653,52.571834],[13.451632,52.57185],[13.451672,52.571875],[13.452329,52.572294],[13.452484,52.572393],[13.452717,52.572541],[13.4528,52.572594],[13.452951,52.57269],[13.453136,52.572808],[13.453549,52.573071],[13.453821,52.573245],[13.453866,52.573274],[13.453913,52.573304],[13.454213,52.573495],[13.454472,52.573661],[13.454643,52.57377],[13.454691,52.5738],[13.45493,52.573953],[13.45523,52.574142],[13.455258,52.574159],[13.455536,52.574334],[13.455662,52.574414],[13.456205,52.574759],[13.456288,52.574811],[13.456461,52.574921],[13.456892,52.575195],[13.457328,52.575471],[13.457504,52.575583],[13.45751,52.575649],[13.457517,52.575732],[13.457559,52.576228],[13.457599,52.576686],[13.457625,52.577049],[13.45764,52.577267],[13.457657,52.577403],[13.457684,52.57755],[13.45772,52.577696],[13.457764,52.577837],[13.457822,52.577975],[13.457887,52.578116],[13.457962,52.578252],[13.458046,52.578388],[13.458383,52.578894],[13.458395,52.578912],[13.458531,52.579112],[13.458557,52.579148],[13.458582,52.579184],[13.458942,52.579725],[13.459367,52.580365],[13.459514,52.580334],[13.459626,52.580499],[13.459723,52.580641],[13.459728,52.580652],[13.460194,52.581126],[13.460951,52.581899],[13.461011,52.58196],[13.462114,52.583092],[13.462879,52.583875],[13.46289,52.583886],[13.462909,52.583906],[13.462976,52.583973],[13.463014,52.584012],[13.463079,52.58408],[13.463139,52.58414],[13.463161,52.584163],[13.4632,52.584203],[13.463287,52.584292],[13.463837,52.584854],[13.465486,52.586547],[13.465547,52.586586],[13.465658,52.586657],[13.465721,52.586695],[13.46578,52.586729],[13.465801,52.586742],[13.465828,52.586759],[13.465837,52.586764],[13.46557,52.586923],[13.465307,52.58708],[13.465245,52.587117],[13.46519,52.587149],[13.465166,52.587162],[13.464956,52.587285],[13.46472,52.587423],[13.464505,52.587549],[13.464293,52.587673],[13.464081,52.587798],[13.463899,52.587904],[13.463867,52.587923],[13.463718,52.588006],[13.463563,52.588081],[13.463486,52.588113],[13.463345,52.588179],[13.463248,52.58822],[13.463079,52.588286],[13.463022,52.588308],[13.462909,52.588351],[13.462739,52.588411],[13.462567,52.58847],[13.462483,52.588494],[13.462251,52.58856],[13.462202,52.588574],[13.461832,52.588666],[13.461461,52.588741],[13.461099,52.588802],[13.460809,52.588838],[13.460732,52.588847],[13.460529,52.588862],[13.460445,52.588869],[13.460264,52.58888],[13.460166,52.588884],[13.460147,52.588885],[13.460011,52.588891],[13.459859,52.588897],[13.459767,52.588901],[13.459599,52.588908],[13.45952,52.588915],[13.459456,52.588921],[13.459319,52.588951],[13.459247,52.588976],[13.459195,52.588994],[13.459087,52.589049],[13.459027,52.589092],[13.458995,52.589115],[13.458924,52.589191],[13.458872,52.58927],[13.458865,52.589292],[13.458846,52.589353],[13.458811,52.58956],[13.458751,52.589917],[13.458752,52.59005],[13.4587,52.590212],[13.458659,52.59034],[13.458611,52.59051],[13.458525,52.590797],[13.458498,52.590882],[13.458489,52.590908],[13.458499,52.590943],[13.45851,52.590979],[13.458576,52.591192],[13.45862,52.591349],[13.458715,52.591653],[13.458726,52.591691],[13.458742,52.591748],[13.458753,52.591786],[13.458797,52.591933],[13.458729,52.592136],[13.458631,52.592427],[13.458584,52.592574],[13.458538,52.592716],[13.458479,52.592889],[13.458367,52.593239],[13.458323,52.593373],[13.457399,52.593259],[13.456524,52.59315],[13.45644,52.59314],[13.455903,52.593073],[13.455611,52.593039],[13.455014,52.592966],[13.454928,52.592955],[13.454818,52.592942],[13.454256,52.592874],[13.454213,52.592868],[13.453884,52.592828],[13.453323,52.59276],[13.453349,52.592646],[13.453369,52.592556],[13.453449,52.592202],[13.45346,52.592152],[13.453472,52.592107],[13.453462,52.592026],[13.453476,52.591928],[13.45348,52.591892],[13.453481,52.591856],[13.45348,52.591784],[13.453477,52.591738],[13.453468,52.591682],[13.45346,52.591637],[13.453448,52.591591],[13.453444,52.591522],[13.453438,52.591504],[13.45343,52.591481],[13.453421,52.591459],[13.453409,52.591429],[13.45323,52.59142],[13.452199,52.591367],[13.451554,52.591336],[13.450858,52.591315],[13.450753,52.591311],[13.450745,52.591338],[13.449998,52.591263],[13.449736,52.591233],[13.449708,52.59123],[13.44966,52.591224],[13.448352,52.591081],[13.448261,52.591072],[13.448107,52.591054],[13.446282,52.590838],[13.44591,52.590794],[13.445729,52.591357],[13.445654,52.591589],[13.445546,52.591926],[13.445923,52.592068],[13.447353,52.592605],[13.447355,52.592606],[13.447358,52.592607],[13.447361,52.592608],[13.447485,52.592676],[13.447584,52.592697],[13.44759,52.592741],[13.447593,52.592766],[13.447641,52.592929],[13.447685,52.593051],[13.447778,52.593233],[13.447813,52.593301],[13.447877,52.593425],[13.447953,52.593506],[13.448007,52.593552],[13.448147,52.593705],[13.448341,52.593867],[13.448405,52.593912],[13.448534,52.593985],[13.448528,52.594025],[13.448461,52.594039],[13.448453,52.594055],[13.44844,52.594084],[13.44842,52.59415],[13.448359,52.594145],[13.448352,52.594185],[13.448316,52.594183],[13.448275,52.594443],[13.448263,52.594559],[13.448267,52.594676],[13.448279,52.594761],[13.448302,52.594851],[13.448328,52.594937],[13.448365,52.595028],[13.44838,52.595054],[13.448417,52.595114],[13.448475,52.595198],[13.44855,52.595293],[13.448608,52.595358],[13.448749,52.595517],[13.448836,52.595617],[13.449031,52.595842],[13.449231,52.596074],[13.449239,52.596081],[13.449283,52.596121],[13.449401,52.596228],[13.449414,52.59624],[13.449168,52.596209],[13.448379,52.596109],[13.448368,52.5961],[13.448332,52.596067],[13.448243,52.595987],[13.448219,52.595994],[13.448187,52.596003],[13.448168,52.596009],[13.448102,52.596029],[13.448045,52.596045],[13.448007,52.59601],[13.447964,52.595969],[13.447924,52.595932],[13.447919,52.595927],[13.447708,52.595732],[13.447465,52.595508],[13.447377,52.595426],[13.447343,52.595395],[13.447212,52.595273],[13.446931,52.595052],[13.446824,52.594967],[13.446645,52.594827],[13.446564,52.59476],[13.446364,52.594596],[13.446198,52.59446],[13.446185,52.594448],[13.446043,52.594317],[13.445865,52.594152],[13.445902,52.594136],[13.445906,52.594135],[13.445604,52.593862],[13.445433,52.593707],[13.445183,52.593482],[13.445026,52.593333],[13.444605,52.592949],[13.444359,52.592725],[13.444338,52.592705],[13.444233,52.592605],[13.444041,52.592425],[13.443821,52.592224],[13.443633,52.592053],[13.443611,52.592032],[13.443603,52.592025],[13.443433,52.591866],[13.443421,52.591854],[13.443114,52.591976],[13.442864,52.592076],[13.442616,52.592175],[13.442614,52.592173],[13.442572,52.59219],[13.442363,52.592274]]]]}},{"type":"Feature","id":1,"properties":{"schluessel":"VR0401","gebietsname":"Stadteingang West - Autobahndreieck Funkturm","bezirk":"Charlottenburg-Wilmersdorf","fl_in_ha":"152.2","datum_gvbl":"10.07.2020","datum_in_kraft":"11.07.2020","gvbl_link":"https://www.berlin.de/sen/justiz/service/gesetze-und-verordnungen/2020/ausgabe_nr._33_vom_10.7.2020_s._589-608.pdf","weitere_link":"https://www.stadtentwicklung.berlin.de/staedtebau/projekte/stadteingang-west/index.shtml","fachlich_zust":"SenStadt II A"},"geometry":{"type":"MultiPolygon","coordinates":[[[[13.260745,52.48928],[13.260608,52.489345],[13.260599,52.48935],[13.260526,52.48936],[13.260457,52.489355],[13.260468,52.489363],[13.260561,52.489435],[13.260473,52.489477],[13.260867,52.489789],[13.260836,52.489802],[13.261139,52.490042],[13.261728,52.490526],[13.261922,52.490686],[13.262108,52.490839],[13.262205,52.490919],[13.262258,52.490962],[13.26231,52.491005],[13.262363,52.491049],[13.26246,52.491128],[13.262684,52.491313],[13.262885,52.491478],[13.2629,52.49149],[13.263015,52.491585],[13.263104,52.491658],[13.263326,52.491841],[13.263423,52.491921],[13.263485,52.491972],[13.263736,52.492171],[13.26388,52.492285],[13.263951,52.492341],[13.264021,52.492397],[13.264156,52.492503],[13.264289,52.492608],[13.26436,52.492665],[13.264431,52.492721],[13.264565,52.492827],[13.264699,52.492933],[13.264769,52.492989],[13.26484,52.493045],[13.264984,52.493159],[13.265299,52.493408],[13.265371,52.493465],[13.265587,52.493636],[13.265688,52.493716],[13.265787,52.493794],[13.265886,52.493873],[13.265987,52.493953],[13.266077,52.494024],[13.266165,52.494094],[13.266226,52.494142],[13.26629,52.494192],[13.266376,52.494261],[13.266391,52.494272],[13.266773,52.494575],[13.266818,52.494611],[13.26689,52.494667],[13.266989,52.494746],[13.26707,52.49481],[13.267169,52.494888],[13.267229,52.494936],[13.26729,52.494984],[13.267389,52.495062],[13.267488,52.495141],[13.267549,52.495189],[13.267609,52.495237],[13.267708,52.495315],[13.267807,52.495393],[13.267868,52.495441],[13.267928,52.49549],[13.268027,52.495568],[13.268041,52.495578],[13.268445,52.495899],[13.26849,52.495934],[13.268494,52.495937],[13.2686,52.496021],[13.268672,52.496078],[13.268744,52.496135],[13.268816,52.496192],[13.268886,52.496249],[13.268988,52.496329],[13.269091,52.49641],[13.269194,52.496491],[13.269296,52.496572],[13.269368,52.496629],[13.26944,52.496686],[13.269511,52.496743],[13.269583,52.496799],[13.269691,52.496886],[13.269862,52.497021],[13.270207,52.497294],[13.269884,52.497448],[13.269831,52.497405],[13.269772,52.497433],[13.269656,52.497488],[13.269253,52.497679],[13.269246,52.497682],[13.269186,52.497711],[13.269131,52.497737],[13.268792,52.497897],[13.268378,52.498094],[13.268256,52.498151],[13.268146,52.498203],[13.26801,52.498268],[13.267815,52.49836],[13.267652,52.498438],[13.267587,52.498468],[13.267489,52.498515],[13.267099,52.4987],[13.266846,52.49882],[13.266778,52.498852],[13.266709,52.498885],[13.26664,52.498917],[13.266567,52.498948],[13.266494,52.498979],[13.26642,52.499009],[13.266336,52.499044],[13.266294,52.499061],[13.266201,52.499098],[13.266125,52.499127],[13.266048,52.499156],[13.265971,52.499185],[13.265907,52.499208],[13.265842,52.499231],[13.265777,52.499253],[13.265711,52.499275],[13.265702,52.499279],[13.265612,52.499309],[13.265547,52.499332],[13.265457,52.499364],[13.265376,52.499394],[13.265296,52.499424],[13.265236,52.499447],[13.265172,52.499472],[13.26511,52.499497],[13.265012,52.499536],[13.264916,52.499577],[13.26482,52.499618],[13.264725,52.49966],[13.264632,52.499702],[13.264539,52.499746],[13.264266,52.499875],[13.264476,52.50003],[13.264697,52.499926],[13.265001,52.499782],[13.265072,52.499752],[13.265155,52.499716],[13.265215,52.499691],[13.265288,52.499662],[13.265316,52.499701],[13.265443,52.499879],[13.266027,52.499683],[13.266558,52.499898],[13.266549,52.499905],[13.266418,52.500004],[13.266332,52.50008],[13.266236,52.500176],[13.266031,52.50039],[13.265925,52.500504],[13.265817,52.50063],[13.265711,52.500766],[13.265624,52.500899],[13.26551,52.50111],[13.265272,52.50155],[13.265007,52.50204],[13.264926,52.502027],[13.264924,52.50203],[13.26489,52.502106],[13.264993,52.502122],[13.264963,52.502199],[13.264778,52.50267],[13.264668,52.502973],[13.265504,52.502975],[13.265506,52.502975],[13.265957,52.502977],[13.266288,52.502468],[13.266441,52.502428],[13.266545,52.502267],[13.266501,52.502214],[13.266615,52.502039],[13.26665,52.501985],[13.266683,52.50193],[13.266715,52.501875],[13.266745,52.501819],[13.266774,52.501764],[13.266802,52.501708],[13.266832,52.501648],[13.266863,52.501588],[13.266896,52.501529],[13.266931,52.50147],[13.266967,52.501411],[13.267005,52.501353],[13.267045,52.501296],[13.267086,52.501238],[13.267129,52.501182],[13.267173,52.501125],[13.267219,52.501069],[13.267267,52.501014],[13.267321,52.500952],[13.267377,52.500891],[13.267433,52.500831],[13.267491,52.50077],[13.267549,52.50071],[13.267609,52.50065],[13.267658,52.500602],[13.267709,52.500555],[13.267762,52.500508],[13.267816,52.500462],[13.267871,52.500417],[13.267929,52.500372],[13.267987,52.500328],[13.268047,52.500285],[13.268109,52.500243],[13.268172,52.500201],[13.268236,52.50016],[13.268302,52.50012],[13.268358,52.500087],[13.268416,52.500054],[13.268474,52.500022],[13.268534,52.499991],[13.268594,52.49996],[13.268655,52.49993],[13.268693,52.499912],[13.26873,52.499894],[13.268768,52.499876],[13.268829,52.499849],[13.26889,52.499823],[13.268952,52.499797],[13.269015,52.499772],[13.269078,52.499747],[13.269143,52.499723],[13.269207,52.4997],[13.269228,52.499693],[13.269249,52.499685],[13.269271,52.499678],[13.269335,52.499656],[13.2694,52.499636],[13.269466,52.499615],[13.269532,52.499596],[13.269599,52.499577],[13.269666,52.499558],[13.27036,52.499374],[13.270915,52.499255],[13.270931,52.499251],[13.271204,52.499184],[13.271238,52.499232],[13.272007,52.500309],[13.272032,52.500344],[13.272073,52.500376],[13.27206,52.500383],[13.272068,52.500394],[13.272125,52.500439],[13.272169,52.500474],[13.27219,52.500469],[13.272232,52.500502],[13.272211,52.500507],[13.272323,52.500596],[13.27231,52.500602],[13.272574,52.500839],[13.272594,52.500856],[13.272615,52.500873],[13.272637,52.500889],[13.272664,52.500908],[13.272691,52.500926],[13.27272,52.500944],[13.27275,52.500961],[13.27278,52.500977],[13.272814,52.500994],[13.272849,52.501011],[13.272885,52.501026],[13.272922,52.501041],[13.27296,52.501055],[13.272998,52.501067],[13.273037,52.50108],[13.273076,52.501092],[13.273115,52.501103],[13.273154,52.501114],[13.273195,52.501123],[13.273236,52.501131],[13.273277,52.501139],[13.273319,52.501145],[13.273361,52.501151],[13.273404,52.501155],[13.273446,52.501159],[13.273489,52.501161],[13.273532,52.501163],[13.273575,52.501163],[13.273619,52.501162],[13.273662,52.501161],[13.273705,52.501158],[13.273737,52.501151],[13.274022,52.501016],[13.27445,52.500816],[13.274461,52.500825],[13.27682,52.502691],[13.277224,52.50301],[13.27771,52.503395],[13.277719,52.503402],[13.277727,52.50341],[13.277734,52.503418],[13.277781,52.503473],[13.277797,52.503491],[13.277808,52.503504],[13.277821,52.503516],[13.277835,52.503528],[13.27785,52.503539],[13.277866,52.50355],[13.277883,52.50356],[13.277931,52.503587],[13.27803,52.503641],[13.278051,52.503652],[13.278072,52.503662],[13.278095,52.503672],[13.278118,52.50368],[13.278142,52.503688],[13.278167,52.503695],[13.278193,52.503702],[13.278218,52.503707],[13.278352,52.503734],[13.278414,52.503817],[13.278456,52.503806],[13.278472,52.503802],[13.278489,52.503799],[13.278505,52.503797],[13.278523,52.503795],[13.27854,52.503795],[13.278558,52.503794],[13.278576,52.503795],[13.278594,52.503797],[13.278612,52.503799],[13.278629,52.503802],[13.278647,52.503806],[13.278664,52.503811],[13.278681,52.503816],[13.278697,52.503823],[13.278712,52.50383],[13.278726,52.503837],[13.278739,52.503846],[13.278751,52.503855],[13.278762,52.503864],[13.278772,52.503874],[13.27878,52.503885],[13.278787,52.503895],[13.278793,52.503907],[13.278797,52.503918],[13.2788,52.503929],[13.278802,52.50394],[13.278802,52.503951],[13.278801,52.503962],[13.278798,52.503973],[13.278795,52.503983],[13.27879,52.503994],[13.278783,52.504005],[13.278774,52.504016],[13.278764,52.504027],[13.278753,52.504037],[13.278741,52.504047],[13.278727,52.504056],[13.278712,52.504064],[13.278724,52.504097],[13.278726,52.504104],[13.278744,52.504102],[13.278798,52.50425],[13.278819,52.504247],[13.278832,52.50428],[13.278835,52.504291],[13.278869,52.504287],[13.27892,52.504426],[13.278963,52.504541],[13.278979,52.504587],[13.27903,52.504724],[13.279043,52.504761],[13.279228,52.505262],[13.279241,52.50526],[13.279242,52.505264],[13.279255,52.505263],[13.279269,52.505263],[13.279282,52.505263],[13.279295,52.505264],[13.279308,52.505267],[13.279306,52.505269],[13.27932,52.505273],[13.279333,52.505277],[13.279344,52.505283],[13.279355,52.50529],[13.279363,52.505297],[13.27937,52.505305],[13.279375,52.505313],[13.279379,52.505322],[13.27938,52.505331],[13.279379,52.50534],[13.279377,52.505349],[13.279376,52.505351],[13.279372,52.505358],[13.279365,52.505366],[13.279357,52.505374],[13.279347,52.505381],[13.27935,52.505383],[13.279342,52.505387],[13.279333,52.505391],[13.279323,52.505395],[13.279313,52.505398],[13.279303,52.5054],[13.279292,52.505402],[13.279278,52.505364],[13.279194,52.505375],[13.279215,52.505433],[13.27935,52.505801],[13.279367,52.505847],[13.279387,52.505851],[13.279407,52.505856],[13.279425,52.505862],[13.279443,52.505869],[13.27946,52.505876],[13.279476,52.505885],[13.279491,52.505894],[13.279504,52.505904],[13.279516,52.505914],[13.279526,52.505926],[13.279535,52.505937],[13.279542,52.505949],[13.279547,52.505962],[13.279551,52.505974],[13.279553,52.505986],[13.279553,52.505999],[13.279552,52.506011],[13.279549,52.506023],[13.279545,52.506035],[13.279539,52.506047],[13.279531,52.506058],[13.279522,52.506069],[13.279512,52.50608],[13.2795,52.50609],[13.279684,52.50624],[13.280259,52.506709],[13.280227,52.506966],[13.280342,52.506972],[13.280332,52.507047],[13.280324,52.507115],[13.280444,52.507122],[13.280468,52.507165],[13.280494,52.507207],[13.28052,52.50725],[13.280548,52.507292],[13.280823,52.507697],[13.281308,52.508414],[13.281456,52.508633],[13.281483,52.508879],[13.281488,52.508897],[13.281493,52.508915],[13.281497,52.508934],[13.281509,52.508988],[13.281519,52.509043],[13.281528,52.509098],[13.281534,52.509153],[13.281539,52.509208],[13.281543,52.509263],[13.281544,52.509318],[13.281544,52.509373],[13.281542,52.509428],[13.281526,52.509713],[13.282114,52.50975],[13.282114,52.509732],[13.282157,52.50892],[13.282149,52.508674],[13.282147,52.508647],[13.282142,52.508604],[13.282135,52.508561],[13.282127,52.508518],[13.282117,52.508475],[13.282113,52.508456],[13.282108,52.508436],[13.282103,52.508417],[13.2821,52.508407],[13.282097,52.508398],[13.282094,52.508389],[13.28208,52.508348],[13.282064,52.508306],[13.282047,52.508265],[13.282028,52.508224],[13.282007,52.508183],[13.281985,52.508143],[13.281962,52.508103],[13.281937,52.508064],[13.281911,52.508024],[13.281883,52.507986],[13.281854,52.507947],[13.281823,52.507909],[13.281817,52.507901],[13.28181,52.507893],[13.281803,52.507885],[13.281783,52.507862],[13.281762,52.507839],[13.28174,52.507816],[13.281725,52.507799],[13.281709,52.507783],[13.281693,52.507767],[13.28167,52.507744],[13.281648,52.507722],[13.281625,52.5077],[13.281621,52.507696],[13.281592,52.50767],[13.281563,52.507643],[13.281534,52.507617],[13.281524,52.507607],[13.281514,52.507598],[13.281503,52.507588],[13.281366,52.507462],[13.281332,52.50743],[13.281298,52.507398],[13.281266,52.507366],[13.281234,52.507333],[13.281204,52.5073],[13.281174,52.507267],[13.281145,52.507234],[13.281117,52.5072],[13.28109,52.507166],[13.281064,52.507131],[13.281048,52.507109],[13.281032,52.507087],[13.281017,52.507065],[13.281007,52.507049],[13.280996,52.507032],[13.280986,52.507015],[13.280979,52.507004],[13.280972,52.506993],[13.280966,52.506981],[13.280949,52.506951],[13.280932,52.50692],[13.280917,52.506889],[13.280902,52.506858],[13.280888,52.506827],[13.280842,52.50668],[13.280665,52.506117],[13.281761,52.506147],[13.281783,52.506208],[13.281805,52.506224],[13.281825,52.50624],[13.283132,52.506283],[13.283089,52.506171],[13.283035,52.506032],[13.283046,52.506009],[13.283078,52.505942],[13.283107,52.505881],[13.28317,52.505749],[13.283195,52.505694],[13.283299,52.505475],[13.2834,52.505262],[13.283402,52.505259],[13.283495,52.505042],[13.283584,52.504834],[13.283685,52.504598],[13.283761,52.50442],[13.283788,52.504362],[13.283889,52.504127],[13.283988,52.503895],[13.284079,52.503684],[13.284091,52.503656],[13.284146,52.503527],[13.284169,52.503474],[13.284186,52.503434],[13.284481,52.503481],[13.284651,52.503508],[13.284662,52.503496],[13.284672,52.503485],[13.284684,52.503473],[13.284698,52.503459],[13.284713,52.503445],[13.284728,52.503432],[13.284747,52.503414],[13.284768,52.503397],[13.284789,52.503381],[13.284811,52.503364],[13.284833,52.503349],[13.284855,52.503334],[13.284878,52.50332],[13.284911,52.5033],[13.284946,52.50328],[13.284981,52.503261],[13.285018,52.503243],[13.285056,52.503226],[13.285094,52.503209],[13.285134,52.503194],[13.285174,52.503179],[13.285215,52.503165],[13.285257,52.503152],[13.2853,52.50314],[13.285344,52.503128],[13.285388,52.503118],[13.285433,52.503108],[13.285478,52.5031],[13.285524,52.503092],[13.28557,52.503085],[13.285579,52.503084],[13.285587,52.503083],[13.285596,52.503082],[13.285612,52.50308],[13.285627,52.503078],[13.285643,52.503077],[13.285653,52.503076],[13.285663,52.503075],[13.285673,52.503074],[13.285678,52.503074],[13.285683,52.503073],[13.285687,52.503073],[13.285732,52.503069],[13.286147,52.503036],[13.286423,52.503014],[13.286491,52.503009],[13.286511,52.503008],[13.286809,52.502984],[13.287583,52.502922],[13.287562,52.502824],[13.287557,52.502803],[13.287516,52.502609],[13.287507,52.502564],[13.287495,52.502509],[13.28749,52.502483],[13.287465,52.502368],[13.287624,52.502361],[13.287782,52.502355],[13.287838,52.502352],[13.287893,52.50235],[13.288003,52.502357],[13.288112,52.502365],[13.288173,52.502369],[13.288234,52.502373],[13.288324,52.502383],[13.288414,52.502392],[13.288624,52.502414],[13.288667,52.502419],[13.288833,52.502436],[13.28895,52.502448],[13.289068,52.502461],[13.289157,52.502469],[13.289245,52.502477],[13.289329,52.502484],[13.289532,52.502503],[13.289625,52.502511],[13.289797,52.502527],[13.289932,52.502548],[13.290342,52.502602],[13.290375,52.502607],[13.290496,52.502623],[13.290728,52.502653],[13.290989,52.502688],[13.291547,52.502762],[13.291894,52.502814],[13.292346,52.502881],[13.292418,52.502891],[13.294751,52.503235],[13.295302,52.503317],[13.295364,52.503297],[13.295389,52.503256],[13.295426,52.503193],[13.295485,52.503094],[13.295503,52.503063],[13.295541,52.502999],[13.295565,52.502959],[13.295574,52.502943],[13.295636,52.502839],[13.295654,52.502809],[13.295662,52.502795],[13.295708,52.502716],[13.295755,52.502638],[13.295801,52.50256],[13.295847,52.502481],[13.295863,52.502455],[13.295885,52.502419],[13.295809,52.502399],[13.295807,52.5024],[13.294783,52.502123],[13.294787,52.502118],[13.294613,52.502068],[13.294185,52.501943],[13.294057,52.501906],[13.294054,52.50191],[13.293442,52.501728],[13.293437,52.501735],[13.293108,52.501643],[13.292554,52.501484],[13.292554,52.501483],[13.292438,52.501447],[13.292436,52.501449],[13.292061,52.501334],[13.292049,52.501349],[13.291962,52.501322],[13.291624,52.501226],[13.291422,52.50117],[13.291309,52.501153],[13.29056,52.500944],[13.290742,52.500718],[13.290447,52.500615],[13.290465,52.500597],[13.29046,52.500595],[13.290603,52.500439],[13.290594,52.500436],[13.290675,52.500356],[13.290715,52.500317],[13.290676,52.500302],[13.290552,52.500254],[13.290439,52.50021],[13.290427,52.500207],[13.290219,52.500125],[13.290152,52.5001],[13.290011,52.500044],[13.289993,52.500053],[13.289529,52.499865],[13.289431,52.499825],[13.289427,52.499823],[13.289193,52.499728],[13.289186,52.499726],[13.289139,52.499708],[13.289042,52.499671],[13.289013,52.49966],[13.288971,52.499643],[13.288859,52.499601],[13.288614,52.499505],[13.288567,52.499489],[13.2884,52.499421],[13.288326,52.499393],[13.287988,52.499257],[13.287984,52.499238],[13.287957,52.499121],[13.287951,52.499045],[13.287987,52.498805],[13.287996,52.498743],[13.288004,52.498684],[13.28801,52.498644],[13.288064,52.498511],[13.288106,52.49841],[13.288127,52.49836],[13.288178,52.498238],[13.28821,52.498192],[13.288277,52.498097],[13.28832,52.498037],[13.2884,52.497924],[13.288429,52.497883],[13.288452,52.49785],[13.28857,52.497743],[13.288718,52.497607],[13.288748,52.49758],[13.288829,52.497505],[13.288945,52.49742],[13.28929,52.497164],[13.289318,52.497143],[13.289328,52.497136],[13.289497,52.497],[13.28943,52.496979],[13.289424,52.496983],[13.289172,52.496906],[13.28916,52.496902],[13.288864,52.496811],[13.288849,52.496807],[13.288766,52.496781],[13.288544,52.496713],[13.288497,52.496699],[13.288256,52.496874],[13.288142,52.496956],[13.288079,52.497],[13.287685,52.497268],[13.287616,52.497306],[13.287403,52.497426],[13.287105,52.497542],[13.286811,52.497646],[13.286685,52.497688],[13.286595,52.497717],[13.286551,52.497731],[13.286468,52.497756],[13.28606,52.497852],[13.285956,52.497877],[13.285899,52.497899],[13.285823,52.49791],[13.285718,52.497925],[13.285657,52.497935],[13.285614,52.497932],[13.284602,52.497958],[13.284221,52.497946],[13.284103,52.497933],[13.283985,52.49792],[13.283868,52.497907],[13.283785,52.497897],[13.283703,52.497887],[13.28362,52.497877],[13.283489,52.497852],[13.283358,52.497827],[13.283227,52.497801],[13.283221,52.497806],[13.283085,52.497766],[13.282901,52.497696],[13.282752,52.497637],[13.282611,52.497581],[13.282468,52.497525],[13.282331,52.497471],[13.282306,52.497461],[13.282151,52.497398],[13.282015,52.497331],[13.282002,52.497326],[13.281757,52.497207],[13.281738,52.497103],[13.281801,52.497058],[13.281701,52.497006],[13.281602,52.496955],[13.281503,52.496903],[13.281289,52.496793],[13.280974,52.496628],[13.279851,52.496046],[13.279744,52.495991],[13.279158,52.495686],[13.279047,52.495769],[13.278991,52.495812],[13.278948,52.495844],[13.278849,52.495809],[13.278581,52.495685],[13.278016,52.495413],[13.277703,52.49527],[13.277656,52.495249],[13.27761,52.495229],[13.277562,52.49521],[13.277513,52.495192],[13.277464,52.495174],[13.277415,52.495157],[13.277307,52.495114],[13.277199,52.495073],[13.277091,52.495032],[13.276981,52.494992],[13.27687,52.494953],[13.276759,52.494915],[13.276647,52.494877],[13.276534,52.494841],[13.27556,52.494518],[13.275245,52.49441],[13.27502,52.494336],[13.274739,52.494238],[13.274625,52.494196],[13.274511,52.494153],[13.274399,52.494109],[13.274287,52.494064],[13.274176,52.494018],[13.274067,52.493972],[13.273958,52.493924],[13.273851,52.493875],[13.273745,52.493826],[13.27364,52.493776],[13.27321,52.493557],[13.272247,52.493059],[13.271439,52.49264],[13.27081,52.492314],[13.270383,52.492094],[13.269897,52.491843],[13.269852,52.491829],[13.269481,52.491638],[13.269289,52.491545],[13.269094,52.491453],[13.269058,52.491437],[13.268927,52.491374],[13.268572,52.491202],[13.268152,52.490998],[13.267729,52.490793],[13.267721,52.490789],[13.267714,52.490784],[13.267709,52.490778],[13.267705,52.490772],[13.267702,52.490766],[13.267701,52.49076],[13.267701,52.490753],[13.267703,52.490747],[13.267706,52.490741],[13.267711,52.490735],[13.267808,52.490636],[13.268007,52.490481],[13.268207,52.490328],[13.268362,52.49039],[13.268435,52.490328],[13.268592,52.490315],[13.26865,52.49031],[13.268656,52.49031],[13.268662,52.490311],[13.268668,52.490313],[13.268674,52.490314],[13.268719,52.49026],[13.268682,52.490241],[13.268406,52.490099],[13.268368,52.490078],[13.268343,52.490066],[13.268211,52.489997],[13.26811,52.489946],[13.268092,52.489936],[13.268053,52.489915],[13.267896,52.489834],[13.267739,52.489752],[13.2677,52.489732],[13.267493,52.489624],[13.26728,52.489515],[13.267046,52.489394],[13.266901,52.48932],[13.266835,52.489284],[13.266568,52.489146],[13.266514,52.489125],[13.266289,52.48904],[13.266197,52.489005],[13.26612,52.488976],[13.265847,52.488872],[13.265747,52.488834],[13.265559,52.488974],[13.265336,52.488897],[13.265054,52.4888],[13.265042,52.488814],[13.264961,52.488788],[13.264638,52.48868],[13.264616,52.488711],[13.263994,52.488503],[13.263849,52.488429],[13.263806,52.488406],[13.263798,52.488401],[13.263258,52.488057],[13.263457,52.487963],[13.262918,52.487758],[13.262915,52.487762],[13.262837,52.487844],[13.262818,52.487858],[13.262747,52.487909],[13.262675,52.48796],[13.26241,52.488149],[13.262492,52.488192],[13.261648,52.488806],[13.261463,52.488709],[13.259952,52.487919],[13.259759,52.487818],[13.259758,52.487818],[13.259684,52.487848],[13.259578,52.487904],[13.259459,52.487967],[13.259581,52.488054],[13.259705,52.488142],[13.260226,52.488554],[13.260265,52.488585],[13.260335,52.48864],[13.260856,52.489046],[13.260944,52.489119],[13.260892,52.489211],[13.260745,52.48928]]]]}},{"type":"Feature","id":2,"properties":{"schluessel":"VR0402","gebietsname":"Kurfürstendamm 231","bezirk":"Charlottenburg-Wilmersdorf","fl_in_ha":"1.5","datum_gvbl":"16.11.2024","datum_in_kraft":"17.11.2024","gvbl_link":"https://www.berlin.de/sen/justiz/service/gesetze-und-verordnungen/2024/ausgabe-nr-36-vom-16112024-s-541-560.pdf","weitere_link":"https://www.berlin.de/rbmskzl/aktuelles/pressemitteilungen/2024/pressemitteilung.1500188.php","fachlich_zust":"SenStadt II A"},"geometry":{"type":"MultiPolygon","coordinates":[[[[13.334275,52.503277],[13.334082,52.503353],[13.333801,52.503464],[13.333667,52.503516],[13.333641,52.503563],[13.333631,52.503582],[13.333431,52.503946],[13.333407,52.503991],[13.333403,52.503998],[13.333334,52.503984],[13.333136,52.503941],[13.333096,52.503932],[13.332977,52.503907],[13.332937,52.503898],[13.332815,52.503872],[13.332781,52.503864],[13.332659,52.503838],[13.33262,52.50383],[13.332421,52.503787],[13.332361,52.503774],[13.332039,52.503705],[13.33204,52.503702],[13.332092,52.503612],[13.332097,52.503605],[13.332226,52.50338],[13.332473,52.503282],[13.332391,52.503207],[13.332362,52.50318],[13.332352,52.503171],[13.332181,52.503011],[13.332107,52.502942],[13.332095,52.502931],[13.332092,52.502928],[13.333369,52.502418],[13.333641,52.502675],[13.333646,52.50268],[13.333671,52.502704],[13.33386,52.502883],[13.334075,52.503087],[13.334078,52.50309],[13.334211,52.503217],[13.334275,52.503277]]]]}},{"type":"Feature","id":3,"properties":{"schluessel":"VR0501","gebietsname":"Siemensstadt 2.0","bezirk":"Spandau","fl_in_ha":"51.5","datum_gvbl":"03.09.2021","datum_in_kraft":"04.09.2021","gvbl_link":"https://www.berlin.de/sen/justiz/service/gesetze-und-verordnungen/2021/ausgabe-nr-65-vom-3-9-2021-s-961-972.pdf","weitere_link":"https://www.stadtentwicklung.berlin.de/staedtebau/projekte/siemensstadt/index.shtml","fachlich_zust":"SenStadt II A"},"geometry":{"type":"MultiPolygon","coordinates":[[[[13.263715,52.53662],[13.263919,52.536603],[13.263806,52.536092],[13.264412,52.536038],[13.264325,52.535624],[13.265423,52.535526],[13.264863,52.536525],[13.264452,52.537003],[13.264376,52.537091],[13.264353,52.537134],[13.264306,52.537222],[13.264238,52.537349],[13.264211,52.537399],[13.264054,52.537694],[13.264031,52.537738],[13.264028,52.537742],[13.263748,52.53828],[13.263606,52.538553],[13.263588,52.538587],[13.263546,52.538667],[13.263424,52.538902],[13.263294,52.539153],[13.263265,52.539207],[13.263244,52.539249],[13.263199,52.53924],[13.262868,52.539283],[13.262724,52.539355],[13.262436,52.539499],[13.261395,52.540069],[13.261025,52.540279],[13.260938,52.540329],[13.260726,52.540445],[13.260665,52.540475],[13.260651,52.540482],[13.261034,52.540559],[13.261198,52.540592],[13.261944,52.540743],[13.261632,52.541317],[13.261683,52.541313],[13.262148,52.541275],[13.26214,52.54129],[13.262109,52.541348],[13.262092,52.541379],[13.262083,52.541395],[13.262081,52.541398],[13.261336,52.541459],[13.261133,52.541476],[13.261061,52.541482],[13.260801,52.541504],[13.26,52.54157],[13.259978,52.541571],[13.259895,52.541578],[13.259868,52.54158],[13.259765,52.541589],[13.259728,52.541592],[13.259612,52.54158],[13.259495,52.541569],[13.259389,52.541552],[13.259235,52.541522],[13.259205,52.541517],[13.259128,52.541501],[13.258966,52.541471],[13.258897,52.541458],[13.258808,52.541441],[13.258726,52.541426],[13.25871,52.541434],[13.258402,52.541583],[13.258108,52.541725],[13.257326,52.542113],[13.256978,52.542286],[13.256551,52.542501],[13.256171,52.54271],[13.25614,52.542726],[13.255831,52.542895],[13.255304,52.543181],[13.255149,52.543265],[13.255093,52.543294],[13.254367,52.543676],[13.253739,52.544011],[13.253427,52.544177],[13.252942,52.544461],[13.252539,52.544721],[13.252338,52.544834],[13.252332,52.544837],[13.252286,52.544864],[13.252223,52.544898],[13.2521,52.544963],[13.2518,52.545124],[13.251348,52.545366],[13.250812,52.545654],[13.250697,52.545574],[13.250599,52.545506],[13.250439,52.545396],[13.250141,52.545372],[13.249885,52.545351],[13.249849,52.545348],[13.249121,52.545288],[13.249082,52.545285],[13.249083,52.545278],[13.249168,52.544894],[13.249203,52.544734],[13.249216,52.544675],[13.249229,52.544618],[13.249224,52.544617],[13.249093,52.544607],[13.249089,52.544604],[13.247539,52.544467],[13.247527,52.544451],[13.247517,52.544437],[13.247497,52.54441],[13.247479,52.544383],[13.24746,52.544356],[13.247443,52.544329],[13.247426,52.544302],[13.247409,52.544274],[13.247399,52.544257],[13.247379,52.544222],[13.247374,52.544211],[13.247368,52.544201],[13.247362,52.54419],[13.247347,52.54416],[13.247333,52.54413],[13.247319,52.5441],[13.247306,52.544069],[13.247293,52.544039],[13.247282,52.544008],[13.247278,52.543999],[13.247275,52.543989],[13.247271,52.543979],[13.247264,52.543958],[13.247252,52.543916],[13.247243,52.543885],[13.247235,52.543854],[13.247229,52.543823],[13.247223,52.543798],[13.247219,52.543773],[13.247215,52.543748],[13.247212,52.543729],[13.247209,52.543708],[13.247205,52.543666],[13.247203,52.543635],[13.247201,52.543603],[13.2472,52.543572],[13.2472,52.543541],[13.247202,52.543494],[13.247203,52.543476],[13.247203,52.543466],[13.247204,52.543456],[13.247205,52.543447],[13.247205,52.543443],[13.247206,52.54344],[13.247206,52.543437],[13.247209,52.543409],[13.247213,52.543381],[13.247217,52.543353],[13.247218,52.543349],[13.247219,52.543345],[13.247219,52.543341],[13.247222,52.543323],[13.247226,52.543304],[13.247229,52.543286],[13.247231,52.543277],[13.247233,52.543269],[13.247235,52.54326],[13.247258,52.543161],[13.247339,52.542807],[13.2476,52.54167],[13.247619,52.541586],[13.24762,52.541582],[13.248535,52.541664],[13.248129,52.543558],[13.249429,52.543656],[13.251755,52.543848],[13.253631,52.544009],[13.254425,52.543586],[13.254811,52.542038],[13.251886,52.541796],[13.251849,52.541608],[13.25509,52.541341],[13.254764,52.53988],[13.253462,52.539986],[13.253512,52.540212],[13.251579,52.540366],[13.251309,52.539161],[13.251209,52.538716],[13.251074,52.538114],[13.250975,52.537669],[13.253186,52.537486],[13.25321,52.537484],[13.253225,52.537483],[13.253242,52.537482],[13.254651,52.537366],[13.254772,52.537356],[13.25533,52.53731],[13.255403,52.537304],[13.256642,52.537202],[13.256672,52.5372],[13.258302,52.537066],[13.258148,52.536372],[13.256723,52.53649],[13.256476,52.536372],[13.25618,52.534912],[13.256144,52.534733],[13.255753,52.534766],[13.255729,52.534653],[13.255492,52.534672],[13.255367,52.534108],[13.256029,52.534054],[13.255989,52.533875],[13.257168,52.533778],[13.257206,52.533957],[13.257345,52.534625],[13.257384,52.534813],[13.257516,52.534802],[13.259065,52.534674],[13.259574,52.536961],[13.259771,52.536945],[13.260781,52.536861],[13.260816,52.536859],[13.260819,52.536875],[13.260896,52.536869],[13.261048,52.536857],[13.261044,52.53684],[13.261087,52.536836],[13.261236,52.536824],[13.263715,52.53662]]]]}},{"type":"Feature","id":4,"properties":{"schluessel":"VR0901","gebietsname":"Dreieck Späthsfelde","bezirk":"Treptow-Köpenick","fl_in_ha":"84.9","datum_gvbl":"10.09.2021","datum_in_kraft":"11.09.2021","gvbl_link":"https://www.berlin.de/sen/justiz/service/gesetze-und-verordnungen/2021/ausgabe-nr-68-vom-10-9-2021-s-981-1008.pdf","weitere_link":"https://www.berlin.de/rbmskzl/aktuelles/pressemitteilungen/2021/pressemitteilung.1116737.php","fachlich_zust":"SenStadt II W"},"geometry":{"type":"MultiPolygon","coordinates":[[[[13.473495,52.455533],[13.473217,52.455497],[13.472438,52.455397],[13.472274,52.455376],[13.472198,52.455366],[13.472093,52.455352],[13.472029,52.455344],[13.471996,52.45534],[13.471799,52.455314],[13.471754,52.455307],[13.471754,52.455331],[13.471754,52.455332],[13.471754,52.455336],[13.471752,52.45547],[13.471751,52.45565],[13.47175,52.455696],[13.471751,52.455877],[13.471553,52.455869],[13.471365,52.455863],[13.471174,52.455856],[13.470988,52.45585],[13.470792,52.455843],[13.470714,52.455841],[13.47068,52.456053],[13.47068,52.456054],[13.47065,52.456242],[13.47012,52.456214],[13.470113,52.456214],[13.470118,52.456082],[13.470118,52.456078],[13.470127,52.45582],[13.470052,52.455818],[13.470046,52.455818],[13.470042,52.455818],[13.470037,52.455817],[13.469949,52.455814],[13.468562,52.455755],[13.468554,52.455821],[13.46854,52.455929],[13.46854,52.455933],[13.468539,52.455935],[13.468539,52.455937],[13.468538,52.455945],[13.468526,52.456044],[13.468519,52.456103],[13.468518,52.456105],[13.468516,52.456123],[13.468515,52.456132],[13.468516,52.456147],[13.468516,52.456149],[13.468516,52.456151],[13.46852,52.456224],[13.468522,52.456247],[13.468532,52.456416],[13.468532,52.456418],[13.46854,52.456514],[13.468541,52.456525],[13.468545,52.456571],[13.468545,52.456572],[13.468546,52.456575],[13.468546,52.456581],[13.468552,52.456648],[13.468554,52.456674],[13.468562,52.456761],[13.468564,52.456786],[13.468571,52.45687],[13.468575,52.456915],[13.468575,52.456918],[13.468576,52.456931],[13.468577,52.456941],[13.468577,52.456942],[13.468577,52.456944],[13.468582,52.456996],[13.468591,52.457074],[13.468593,52.457087],[13.468593,52.457088],[13.468596,52.457116],[13.468606,52.457202],[13.46862,52.457321],[13.468625,52.457357],[13.468625,52.457358],[13.468625,52.457359],[13.468625,52.457361],[13.468628,52.457388],[13.468634,52.457418],[13.468635,52.457428],[13.468636,52.457428],[13.468636,52.457431],[13.468641,52.457458],[13.468641,52.457459],[13.468649,52.457504],[13.468651,52.457515],[13.468651,52.457516],[13.468652,52.457518],[13.468656,52.457543],[13.46866,52.457567],[13.468662,52.457576],[13.468662,52.457578],[13.468664,52.457589],[13.468721,52.45791],[13.468724,52.457927],[13.468729,52.457953],[13.468731,52.457969],[13.468763,52.458147],[13.468764,52.458152],[13.468773,52.458203],[13.468795,52.458335],[13.468798,52.458353],[13.468801,52.458367],[13.468801,52.458371],[13.468818,52.458467],[13.468832,52.458546],[13.468835,52.458564],[13.468867,52.458753],[13.46753,52.45879],[13.465337,52.458849],[13.464763,52.458864],[13.464547,52.45887],[13.464541,52.45887],[13.464532,52.458871],[13.464505,52.458871],[13.464504,52.458871],[13.464066,52.458883],[13.463749,52.458892],[13.463746,52.458892],[13.46373,52.458892],[13.463572,52.458896],[13.463369,52.458902],[13.463097,52.458909],[13.462981,52.458912],[13.46287,52.458915],[13.46286,52.458916],[13.462858,52.458916],[13.460656,52.458979],[13.459621,52.45901],[13.459617,52.459016],[13.459587,52.459148],[13.459586,52.459151],[13.459585,52.459153],[13.459585,52.459156],[13.459579,52.459179],[13.458617,52.4592],[13.458599,52.459198],[13.458598,52.459198],[13.458579,52.459196],[13.458545,52.459191],[13.458544,52.459191],[13.458541,52.459191],[13.45852,52.459187],[13.458504,52.459185],[13.458467,52.459179],[13.45843,52.459171],[13.458429,52.459171],[13.458394,52.459163],[13.458358,52.459154],[13.458437,52.459032],[13.458457,52.458996],[13.458461,52.458989],[13.458462,52.458987],[13.458467,52.458977],[13.458497,52.458923],[13.458548,52.458838],[13.458564,52.458817],[13.458566,52.458814],[13.458579,52.458798],[13.458582,52.458794],[13.458637,52.45872],[13.458648,52.458706],[13.458649,52.458704],[13.458653,52.458699],[13.458665,52.458683],[13.458814,52.458494],[13.458859,52.458436],[13.458985,52.458275],[13.459027,52.458216],[13.459028,52.458214],[13.459028,52.458213],[13.459029,52.458212],[13.459036,52.458196],[13.459037,52.458192],[13.459038,52.458191],[13.459038,52.458189],[13.45904,52.458186],[13.459049,52.458163],[13.459058,52.458164],[13.459059,52.458164],[13.459069,52.458165],[13.459092,52.458122],[13.459122,52.458125],[13.459135,52.458126],[13.459178,52.45813],[13.459207,52.45813],[13.459223,52.458129],[13.459239,52.458126],[13.459254,52.458122],[13.459262,52.45812],[13.459269,52.458117],[13.459282,52.458112],[13.459295,52.458105],[13.459298,52.458103],[13.459299,52.458103],[13.4593,52.458102],[13.459306,52.458098],[13.459316,52.45809],[13.45939,52.458019],[13.459678,52.457652],[13.459683,52.457651],[13.459684,52.45765],[13.459708,52.457642],[13.459801,52.457524],[13.45986,52.457447],[13.459889,52.457409],[13.459894,52.457402],[13.459901,52.457393],[13.45992,52.457368],[13.459927,52.457357],[13.459962,52.45729],[13.459966,52.457281],[13.459968,52.457278],[13.459976,52.457262],[13.459977,52.45726],[13.459978,52.457259],[13.459978,52.457258],[13.459979,52.457256],[13.45998,52.457254],[13.459981,52.457253],[13.459983,52.457248],[13.459857,52.457218],[13.460074,52.456903],[13.460089,52.456882],[13.460109,52.456854],[13.460365,52.456484],[13.460354,52.456481],[13.46034,52.456478],[13.460333,52.456476],[13.460435,52.456317],[13.46044,52.456308],[13.460494,52.456224],[13.460511,52.456198],[13.460568,52.456108],[13.460576,52.456096],[13.460586,52.456081],[13.460608,52.456047],[13.460622,52.456025],[13.460653,52.455978],[13.460667,52.455956],[13.460669,52.455953],[13.46067,52.455951],[13.460671,52.45595],[13.460674,52.455945],[13.460671,52.455944],[13.46067,52.455944],[13.460669,52.455944],[13.460667,52.455943],[13.460647,52.455938],[13.460639,52.455936],[13.460637,52.455935],[13.460632,52.455934],[13.460666,52.455887],[13.460667,52.455885],[13.460667,52.455884],[13.46082,52.455674],[13.460859,52.455685],[13.46086,52.455684],[13.46086,52.455683],[13.460878,52.455659],[13.46096,52.455546],[13.460976,52.455524],[13.461054,52.455417],[13.461057,52.455413],[13.461128,52.455303],[13.461132,52.455297],[13.461147,52.455273],[13.461244,52.455125],[13.461437,52.454828],[13.461452,52.454808],[13.461516,52.454757],[13.461539,52.454738],[13.461549,52.454729],[13.461551,52.454727],[13.461555,52.454724],[13.461578,52.454704],[13.461635,52.454675],[13.461638,52.454675],[13.461638,52.454674],[13.461641,52.454674],[13.461674,52.454668],[13.461715,52.454663],[13.461858,52.454683],[13.462187,52.454748],[13.462259,52.454773],[13.46229,52.454789],[13.462316,52.454808],[13.462315,52.454818],[13.462315,52.454829],[13.462313,52.454844],[13.462313,52.454845],[13.462312,52.45485],[13.46231,52.45486],[13.462309,52.454871],[13.462303,52.454892],[13.462301,52.4549],[13.4623,52.454902],[13.4623,52.454904],[13.462299,52.454905],[13.462297,52.454912],[13.462289,52.454933],[13.462281,52.454953],[13.462222,52.455045],[13.462257,52.455081],[13.462282,52.455083],[13.46246,52.454767],[13.462551,52.454606],[13.462586,52.454543],[13.462648,52.454433],[13.462301,52.454311],[13.462102,52.454243],[13.462103,52.454242],[13.462145,52.454171],[13.46215,52.454162],[13.462151,52.454159],[13.462153,52.454156],[13.462167,52.454133],[13.462174,52.454123],[13.462176,52.454119],[13.462181,52.454112],[13.462325,52.453929],[13.462331,52.453918],[13.462333,52.453915],[13.462333,52.453914],[13.462334,52.453913],[13.462346,52.453891],[13.462562,52.4535],[13.462592,52.453432],[13.462636,52.453332],[13.46264,52.453323],[13.462668,52.453259],[13.462646,52.453108],[13.462711,52.453047],[13.462739,52.453021],[13.462743,52.453017],[13.462791,52.452972],[13.462937,52.452836],[13.462723,52.452763],[13.462724,52.452761],[13.462916,52.452389],[13.463009,52.452223],[13.46309,52.452097],[13.4631,52.452081],[13.463108,52.452068],[13.463111,52.452064],[13.463113,52.45206],[13.46312,52.452051],[13.463127,52.452041],[13.463129,52.452039],[13.463136,52.45203],[13.463163,52.451993],[13.463288,52.451825],[13.463338,52.451765],[13.463343,52.451759],[13.463349,52.451751],[13.463387,52.451706],[13.463392,52.4517],[13.463393,52.451699],[13.463393,52.451698],[13.463394,52.451698],[13.463405,52.451685],[13.463557,52.451562],[13.463578,52.451546],[13.463581,52.451543],[13.463608,52.451521],[13.463699,52.45142],[13.463718,52.451385],[13.463834,52.451266],[13.463913,52.451213],[13.46395,52.451188],[13.463969,52.451176],[13.463982,52.451167],[13.464149,52.451056],[13.464363,52.450913],[13.464399,52.450889],[13.464603,52.450753],[13.464749,52.45065],[13.464757,52.450645],[13.464782,52.450627],[13.464808,52.450609],[13.464811,52.450607],[13.464812,52.450606],[13.464825,52.450597],[13.464936,52.450519],[13.464942,52.450515],[13.464943,52.450514],[13.464948,52.45051],[13.465108,52.450397],[13.465253,52.450296],[13.46547,52.450142],[13.465553,52.450082],[13.46564,52.450021],[13.465728,52.449959],[13.465653,52.449922],[13.465609,52.449901],[13.465706,52.449827],[13.465708,52.449828],[13.465711,52.449829],[13.465721,52.449821],[13.465722,52.44982],[13.465725,52.449818],[13.465727,52.449816],[13.465755,52.449792],[13.465774,52.449787],[13.465776,52.449786],[13.465777,52.449786],[13.465779,52.449785],[13.465823,52.4498],[13.465881,52.44982],[13.465885,52.449821],[13.46591,52.449829],[13.465921,52.449821],[13.465971,52.449784],[13.465982,52.449776],[13.465993,52.449768],[13.466085,52.4497],[13.466095,52.449692],[13.466096,52.449691],[13.466099,52.449689],[13.466113,52.449679],[13.466292,52.449553],[13.46633,52.449525],[13.466373,52.449494],[13.466373,52.449493],[13.466376,52.449492],[13.466381,52.449488],[13.46649,52.449409],[13.466673,52.449272],[13.466784,52.449309],[13.466803,52.449316],[13.466804,52.449316],[13.466805,52.449316],[13.466807,52.449317],[13.466951,52.449365],[13.467025,52.449389],[13.467055,52.449399],[13.467145,52.449429],[13.467326,52.449489],[13.467374,52.449505],[13.467397,52.449513],[13.467434,52.449525],[13.467549,52.449563],[13.467742,52.449628],[13.468174,52.449773],[13.468225,52.44979],[13.46824,52.449795],[13.468314,52.449819],[13.468338,52.449827],[13.468499,52.449879],[13.468671,52.4498],[13.468681,52.449796],[13.46869,52.449792],[13.468705,52.449784],[13.46872,52.449778],[13.468839,52.449723],[13.469006,52.449646],[13.469034,52.449659],[13.469038,52.449661],[13.469044,52.449664],[13.469045,52.449665],[13.469046,52.449665],[13.469049,52.449666],[13.469161,52.44972],[13.469427,52.449851],[13.470003,52.450134],[13.470012,52.450138],[13.470021,52.450142],[13.470052,52.450158],[13.470143,52.450202],[13.470725,52.450488],[13.470771,52.450511],[13.47078,52.450516],[13.470792,52.450522],[13.470798,52.450525],[13.470799,52.450526],[13.4708,52.450526],[13.470834,52.450549],[13.47085,52.45056],[13.470864,52.45057],[13.470866,52.450572],[13.470876,52.450578],[13.470971,52.450428],[13.471025,52.45039],[13.471026,52.45039],[13.471033,52.450385],[13.471187,52.450278],[13.471209,52.450262],[13.471238,52.450254],[13.471242,52.450253],[13.471257,52.450248],[13.471267,52.450245],[13.471277,52.450242],[13.471301,52.450236],[13.471313,52.450232],[13.471321,52.45023],[13.471325,52.450229],[13.47142,52.450201],[13.471476,52.450185],[13.47148,52.450183],[13.4715,52.450178],[13.471514,52.450174],[13.471628,52.450141],[13.471664,52.45013],[13.471665,52.45013],[13.471667,52.45013],[13.471667,52.450129],[13.471669,52.450129],[13.47167,52.450128],[13.471671,52.450128],[13.471672,52.450127],[13.471675,52.450126],[13.471693,52.450116],[13.471699,52.450114],[13.471702,52.450112],[13.471709,52.450108],[13.471717,52.450113],[13.47175,52.450131],[13.471791,52.450153],[13.472455,52.45051],[13.472552,52.450563],[13.473066,52.45084],[13.473383,52.451011],[13.474426,52.451573],[13.474735,52.45174],[13.474771,52.451686],[13.47489,52.451535],[13.475003,52.451391],[13.47501,52.451377],[13.475011,52.451374],[13.475015,52.451367],[13.475015,52.451366],[13.475021,52.451355],[13.47513,52.451141],[13.475139,52.451093],[13.475187,52.450838],[13.475188,52.450838],[13.475189,52.450838],[13.47519,52.450839],[13.475196,52.450842],[13.475211,52.45085],[13.475283,52.450888],[13.475312,52.450902],[13.475336,52.450915],[13.475363,52.450929],[13.475404,52.45095],[13.475567,52.451035],[13.476207,52.451368],[13.47621,52.45137],[13.476211,52.451371],[13.476213,52.451371],[13.476215,52.451373],[13.476218,52.451374],[13.476295,52.451442],[13.476661,52.451768],[13.476735,52.451835],[13.476811,52.451902],[13.476828,52.451917],[13.476848,52.451935],[13.476883,52.451966],[13.477472,52.45249],[13.477797,52.45278],[13.478152,52.453095],[13.478193,52.453132],[13.478221,52.453157],[13.478254,52.453186],[13.478256,52.453188],[13.478256,52.453189],[13.478257,52.453189],[13.478276,52.453206],[13.478331,52.453255],[13.478388,52.453231],[13.478435,52.453211],[13.479648,52.452702],[13.479899,52.452926],[13.479918,52.452942],[13.479921,52.452945],[13.479928,52.452951],[13.479959,52.452976],[13.479973,52.452986],[13.47998,52.452992],[13.479985,52.452995],[13.479991,52.453],[13.480025,52.453024],[13.480059,52.453047],[13.48008,52.453059],[13.480085,52.453063],[13.480089,52.453066],[13.480092,52.453067],[13.480093,52.453068],[13.480095,52.453069],[13.480104,52.453074],[13.480107,52.453076],[13.480112,52.453079],[13.480113,52.45308],[13.480116,52.453082],[13.48012,52.453084],[13.480122,52.453085],[13.480123,52.453085],[13.480126,52.453087],[13.480132,52.453091],[13.48017,52.453112],[13.480209,52.453132],[13.480259,52.453157],[13.48026,52.453157],[13.480261,52.453158],[13.480277,52.453166],[13.48028,52.453167],[13.480285,52.45317],[13.480286,52.453171],[13.480287,52.453171],[13.480288,52.453172],[13.480291,52.453175],[13.480292,52.453175],[13.480293,52.453176],[13.480294,52.453177],[13.480298,52.453182],[13.480301,52.453188],[13.480302,52.453195],[13.480302,52.453196],[13.480302,52.453197],[13.480301,52.453197],[13.480301,52.453201],[13.480298,52.453207],[13.480295,52.453211],[13.480295,52.453212],[13.480294,52.453213],[13.480291,52.453216],[13.48029,52.453216],[13.48029,52.453217],[13.480288,52.453218],[13.479746,52.453623],[13.479715,52.453647],[13.47957,52.453755],[13.479366,52.453908],[13.479204,52.454029],[13.478874,52.454269],[13.47871,52.454357],[13.478771,52.454532],[13.47891,52.454907],[13.479202,52.455689],[13.479309,52.455975],[13.479327,52.456023],[13.479341,52.45606],[13.479345,52.456073],[13.47938,52.456165],[13.479357,52.456165],[13.479086,52.456162],[13.479085,52.456162],[13.478363,52.456156],[13.478337,52.456155],[13.478336,52.456155],[13.478199,52.456154],[13.478003,52.456132],[13.478,52.456132],[13.477994,52.456131],[13.477983,52.45613],[13.477806,52.45611],[13.477146,52.456033],[13.476743,52.455987],[13.476431,52.45598],[13.476075,52.455972],[13.47599,52.456024],[13.475967,52.456038],[13.475952,52.456047],[13.475873,52.456096],[13.475794,52.456144],[13.475737,52.456175],[13.475631,52.456233],[13.475574,52.456206],[13.475565,52.456201],[13.475564,52.456201],[13.475544,52.456191],[13.47541,52.456125],[13.475299,52.456182],[13.475293,52.456186],[13.475287,52.456189],[13.475284,52.456191],[13.475218,52.456225],[13.475218,52.456224],[13.475223,52.456213],[13.475224,52.45621],[13.475225,52.456208],[13.47523,52.456195],[13.475176,52.456161],[13.475026,52.456066],[13.474963,52.456027],[13.47495,52.456018],[13.474855,52.456087],[13.474535,52.456062],[13.47452,52.456061],[13.474461,52.456057],[13.474458,52.456057],[13.473804,52.456034],[13.473845,52.455809],[13.47386,52.455727],[13.473868,52.455684],[13.473878,52.455636],[13.473878,52.455634],[13.473879,52.455631],[13.47388,52.455626],[13.473941,52.45559],[13.473933,52.455589],[13.473932,52.455589],[13.473916,52.455587],[13.473608,52.455547],[13.473495,52.455533]]]]}}]}